"STATION","DATE","LATITUDE","LONGITUDE","ELEVATION","NAME","REPORT_TYPE","SOURCE","HourlyAltimeterSetting","HourlyDewPointTemperature","HourlyDryBulbTemperature","HourlyPrecipitation","HourlyPresentWeatherType","HourlyPressureChange","HourlyPressureTendency","HourlyRelativeHumidity","HourlySkyConditions","HourlySeaLevelPressure","HourlyStationPressure","HourlyVisibility","HourlyWetBulbTemperature","HourlyWindDirection","HourlyWindGustSpeed","HourlyWindSpeed","Sunrise","Sunset","DailyAverageDewPointTemperature","DailyAverageDryBulbTemperature","DailyAverageRelativeHumidity","DailyAverageSeaLevelPressure","DailyAverageStationPressure","DailyAverageWetBulbTemperature","DailyAverageWindSpeed","DailyCoolingDegreeDays","DailyDepartureFromNormalAverageTemperature","DailyHeatingDegreeDays","DailyMaximumDryBulbTemperature","DailyMinimumDryBulbTemperature","DailyPeakWindDirection","DailyPeakWindSpeed","DailyPrecipitation","DailySnowDepth","DailySnowfall","DailySustainedWindDirection","DailySustainedWindSpeed","DailyWeather","MonthlyAverageRH","MonthlyDaysWithGT001Precip","MonthlyDaysWithGT010Precip","MonthlyDaysWithGT32Temp","MonthlyDaysWithGT90Temp","MonthlyDaysWithLT0Temp","MonthlyDaysWithLT32Temp","MonthlyDepartureFromNormalAverageTemperature","MonthlyDepartureFromNormalCoolingDegreeDays","MonthlyDepartureFromNormalHeatingDegreeDays","MonthlyDepartureFromNormalMaximumTemperature","MonthlyDepartureFromNormalMinimumTemperature","MonthlyDepartureFromNormalPrecipitation","MonthlyDewpointTemperature","MonthlyGreatestPrecip","MonthlyGreatestPrecipDate","MonthlyGreatestSnowDepth","MonthlyGreatestSnowDepthDate","MonthlyGreatestSnowfall","MonthlyGreatestSnowfallDate","MonthlyMaxSeaLevelPressureValue","MonthlyMaxSeaLevelPressureValueDate","MonthlyMaxSeaLevelPressureValueTime","MonthlyMaximumTemperature","MonthlyMeanTemperature","MonthlyMinSeaLevelPressureValue","MonthlyMinSeaLevelPressureValueDate","MonthlyMinSeaLevelPressureValueTime","MonthlyMinimumTemperature","MonthlySeaLevelPressure","MonthlyStationPressure","MonthlyTotalLiquidPrecipitation","MonthlyTotalSnowfall","MonthlyWetBulb","AWND","CDSD","CLDD","DSNW","HDSD","HTDD","DYTS","DYHF","NormalsCoolingDegreeDay","NormalsHeatingDegreeDay","ShortDurationEndDate005","ShortDurationEndDate010","ShortDurationEndDate015","ShortDurationEndDate020","ShortDurationEndDate030","ShortDurationEndDate045","ShortDurationEndDate060","ShortDurationEndDate080","ShortDurationEndDate100","ShortDurationEndDate120","ShortDurationEndDate150","ShortDurationEndDate180","ShortDurationPrecipitationValue005","ShortDurationPrecipitationValue010","ShortDurationPrecipitationValue015","ShortDurationPrecipitationValue020","ShortDurationPrecipitationValue030","ShortDurationPrecipitationValue045","ShortDurationPrecipitationValue060","ShortDurationPrecipitationValue080","ShortDurationPrecipitationValue100","ShortDurationPrecipitationValue120","ShortDurationPrecipitationValue150","ShortDurationPrecipitationValue180","REM","BackupDirection","BackupDistance","BackupDistanceUnit","BackupElements","BackupElevation","BackupEquipment","BackupLatitude","BackupLongitude","BackupName","WindEquipmentChangeDate"
"01007099999","2021-01-01T01:00:00","78.9166666","11.9333333","7.7","NY ALESUND, SV","FM-12","4","","24","29","","","-0.02","2","83","","29.97","29.94","","27","238","","1","","","","","","","","","","","","","","","","","","","","","","","","","","","","","","","","","","","","","","","","","","","","","","","","","","","","","","","","","","","","","","","","","","","","","","","","","","","","","","","","","","","","","","","","","","","SYN004BUFR","","","","","","","","","",""
"01007099999","2021-01-01T04:00:00","78.9166666","11.9333333","7.7","NY ALESUND, SV","FM-12","4","","26","31","","","-0.03","2","83","","30.00","29.97","","29","134","","0","","","","","","","","","","","","","","","","","","","","","","","","","","","","","","","","","","","","","","","","","","","","","","","","","","","","","","","","","","","","","","","","","","","","","","","","","","","","","","","","","","","","","","","","","","","SYN004BUFR","","","","","","","","","",""
"01007099999","2021-01-01T10:00:00","78.9166666","11.9333333","7.7","NY ALESUND, SV","FM-12","4","","27","33","","","-0.00","2","78","","30.01","29.98","","31","127","","6","","","","","","","","","","","","","","","","","","","","","","","","","","","","","","","","","","","","","","","","","","","","","","","","","","","","","","","","","","","","","","","","","","","","","","","","","","","","","","","","","","","","","","","","","","","SYN004BUFR","","","","","","","","","",""
"01007099999","2021-01-01T22:00:00","78.9166666","11.9333333","7.7","NY ALESUND, SV","FM-12","4","","33","37","","","-0.02","3","84","","30.06","30.03","","35","202","13","6","","","","","","","","","","","","","","","","","","","","","","","","","","","","","","","","","","","","","","","","","","","","","","","","","","","","","","","","","","","","","","","","","","","","","","","","","","","","","","","","","","","","","","","","","","","SYN004BUFR","","","","","","","","","",""
"01007099999","2021-01-02T01:00:00","78.9166666","11.9333333","7.7","NY ALESUND, SV","FM-12","4","","32","37","","","-0.02","0","81","","30.08","30.06","","35","122","27","13","","","","","","","","","","","","","","","","","","","","","","","","","","","","","","","","","","","","","","","","","","","","","","","","","","","","","","","","","","","","","","","","","","","","","","","","","","","","","","","","","","","","","","","","","","","SYN004BUFR","","","","","","","","","",""
"01007099999","2021-01-02T04:00:00","78.9166666","11.9333333","7.7","NY ALESUND, SV","FM-12","4","","31","36","","","-0.01","2","83","","30.09","30.06","","34","124","13","6","","","","","","","","","","","","","","","","","","","","","","","","","","","","","","","","","","","","","","","","","","","","","","","","","","","","","","","","","","","","","","","","","","","","","","","","","","","","","","","","","","","","","","","","","","","SYN004BUFR","","","","","","","","","",""
"01007099999","2021-01-02T10:00:00","78.9166666","11.9333333","7.7","NY ALESUND, SV","FM-12","4","","27","36","","","-0.01","2","71","","30.11","30.08","","33","155","14","8","","","","","","","","","","","","","","","","","","","","","","","","","","","","","","","","","","","","","","","","","","","","","","","","","","","","","","","","","","","","","","","","","","","","","","","","","","","","","","","","","","","","","","","","","","","SYN004BUFR","","","","","","","","","",""
"01007099999","2021-01-02T22:00:00","78.9166666","11.9333333","7.7","NY ALESUND, SV","FM-12","4","","25","33","","","+0.05","8","72","","30.00","29.97","","30","134","15","11","","","","","","","","","","","","","","","","","","","","","","","","","","","","","","","","","","","","","","","","","","","","","","","","","","","","","","","","","","","","","","","","","","","","","","","","","","","","","","","","","","","","","","","","","","","SYN004BUFR","","","","","","","","","",""
"01007099999","2021-01-03T04:00:00","78.9166666","11.9333333","7.7","NY ALESUND, SV","FM-12","4","","26","35","","","+0.07","7","69","","29.88","29.85","","32","129","17","10","","","","","","","","","","","","","","","","","","","","","","","","","","","","","","","","","","","","","","","","","","","","","","","","","","","","","","","","","","","","","","","","","","","","","","","","","","","","","","","","","","","","","","","","","","","SYN004BUFR","","","","","","","","","",""
"01007099999","2021-01-03T10:00:00","78.9166666","11.9333333","7.7","NY ALESUND, SV","FM-12","4","","26","36","","","+0.06","6","69","","29.75","29.72","","32","174","34","17","","","","","","","","","","","","","","","","","","","","","","","","","","","","","","","","","","","","","","","","","","","","","","","","","","","","","","","","","","","","","","","","","","","","","","","","","","","","","","","","","","","","","","","","","","","SYN004BUFR","","","","","","","","","",""
"01007099999","2021-01-04T16:00:00","78.9166666","11.9333333","7.7","NY ALESUND, SV","FM-12","4","","25","29","","","+0.18","8","87","","29.37","29.34","","28","124","27","22","","","","","","","","","","","","","","","","","","","","","","","","","","","","","","","","","","","","","","","","","","","","","","","","","","","","","","","","","","","","","","","","","","","","","","","","","","","","","","","","","","","","","","","","","","","SYN004BUFR","","","","","","","","","",""
"01007099999","2021-01-05T01:00:00","78.9166666","11.9333333","7.7","NY ALESUND, SV","FM-12","4","","29","30","","","+0.04","6","96","","28.99","28.96","","30","120","13","12","","","","","","","","","","","","","","","","","","","","","","","","","","","","","","","","","","","","","","","","","","","","","","","","","","","","","","","","","","","","","","","","","","","","","","","","","","","","","","","","","","","","","","","","","","","SYN004BUFR","","","","","","","","","",""
"01007099999","2021-01-05T04:00:00","78.9166666","11.9333333","7.7","NY ALESUND, SV","FM-12","4","","29","32","","","-0.13","3","88","","29.12","29.09","","31","241","13","9","","","","","","","","","","","","","","","","","","","","","","","","","","","","","","","","","","","","","","","","","","","","","","","","","","","","","","","","","","","","","","","","","","","","","","","","","","","","","","","","","","","","","","","","","","","SYN004BUFR","","","","","","","","","",""
"01007099999","2021-01-05T10:00:00","78.9166666","11.9333333","7.7","NY ALESUND, SV","FM-12","4","","19","22","","","-0.17","1","88","","29.51s","29.48s","","21","301","21","13","","","","","","","","","","","","","","","","","","","","","","","","","","","","","","","","","","","","","","","","","","","","","","","","","","","","","","","","","","","","","","","","","","","","","","","","","","","","","","","","","","","","","","","","","","","SYN004BUFR","","","","","","","","","",""
"01007099999","2021-01-05T14:00:00","78.9166666","11.9333333","7.7","NY ALESUND, SV","FM-12","4","","17","20","","","-0.06","1","87","","29.59","29.56","","19","300","","11","","","","","","","","","","","","","","","","","","","","","","","","","","","","","","","","","","","","","","","","","","","","","","","","","","","","","","","","","","","","","","","","","","","","","","","","","","","","","","","","","","","","","","","","","","","SYN08201007 46/// /3005 11065 21084 30011 40021 51022 333 11062 21065 90710 91006 91107=","","","","","","","","","",""
"01007099999","2021-01-05T16:00:00","78.9166666","11.9333333","7.7","NY ALESUND, SV","FM-12","4","","16","20","","","-0.02","2","86","","29.61","29.58","","19","289","15","11","","","","","","","","","","","","","","","","","","","","","","","","","","","","","","","","","","","","","","","","","","","","","","","","","","","","","","","","","","","","","","","","","","","","","","","","","","","","","","","","","","","","","","","","","","","SYN004BUFR","","","","","","","","","",""
"01007099999","2021-01-05T22:00:00","78.9166666","11.9333333","7.7","NY ALESUND, SV","FM-12","4","","13","18","","","-0.03","2","82","","29.67","29.65","","17","285","","2","","","","","","","","","","","","","","","","","","","","","","","","","","","","","","","","","","","","","","","","","","","","","","","","","","","","","","","","","","","","","","","","","","","","","","","","","","","","","","","","","","","","","","","","","","","SYN004BUFR","","","","","","","","","",""
"01007099999","2021-01-06T01:00:00","78.9166666","11.9333333","7.7","NY ALESUND, SV","FM-12","4","","13","17","","","-0.02","0","84","","29.70","29.67","","16","290","17","6","","","","","","","","","","","","","","","","","","","","","","","","","","","","","","","","","","","","","","","","","","","","","","","","","","","","","","","","","","","","","","","","","","","","","","","","","","","","","","","","","","","","","","","","","","","SYN004BUFR","","","","","","","","","",""
"01007099999","2021-01-06T10:00:00","78.9166666","11.9333333","7.7","NY ALESUND, SV","FM-12","4","","13","17","","","-0.06","2","84","","29.82","29.79","","16","288","19","15","","","","","","","","","","","","","","","","","","","","","","","","","","","","","","","","","","","","","","","","","","","","","","","","","","","","","","","","","","","","","","","","","","","","","","","","","","","","","","","","","","","","","","","","","","","SYN004BUFR","","","","","","","","","",""
"01007099999","2021-01-06T13:00:00","78.9166666","11.9333333","7.7","NY ALESUND, SV","FM-12","4","","9","16","","","-0.07","2","76","OVC:08 20","29.89","29.86","24.85","14","303","20","12","","","","","","","","","","","","","","","","","","","","","","","","","","","","","","","","","","","","","","","","","","","","","","","","","","","","","","","","","","","","","","","","","","","","","","","","","","","","","","","","","","","","","","","","","","","SYN004BUFR","","","","","","","","","",""
"01007099999","2021-01-06T22:00:00","78.9166666","11.9333333","7.7","NY ALESUND, SV","FM-12","4","","7","12","","","-0.05","1","81","","30.04","30.01","","11","141","","6","","","","","","","","","","","","","","","","","","","","","","","","","","","","","","","","","","","","","","","","","","","","","","","","","","","","","","","","","","","","","","","","","","","","","","","","","","","","","","","","","","","","","","","","","","","SYN004BUFR","","","","","","","","","",""
"01007099999","2021-01-07T01:00:00","78.9166666","11.9333333","7.7","NY ALESUND, SV","FM-12","4","","6","11","","","-0.02","1","81","","30.07","30.04","","10","168","","0","","","","","","","","","","","","","","","","","","","","","","","","","","","","","","","","","","","","","","","","","","","","","","","","","","","","","","","","","","","","","","","","","","","","","","","","","","","","","","","","","","","","","","","","","","","SYN004BUFR","","","","","","","","","",""
"01007099999","2021-01-07T02:00:00","78.9166666","11.9333333","7.7","NY ALESUND, SV","FM-12","4","","6","11","","","-0.01","2","79","","30.06","30.03","","10","165","","3","","","","","","","","","","","","","","","","","","","","","","","","","","","","","","","","","","","","","","","","","","","","","","","","","","","","","","","","","","","","","","","","","","","","","","","","","","","","","","","","","","","","","","","","","","","SYN004BUFR","","","","","","","","","",""
"01007099999","2021-01-07T10:00:00","78.9166666","11.9333333","7.7","NY ALESUND, SV","FM-12","4","","9","18","","","+0.03","7","68","","30.03","30.00","","16","156","","7","","","","","","","","","","","","","","","","","","","","","","","","","","","","","","","","","","","","","","","","","","","","","","","","","","","","","","","","","","","","","","","","","","","","","","","","","","","","","","","","","","","","","","","","","","","SYN004BUFR","","","","","","","","","",""
"01007099999","2021-01-07T12:00:00","78.9166666","11.9333333","7.7","NY ALESUND, SV","FM-12","4","","12","21","","","+0.06","8","69","","29.98","29.95","","19","116","24","16","","","","","","","","","","","","","","","","","","","","","","","","","","","","","","","","","","","","","","","","","","","","","","","","","","","","","","","","","","","","","","","","","","","","","","","","","","","","","","","","","","","","","","","","","","","SYN004BUFR","","","","","","","","","",""
"01007099999","2021-01-07T13:00:00","78.9166666","11.9333333","7.7","NY ALESUND, SV","FM-12","4","","13","21","","||BLSN","+0.08","8","72","VV:09","29.95","29.92","0.75","19","111","36","27","","","","","","","","","","","","","","","","","","","","","","","","","","","","","","","","","","","","","","","","","","","","","","","","","","","","","","","","","","","","","","","","","","","","","","","","","","","","","","","","","","","","","","","","","","","SYN004BUFR","","","","","","","","","",""
"01007099999","2021-01-07T16:00:00","78.9166666","11.9333333","7.7","NY ALESUND, SV","FM-12","4","","14","20","","","+0.10","6","79","","29.85","29.82","","18","123","35","29","","","","","","","","","","","","","","","","","","","","","","","","","","","","","","","","","","","","","","","","","","","","","","","","","","","","","","","","","","","","","","","","","","","","","","","","","","","","","","","","","","","","","","","","","","","SYN004BUFR","","","","","","","","","",""
"01007099999","2021-01-07T22:00:00","78.9166666","11.9333333","7.7","NY ALESUND, SV","FM-12","4","","21","24","","","+0.13","6","85","","29.59","29.56","","23","109","60","42","","","","","","","","","","","","","","","","","","","","","","","","","","","","","","","","","","","","","","","","","","","","","","","","","","","","","","","","","","","","","","","","","","","","","","","","","","","","","","","","","","","","","","","","","","","SYN004BUFR","","","","","","","","","",""
"01007099999","2021-01-08T01:00:00","78.9166666","11.9333333","7.7","NY ALESUND, SV","FM-12","4","","24","29","","","+0.11","6","81","","29.48","29.45","","27","116","44","34","","","","","","","","","","","","","","","","","","","","","","","","","","","","","","","","","","","","","","","","","","","","","","","","","","","","","","","","","","","","","","","","","","","","","","","","","","","","","","","","","","","","","","","","","","","SYN004BUFR","","","","","","","","","",""
"01007099999","2021-01-08T02:00:00","78.9166666","11.9333333","7.7","NY ALESUND, SV","FM-12","4","","26","32","","","+0.10","8","80","","29.45","29.42","","30","120","40","27","","","","","","","","","","","","","","","","","","","","","","","","","","","","","","","","","","","","","","","","","","","","","","","","","","","","","","","","","","","","","","","","","","","","","","","","","","","","","","","","","","","","","","","","","","","SYN004BUFR","","","","","","","","","",""
"01007099999","2021-01-08T03:00:00","78.9166666","11.9333333","7.7","NY ALESUND, SV","FM-12","4","","27","30","","","+0.10","6","88","","29.41","29.39","","29","122","33","26","","","","","","","","","","","","","","","","","","","","","","","","","","","","","","","","","","","","","","","","","","","","","","","","","","","","","","","","","","","","","","","","","","","","","","","","","","","","","","","","","","","","","","","","","","","SYN004BUFR","","","","","","","","","",""
"01007099999","2021-01-08T04:00:00","78.9166666","11.9333333","7.7","NY ALESUND, SV","FM-12","4","","30","32","","","+0.08","6","95","","29.40","29.37","","31","122","31","9","","","","","","","","","","","","","","","","","","","","","","","","","","","","","","","","","","","","","","","","","","","","","","","","","","","","","","","","","","","","","","","","","","","","","","","","","","","","","","","","","","","","","","","","","","","SYN004BUFR","","","","","","","","","",""
"01007099999","2021-01-08T05:00:00","78.9166666","11.9333333","7.7","NY ALESUND, SV","FM-12","4","","27","36","","","+0.11","8","71","","29.34","29.31","","33","137","32","23","","","","","","","","","","","","","","","","","","","","","","","","","","","","","","","","","","","","","","","","","","","","","","","","","","","","","","","","","","","","","","","","","","","","","","","","","","","","","","","","","","","","","","","","","","","SYN004BUFR","","","","","","","","","",""
"01007099999","2021-01-08T06:00:00","78.9166666","11.9333333","7.7","NY ALESUND, SV","FM-12","4","","28","35","","","+0.09","6","76","","29.33","29.30","","32","128","30","21","","","","","","","","","","","","","","","","","","","","","","","","","","","","","","","","","","","","","","","","","","","","","","","","","","","","","","","","","","","","","","","","","","","","","","","","","","","","","","","","","","","","","","","","","","","SYN004BUFR","","","","","","","","","",""
"01007099999","2021-01-09T00:00:00","78.9166666","11.9333333","7.7","NY ALESUND, SV","FM-12","4","","14","18","","","-0.06","2","83","","29.84","29.81","","17","236","17","12","","","","","","","","","","","","","","","","","","","","","","","","","","","","","","","","","","","","","","","","","","","","","","","","","","","","","","","","","","","","","","","","","","","","","","","","","","","","","","","","","","","","","","","","","","","SYN004BUFR","","","","","","","","","",""
"01007099999","2021-01-09T01:00:00","78.9166666","11.9333333","7.7","NY ALESUND, SV","FM-12","4","","13","18","","","-0.06","2","81","","29.87","29.84","","17","250","18","11","","","","","","","","","","","","","","","","","","","","","","","","","","","","","","","","","","","","","","","","","","","","","","","","","","","","","","","","","","","","","","","","","","","","","","","","","","","","","","","","","","","","","","","","","","","SYN004BUFR","","","","","","","","","",""
"01007099999","2021-01-09T02:00:00","78.9166666","11.9333333","7.7","NY ALESUND, SV","FM-12","4","","14","18","","","-0.06","1","81","","29.89","29.86","","17","247","15","10","","","","","","","","","","","","","","","","","","","","","","","","","","","","","","","","","","","","","","","","","","","","","","","","","","","","","","","","","","","","","","","","","","","","","","","","","","","","","","","","","","","","","","","","","","","SYN004BUFR","","","","","","","","","",""
"01007099999","2021-01-09T03:00:00","78.9166666","11.9333333","7.7","NY ALESUND, SV","FM-12","4","","13","18","","","-0.05","0","82","","29.89","29.86","","17","263","14","5","","","","","","","","","","","","","","","","","","","","","","","","","","","","","","","","","","","","","","","","","","","","","","","","","","","","","","","","","","","","","","","","","","","","","","","","","","","","","","","","","","","","","","","","","","","SYN004BUFR","","","","","","","","","",""
"01007099999","2021-01-09T06:00:00","78.9166666","11.9333333","7.7","NY ALESUND, SV","FM-12","4","","12","18","","","-0.04","3","76","","29.93","29.91","","16","297","","4","","","","","","","","","","","","","","","","","","","","","","","","","","","","","","","","","","","","","","","","","","","","","","","","","","","","","","","","","","","","","","","","","","","","","","","","","","","","","","","","","","","","","","","","","","","SYN004BUFR","","","","","","","","","",""
"01007099999","2021-01-09T07:00:00","78.9166666","11.9333333","7.7","NY ALESUND, SV","FM-12","4","","11","18","","","-0.05","2","75","OVC:08 20","29.95","29.92","6.21","16","360","15","0","","","","","","","","","","","","","","","","","","","","","","","","","","","","","","","","","","","","","","","","","","","","","","","","","","","","","","","","","","","","","","","","","","","","","","","","","","","","","","","","","","","","","","","","","","","SYN004BUFR","","","","","","","","","",""
"01007099999","2021-01-09T08:00:00","78.9166666","11.9333333","7.7","NY ALESUND, SV","FM-12","4","","13","18","","","-0.05","2","80","","29.97","29.94","","17","298","","2","","","","","","","","","","","","","","","","","","","","","","","","","","","","","","","","","","","","","","","","","","","","","","","","","","","","","","","","","","","","","","","","","","","","","","","","","","","","","","","","","","","","","","","","","","","SYN004BUFR","","","","","","","","","",""
"01007099999","2021-01-09T09:00:00","78.9166666","11.9333333","7.7","NY ALESUND, SV","FM-12","4","","13","18","","","-0.05","2","84","","29.98","29.96","","17","310","13","11","","","","","","","","","","","","","","","","","","","","","","","","","","","","","","","","","","","","","","","","","","","","","","","","","","","","","","","","","","","","","","","","","","","","","","","","","","","","","","","","","","","","","","","","","","","SYN004BUFR","","","","","","","","","",""
"01007099999","2021-01-09T10:00:00","78.9166666","11.9333333","7.7","NY ALESUND, SV","FM-12","4","","13","18","","","-0.06","2","82","","30.01","29.98","","17","307","13","9","","","","","","","","","","","","","","","","","","","","","","","","","","","","","","","","","","","","","","","","","","","","","","","","","","","","","","","","","","","","","","","","","","","","","","","","","","","","","","","","","","","","","","","","","","","SYN004BUFR","","","","","","","","","",""
"01007099999","2021-01-09T12:00:00","78.9166666","11.9333333","7.7","NY ALESUND, SV","FM-12","4","","13","17","","","-0.04","1","84","","30.03","30.00","","16","291","","7","","","","","","","","","","","","","","","","","","","","","","","","","","","","","","","","","","","","","","","","","","","","","","","","","","","","","","","","","","","","","","","","","","","","","","","","","","","","","","","","","","","","","","","","","","","SYN004BUFR","","","","","","","","","",""
"01007099999","2021-01-09T14:00:00","78.9166666","11.9333333","7.7","NY ALESUND, SV","FM-12","4","","13","18","","","-0.00","0","79","","30.03","30.00","","17","318","11","4","","","","","","","","","","","","","","","","","","","","","","","","","","","","","","","","","","","","","","","","","","","","","","","","","","","","","","","","","","","","","","","","","","","","","","","","","","","","","","","","","","","","","","","","","","","SYN004BUFR","","","","","","","","","",""
"01007099999","2021-01-09T17:00:00","78.9166666","11.9333333","7.7","NY ALESUND, SV","FM-12","4","","8","16","","","+0.01","7","70","","30.02","29.99","","14","138","13","9","","","","","","","","","","","","","","","","","","","","","","","","","","","","","","","","","","","","","","","","","","","","","","","","","","","","","","","","","","","","","","","","","","","","","","","","","","","","","","","","","","","","","","","","","","","SYN004BUFR","","","","","","","","","",""
"01007099999","2021-01-09T18:00:00","78.9166666","11.9333333","7.7","NY ALESUND, SV","FM-12","4","","8","18","","","+0.01","7","67","","30.01","29.98","","15","139","15","6","","","","","","","","","","","","","","","","","","","","","","","","","","","","","","","","","","","","","","","","","","","","","","","","","","","","","","","","","","","","","","","","","","","","","","","","","","","","","","","","","","","","","","","","","","","SYN004BUFR","","","","","","","","","",""
"01007099999","2021-01-09T19:00:00","78.9166666","11.9333333","7.7","NY ALESUND, SV","FM-12","4","","13","20","","","+0.02","8","77","OVC:08 49","30.00","29.97","43.50","18","141","23","11","","","","","","","","","","","","","","","","","","","","","","","","","","","","","","","","","","","","","","","","","","","","","","","","","","","","","","","","","","","","","","","","","","","","","","","","","","","","","","","","","","","","","","","","","","","SYN004BUFR","","","","","","","","","",""
"01007099999","2021-01-09T20:00:00","78.9166666","11.9333333","7.7","NY ALESUND, SV","FM-12","4","","17","20","","","+0.01","6","89","","30.01","29.98","","19","146","14","9","","","","","","","","","","","","","","","","","","","","","","","","","","","","","","","","","","","","","","","","","","","","","","","","","","","","","","","","","","","","","","","","","","","","","","","","","","","","","","","","","","","","","","","","","","","SYN004BUFR","","","","","","","","","",""
"01007099999","2021-01-09T21:00:00","78.9166666","11.9333333","7.7","NY ALESUND, SV","FM-12","4","","17","23","","","+0.01","6","79","","30.00","29.97","","21","144","16","11","","","","","","","","","","","","","","","","","","","","","","","","","","","","","","","","","","","","","","","","","","","","","","","","","","","","","","","","","","","","","","","","","","","","","","","","","","","","","","","","","","","","","","","","","","","SYN004BUFR","","","","","","","","","",""
"01007099999","2021-01-09T22:00:00","78.9166666","11.9333333","7.7","NY ALESUND, SV","FM-12","4","","19","25","","","+0.01","8","79","","29.99","29.96","","23","140","16","11","","","","","","","","","","","","","","","","","","","","","","","","","","","","","","","","","","","","","","","","","","","","","","","","","","","","","","","","","","","","","","","","","","","","","","","","","","","","","","","","","","","","","","","","","","","SYN004BUFR","","","","","","","","","",""
"01007099999","2021-01-10T00:00:00","78.9166666","11.9333333","7.7","NY ALESUND, SV","FM-12","4","","22","28","","","+0.02","7","77","","29.98","29.95","","26","115","31","26","","","","","","","","","","","","","","","","","","","","","","","","","","","","","","","","","","","","","","","","","","","","","","","","","","","","","","","","","","","","","","","","","","","","","","","","","","","","","","","","","","","","","","","","","","","SYN004BUFR","","","","","","","","","",""
"01007099999","2021-01-10T01:00:00","78.9166666","11.9333333","7.7","NY ALESUND, SV","FM-12","4","","24","29","","","+0.01","6","79","","29.98","29.96","","27","113","31","24","","","","","","","","","","","","","","","","","","","","","","","","","","","","","","","","","","","","","","","","","","","","","","","","","","","","","","","","","","","","","","","","","","","","","","","","","","","","","","","","","","","","","","","","","","","SYN004BUFR","","","","","","","","","",""
"01007099999","2021-01-10T02:00:00","78.9166666","11.9333333","7.7","NY ALESUND, SV","FM-12","4","","22","29","","","-0.01","3","76","","29.99","29.96","","27","097","27","22","","","","","","","","","","","","","","","","","","","","","","","","","","","","","","","","","","","","","","","","","","","","","","","","","","","","","","","","","","","","","","","","","","","","","","","","","","","","","","","","","","","","","","","","","","","SYN004BUFR","","","","","","","","","",""
"01007099999","2021-01-10T03:00:00","78.9166666","11.9333333","7.7","NY ALESUND, SV","FM-12","4","","23","30","","","-0.01","2","75","","30.00","29.97","","28","108","26","20","","","","","","","","","","","","","","","","","","","","","","","","","","","","","","","","","","","","","","","","","","","","","","","","","","","","","","","","","","","","","","","","","","","","","","","","","","","","","","","","","","","","","","","","","","","SYN004BUFR","","","","","","","","","",""
"01007099999","2021-01-10T04:00:00","78.9166666","11.9333333","7.7","NY ALESUND, SV","FM-12","4","","24","30","","","-0.01","0","76","","29.99","29.96","","28","115","26","21","","","","","","","","","","","","","","","","","","","","","","","","","","","","","","","","","","","","","","","","","","","","","","","","","","","","","","","","","","","","","","","","","","","","","","","","","","","","","","","","","","","","","","","","","","","SYN004BUFR","","","","","","","","","",""
"01007099999","2021-01-10T05:00:00","78.9166666","11.9333333","7.7","NY ALESUND, SV","FM-12","4","","23","30","","","+0.01","8","75","","29.98","29.96","","28","118","28","21","","","","","","","","","","","","","","","","","","","","","","","","","","","","","","","","","","","","","","","","","","","","","","","","","","","","","","","","","","","","","","","","","","","","","","","","","","","","","","","","","","","","","","","","","","","SYN004BUFR","","","","","","","","","",""
"01007099999","2021-01-10T06:00:00","78.9166666","11.9333333","7.7","NY ALESUND, SV","FM-12","4","","23","30","","","+0.00","6","75","","29.99","29.96","","28","120","33","26","","","","","","","","","","","","","","","","","","","","","","","","","","","","","","","","","","","","","","","","","","","","","","","","","","","","","","","","","","","","","","","","","","","","","","","","","","","","","","","","","","","","","","","","","","","SYN004BUFR","","","","","","","","","",""
"01007099999","2021-01-10T07:00:00","78.9166666","11.9333333","7.7","NY ALESUND, SV","FM-12","4","","21","30","","","-0.01","3","69","","30.00","29.97","46.60","27","122","32","21","","","","","","","","","","","","","","","","","","","","","","","","","","","","","","","","","","","","","","","","","","","","","","","","","","","","","","","","","","","","","","","","","","","","","","","","","","","","","","","","","","","","","","","","","","","SYN004BUFR","","","","","","","","","",""
"01007099999","2021-01-10T09:00:00","78.9166666","11.9333333","7.7","NY ALESUND, SV","FM-12","4","","20","29","","","-0.02","2","70","","30.02","29.99","","26","125","22","17","","","","","","","","","","","","","","","","","","","","","","","","","","","","","","","","","","","","","","","","","","","","","","","","","","","","","","","","","","","","","","","","","","","","","","","","","","","","","","","","","","","","","","","","","","","SYN004BUFR","","","","","","","","","",""
"01007099999","2021-01-10T10:00:00","78.9166666","11.9333333","7.7","NY ALESUND, SV","FM-12","4","","20","30","","","-0.03","2","66","","30.03","30.00","","27","123","21","15","","","","","","","","","","","","","","","","","","","","","","","","","","","","","","","","","","","","","","","","","","","","","","","","","","","","","","","","","","","","","","","","","","","","","","","","","","","","","","","","","","","","","","","","","","","SYN004BUFR","","","","","","","","","",""
"01007099999","2021-01-10T11:00:00","78.9166666","11.9333333","7.7","NY ALESUND, SV","FM-12","4","","21","30","","","-0.02","2","70","","30.03","30.00","","27","114","17","13","","","","","","","","","","","","","","","","","","","","","","","","","","","","","","","","","","","","","","","","","","","","","","","","","","","","","","","","","","","","","","","","","","","","","","","","","","","","","","","","","","","","","","","","","","","SYN004BUFR","","","","","","","","","",""
"01007099999","2021-01-10T12:00:00","78.9166666","11.9333333","7.7","NY ALESUND, SV","FM-12","4","","21","30","","","-0.00","0","69","","30.02","29.99","","27","102","16","12","","","","","","","","","","","","","","","","","","","","","","","","","","","","","","","","","","","","","","","","","","","","","","","","","","","","","","","","","","","","","","","","","","","","","","","","","","","","","","","","","","","","","","","","","","","SYN004BUFR","","","","","","","","","",""
"01007099999","2021-01-10T13:00:00","78.9166666","11.9333333","7.7","NY ALESUND, SV","FM-12","4","","20","28","","","+0.02","8","71","FEW:01 20","30.01","29.98","46.60","25","173","16","6","","","","","","","","","","","","","","","","","","","","","","","","","","","","","","","","","","","","","","","","","","","","","","","","","","","","","","","","","","","","","","","","","","","","","","","","","","","","","","","","","","","","","","","","","","","SYN004BUFR","","","","","","","","","",""
"01007099999","2021-01-10T14:00:00","78.9166666","11.9333333","7.7","NY ALESUND, SV","FM-12","4","","19","28","","","+0.04","8","68","","29.99","29.96","","25","140","","4","","","","","","","","","","","","","","","","","","","","","","","","","","","","","","","","","","","","","","","","","","","","","","","","","","","","","","","","","","","","","","","","","","","","","","","","","","","","","","","","","","","","","","","","","","","SYN004BUFR","","","","","","","","","",""
"01007099999","2021-01-10T15:00:00","78.9166666","11.9333333","7.7","NY ALESUND, SV","FM-12","4","","18","27","","","+0.04","7","67","","29.97","29.94","","24","150","","8","","","","","","","","","","","","","","","","","","","","","","","","","","","","","","","","","","","","","","","","","","","","","","","","","","","","","","","","","","","","","","","","","","","","","","","","","","","","","","","","","","","","","","","","","","","SYN004BUFR","","","","","","","","","",""
"01007099999","2021-01-10T16:00:00","78.9166666","11.9333333","7.7","NY ALESUND, SV","FM-12","4","","17","25","","","+0.04","6","72","","29.96","29.94","","23","135","11","7","","","","","","","","","","","","","","","","","","","","","","","","","","","","","","","","","","","","","","","","","","","","","","","","","","","","","","","","","","","","","","","","","","","","","","","","","","","","","","","","","","","","","","","","","","","SYN004BUFR","","","","","","","","","",""
"01007099999","2021-01-10T17:00:00","78.9166666","11.9333333","7.7","NY ALESUND, SV","FM-12","4","","15","25","","","+0.03","7","66","","29.96","29.93","","22","136","","6","","","","","","","","","","","","","","","","","","","","","","","","","","","","","","","","","","","","","","","","","","","","","","","","","","","","","","","","","","","","","","","","","","","","","","","","","","","","","","","","","","","","","","","","","","","SYN004BUFR","","","","","","","","","",""
"01007099999","2021-01-10T18:00:00","78.9166666","11.9333333","7.7","NY ALESUND, SV","FM-12","4","","16","24","","","+0.03","7","69","","29.94","29.91","","22","139","","10","","","","","","","","","","","","","","","","","","","","","","","","","","","","","","","","","","","","","","","","","","","","","","","","","","","","","","","","","","","","","","","","","","","","","","","","","","","","","","","","","","","","","","","","","","","SYN004BUFR","","","","","","","","","",""
"01007099999","2021-01-10T19:00:00","78.9166666","11.9333333","7.7","NY ALESUND, SV","FM-12","4","","18","26","","","+0.03","7","72","FEW:01 20","29.93","29.91","46.60","23","140","11","7","","","","","","","","","","","","","","","","","","","","","","","","","","","","","","","","","","","","","","","","","","","","","","","","","","","","","","","","","","","","","","","","","","","","","","","","","","","","","","","","","","","","","","","","","","","SYN004BUFR","","","","","","","","","",""
"01007099999","2021-01-10T20:00:00","78.9166666","11.9333333","7.7","NY ALESUND, SV","FM-12","4","","16","25","","","+0.03","7","68","","29.92","29.89","","22","147","","7","","","","","","","","","","","","","","","","","","","","","","","","","","","","","","","","","","","","","","","","","","","","","","","","","","","","","","","","","","","","","","","","","","","","","","","","","","","","","","","","","","","","","","","","","","","SYN004BUFR","","","","","","","","","",""
"01007099999","2021-01-10T21:00:00","78.9166666","11.9333333","7.7","NY ALESUND, SV","FM-12","4","","15","25","","","+0.03","7","67","","29.91","29.88","","22","134","","7","","","","","","","","","","","","","","","","","","","","","","","","","","","","","","","","","","","","","","","","","","","","","","","","","","","","","","","","","","","","","","","","","","","","","","","","","","","","","","","","","","","","","","","","","","","SYN004BUFR","","","","","","","","","",""
"01007099999","2021-01-10T22:00:00","78.9166666","11.9333333","7.7","NY ALESUND, SV","FM-12","4","","15","24","","","+0.04","7","68","","29.90","29.87","","21","125","","8","","","","","","","","","","","","","","","","","","","","","","","","","","","","","","","","","","","","","","","","","","","","","","","","","","","","","","","","","","","","","","","","","","","","","","","","","","","","","","","","","","","","","","","","","","","SYN004BUFR","","","","","","","","","",""
"01007099999","2021-01-10T23:00:00","78.9166666","11.9333333","7.7","NY ALESUND, SV","FM-12","4","","17","25","","","+0.04","8","70","","29.88","29.85","","23","137","13","9","","","","","","","","","","","","","","","","","","","","","","","","","","","","","","","","","","","","","","","","","","","","","","","","","","","","","","","","","","","","","","","","","","","","","","","","","","","","","","","","","","","","","","","","","","","SYN004BUFR","","","","","","","","","",""
"01007099999","2021-01-11T01:00:00","78.9166666","11.9333333","7.7","NY ALESUND, SV","FM-12","4","","16","26","","","+0.05","6","67","","29.85","29.83","","23","141","13","6","","","","","","","","","","","","","","","","","","","","","","","","","","","","","","","","","","","","","","","","","","","","","","","","","","","","","","","","","","","","","","","","","","","","","","","","","","","","","","","","","","","","","","","","","","","SYN004BUFR","","","","","","","","","",""
"01007099999","2021-01-11T02:00:00","78.9166666","11.9333333","7.7","NY ALESUND, SV","FM-12","4","","17","26","","","+0.04","7","68","","29.85","29.82","","23","126","","7","","","","","","","","","","","","","","","","","","","","","","","","","","","","","","","","","","","","","","","","","","","","","","","","","","","","","","","","","","","","","","","","","","","","","","","","","","","","","","","","","","","","","","","","","","","SYN004BUFR","","","","","","","","","",""
"01007099999","2021-01-11T04:00:00","78.9166666","11.9333333","7.7","NY ALESUND, SV","FM-12","4","","15","23","","","+0.03","7","72","","29.83","29.80","","21","184","","4","","","","","","","","","","","","","","","","","","","","","","","","","","","","","","","","","","","","","","","","","","","","","","","","","","","","","","","","","","","","","","","","","","","","","","","","","","","","","","","","","","","","","","","","","","","SYN004BUFR","","","","","","","","","",""
"01007099999","2021-01-11T07:00:00","78.9166666","11.9333333","7.7","NY ALESUND, SV","FM-12","4","","16","24","","","+0.03","7","71","FEW:01 33","29.80","29.77","43.50","22","360","","0","","","","","","","","","","","","","","","","","","","","","","","","","","","","","","","","","","","","","","","","","","","","","","","","","","","","","","","","","","","","","","","","","","","","","","","","","","","","","","","","","","","","","","","","","","","SYN004BUFR","","","","","","","","","",""
"01007099999","2021-01-11T08:00:00","78.9166666","11.9333333","7.7","NY ALESUND, SV","FM-12","4","","14","22","","","+0.02","7","72","","29.79","29.76","","20","267","","3","","","","","","","","","","","","","","","","","","","","","","","","","","","","","","","","","","","","","","","","","","","","","","","","","","","","","","","","","","","","","","","","","","","","","","","","","","","","","","","","","","","","","","","","","","","SYN004BUFR","","","","","","","","","",""
"01007099999","2021-01-11T09:00:00","78.9166666","11.9333333","7.7","NY ALESUND, SV","FM-12","4","","16","24","","","+0.01","6","72","","29.79","29.76","","22","153","","4","","","","","","","","","","","","","","","","","","","","","","","","","","","","","","","","","","","","","","","","","","","","","","","","","","","","","","","","","","","","","","","","","","","","","","","","","","","","","","","","","","","","","","","","","","","SYN004BUFR","","","","","","","","","",""
"01007099999","2021-01-11T10:00:00","78.9166666","11.9333333","7.7","NY ALESUND, SV","FM-12","4","","15","23","","","+0.01","7","72","","29.79","29.76","","21","155","","7","","","","","","","","","","","","","","","","","","","","","","","","","","","","","","","","","","","","","","","","","","","","","","","","","","","","","","","","","","","","","","","","","","","","","","","","","","","","","","","","","","","","","","","","","","","SYN004BUFR","","","","","","","","","",""
"01007099999","2021-01-11T12:00:00","78.9166666","11.9333333","7.7","NY ALESUND, SV","FM-12","4","","12","21","","","+0.01","7","67","","29.78","29.75","","19","138","12","7","","","","","","","","","","","","","","","","","","","","","","","","","","","","","","","","","","","","","","","","","","","","","","","","","","","","","","","","","","","","","","","","","","","","","","","","","","","","","","","","","","","","","","","","","","","SYN004BUFR","","","","","","","","","",""
"01007099999","2021-01-11T16:00:00","78.9166666","11.9333333","7.7","NY ALESUND, SV","FM-12","4","","10","17","","","+0.01","6","75","","29.76","29.73","","15","296","","0","","","","","","","","","","","","","","","","","","","","","","","","","","","","","","","","","","","","","","","","","","","","","","","","","","","","","","","","","","","","","","","","","","","","","","","","","","","","","","","","","","","","","","","","","","","SYN004BUFR","","","","","","","","","",""
"01007099999","2021-01-12T04:00:00","78.9166666","11.9333333","7.7","NY ALESUND, SV","FM-12","4","","10","19","","","-0.01","2","68","","29.80","29.77","","17","133","","3","","","","","","","","","","","","","","","","","","","","","","","","","","","","","","","","","","","","","","","","","","","","","","","","","","","","","","","","","","","","","","","","","","","","","","","","","","","","","","","","","","","","","","","","","","","SYN004BUFR","","","","","","","","","",""
"01007099999","2021-01-12T10:00:00","78.9166666","11.9333333","7.7","NY ALESUND, SV","FM-12","4","","15","24","","","-0.02","2","69","","29.83","29.80","","21","126","12","7","","","","","","","","","","","","","","","","","","","","","","","","","","","","","","","","","","","","","","","","","","","","","","","","","","","","","","","","","","","","","","","","","","","","","","","","","","","","","","","","","","","","","","","","","","","SYN004BUFR","","","","","","","","","",""
"01007099999","2021-01-12T16:00:00","78.9166666","11.9333333","7.7","NY ALESUND, SV","FM-12","4","","24","25","","","-0.01","3","94","","29.85","29.82","","25","120","","3","","","","","","","","","","","","","","","","","","","","","","","","","","","","","","","","","","","","","","","","","","","","","","","","","","","","","","","","","","","","","","","","","","","","","","","","","","","","","","","","","","","","","","","","","","","SYN004BUFR","","","","","","","","","",""
"01007099999","2021-01-12T22:00:00","78.9166666","11.9333333","7.7","NY ALESUND, SV","FM-12","4","","16","24","","","-0.02","2","70","","29.88","29.85","","22","245","","2","","","","","","","","","","","","","","","","","","","","","","","","","","","","","","","","","","","","","","","","","","","","","","","","","","","","","","","","","","","","","","","","","","","","","","","","","","","","","","","","","","","","","","","","","","","SYN004BUFR","","","","","","","","","",""
"01007099999","2021-01-13T04:00:00","78.9166666","11.9333333","7.7","NY ALESUND, SV","FM-12","4","","18","22","","","-0.00","2","86","","29.89","29.86","","21","257","","8","","","","","","","","","","","","","","","","","","","","","","","","","","","","","","","","","","","","","","","","","","","","","","","","","","","","","","","","","","","","","","","","","","","","","","","","","","","","","","","","","","","","","","","","","","","SYN004BUFR","","","","","","","","","",""
"01007099999","2021-01-13T10:00:00","78.9166666","11.9333333","7.7","NY ALESUND, SV","FM-12","4","","16","21","","","-0.02","2","81","","29.93","29.90","","20","239","","5","","","","","","","","","","","","","","","","","","","","","","","","","","","","","","","","","","","","","","","","","","","","","","","","","","","","","","","","","","","","","","","","","","","","","","","","","","","","","","","","","","","","","","","","","","","SYN004BUFR","","","","","","","","","",""
"01007099999","2021-01-13T16:00:00","78.9166666","11.9333333","7.7","NY ALESUND, SV","FM-12","4","","15","18","","","-0.01","3","87","","29.96","29.93","","17","132","","4","","","","","","","","","","","","","","","","","","","","","","","","","","","","","","","","","","","","","","","","","","","","","","","","","","","","","","","","","","","","","","","","","","","","","","","","","","","","","","","","","","","","","","","","","","","SYN004BUFR","","","","","","","","","",""
"01007099999","2021-01-13T22:00:00","78.9166666","11.9333333","7.7","NY ALESUND, SV","FM-12","4","","16","19","","","-0.01","2","89","","29.98","29.95","","18","094","","0","","","","","","","","","","","","","","","","","","","","","","","","","","","","","","","","","","","","","","","","","","","","","","","","","","","","","","","","","","","","","","","","","","","","","","","","","","","","","","","","","","","","","","","","","","","SYN004BUFR","","","","","","","","","",""
"01007099999","2021-01-14T01:00:00","78.9166666","11.9333333","7.7","NY ALESUND, SV","FM-12","4","","15","20","","","+0.00","7","80","","29.98","29.95","","19","144","11","6","","","","","","","","","","","","","","","","","","","","","","","","","","","","","","","","","","","","","","","","","","","","","","","","","","","","","","","","","","","","","","","","","","","","","","","","","","","","","","","","","","","","","","","","","","","SYN004BUFR","","","","","","","","","",""
"01007099999","2021-01-14T04:00:00","78.9166666","11.9333333","7.7","NY ALESUND, SV","FM-12","4","","18","20","","","+0.03","7","89","","29.95","29.92","","19","228","","2","","","","","","","","","","","","","","","","","","","","","","","","","","","","","","","","","","","","","","","","","","","","","","","","","","","","","","","","","","","","","","","","","","","","","","","","","","","","","","","","","","","","","","","","","","","SYN004BUFR","","","","","","","","","",""
"01007099999","2021-01-14T12:00:00","78.9166666","11.9333333","7.7","NY ALESUND, SV","FM-12","4","","21","25","","","+0.04","7","85","","29.81","29.78","","24","121","29","22","","","","","","","","","","","","","","","","","","","","","","","","","","","","","","","","","","","","","","","","","","","","","","","","","","","","","","","","","","","","","","","","","","","","","","","","","","","","","","","","","","","","","","","","","","","SYN004BUFR","","","","","","","","","",""
"01007099999","2021-01-14T16:00:00","78.9166666","11.9333333","7.7","NY ALESUND, SV","FM-12","4","","21","25","","","+0.03","6","84","","29.77","29.74","","24","131","24","16","","","","","","","","","","","","","","","","","","","","","","","","","","","","","","","","","","","","","","","","","","","","","","","","","","","","","","","","","","","","","","","","","","","","","","","","","","","","","","","","","","","","","","","","","","","SYN004BUFR","","","","","","","","","",""
"01007099999","2021-01-14T22:00:00","78.9166666","11.9333333","7.7","NY ALESUND, SV","FM-12","4","","23","27","","","-0.01","3","84","","29.77","29.74","","26","123","18","15","","","","","","","","","","","","","","","","","","","","","","","","","","","","","","","","","","","","","","","","","","","","","","","","","","","","","","","","","","","","","","","","","","","","","","","","","","","","","","","","","","","","","","","","","","","SYN004BUFR","","","","","","","","","",""
"01007099999","2021-01-15T04:00:00","78.9166666","11.9333333","7.7","NY ALESUND, SV","FM-12","4","","23","25","","","-0.00","2","91","","29.78","29.75","","24","360","","0","","","","","","","","","","","","","","","","","","","","","","","","","","","","","","","","","","","","","","","","","","","","","","","","","","","","","","","","","","","","","","","","","","","","","","","","","","","","","","","","","","","","","","","","","","","SYN004BUFR","","","","","","","","","",""
"01007099999","2021-01-15T22:00:00","78.9166666","11.9333333","7.7","NY ALESUND, SV","FM-12","4","","13","17","","","-0.02","2","87","","29.85","29.82","","16","139","","3","","","","","","","","","","","","","","","","","","","","","","","","","","","","","","","","","","","","","","","","","","","","","","","","","","","","","","","","","","","","","","","","","","","","","","","","","","","","","","","","","","","","","","","","","","","SYN004BUFR","","","","","","","","","",""
"01007099999","2021-01-16T04:00:00","78.9166666","11.9333333","7.7","NY ALESUND, SV","FM-12","4","","11","15","","","-0.01","2","84","","29.86","29.83","","14","137","","5","","","","","","","","","","","","","","","","","","","","","","","","","","","","","","","","","","","","","","","","","","","","","","","","","","","","","","","","","","","","","","","","","","","","","","","","","","","","","","","","","","","","","","","","","","","SYN004BUFR","","","","","","","","","",""
"01007099999","2021-01-16T10:00:00","78.9166666","11.9333333","7.7","NY ALESUND, SV","FM-12","4","","12","18","","","-0.01","2","77","","29.86","29.83","","16","206","","2","","","","","","","","","","","","","","","","","","","","","","","","","","","","","","","","","","","","","","","","","","","","","","","","","","","","","","","","","","","","","","","","","","","","","","","","","","","","","","","","","","","","","","","","","","","SYN004BUFR","","","","","","","","","",""
"01007099999","2021-01-16T16:00:00","78.9166666","11.9333333","7.7","NY ALESUND, SV","FM-12","4","","15","22","","","+0.03","7","73","","29.82","29.79","","20","216","","2","","","","","","","","","","","","","","","","","","","","","","","","","","","","","","","","","","","","","","","","","","","","","","","","","","","","","","","","","","","","","","","","","","","","","","","","","","","","","","","","","","","","","","","","","","","SYN004BUFR","","","","","","","","","",""
"01007099999","2021-01-16T22:00:00","78.9166666","11.9333333","7.7","NY ALESUND, SV","FM-12","4","","16","25","","","+0.04","7","68","","29.76","29.73","","22","249","","7","","","","","","","","","","","","","","","","","","","","","","","","","","","","","","","","","","","","","","","","","","","","","","","","","","","","","","","","","","","","","","","","","","","","","","","","","","","","","","","","","","","","","","","","","","","SYN004BUFR","","","","","","","","","",""
"01007099999","2021-01-17T01:00:00","78.9166666","11.9333333","7.7","NY ALESUND, SV","FM-12","4","","23","27","","","+0.04","7","87","","29.72","29.69","","26","274","13","4","","","","","","","","","","","","","","","","","","","","","","","","","","","","","","","","","","","","","","","","","","","","","","","","","","","","","","","","","","","","","","","","","","","","","","","","","","","","","","","","","","","","","","","","","","","SYN004BUFR","","","","","","","","","",""
"01007099999","2021-01-17T04:00:00","78.9166666","11.9333333","7.7","NY ALESUND, SV","FM-12","4","","22","26","","","+0.04","7","86","","29.68","29.65","","25","236","","3","","","","","","","","","","","","","","","","","","","","","","","","","","","","","","","","","","","","","","","","","","","","","","","","","","","","","","","","","","","","","","","","","","","","","","","","","","","","","","","","","","","","","","","","","","","SYN004BUFR","","","","","","","","","",""
"01007099999","2021-01-17T10:00:00","78.9166666","11.9333333","7.7","NY ALESUND, SV","FM-12","4","","19","26","","","-0.01","3","75","","29.66","29.63","","24","156","","5","","","","","","","","","","","","","","","","","","","","","","","","","","","","","","","","","","","","","","","","","","","","","","","","","","","","","","","","","","","","","","","","","","","","","","","","","","","","","","","","","","","","","","","","","","","SYN004BUFR","","","","","","","","","",""
"01007099999","2021-01-18T01:00:00","78.9166666","11.9333333","7.7","NY ALESUND, SV","FM-12","4","","15","22","","","-0.03","1","74","","29.79","29.76","","20","119","30","23","","","","","","","","","","","","","","","","","","","","","","","","","","","","","","","","","","","","","","","","","","","","","","","","","","","","","","","","","","","","","","","","","","","","","","","","","","","","","","","","","","","","","","","","","","","SYN004BUFR","","","","","","","","","",""
"01007099999","2021-01-18T04:00:00","78.9166666","11.9333333","7.7","NY ALESUND, SV","FM-12","4","","15","20","","","-0.03","3","81","","29.82","29.79","","19","124","34","24","","","","","","","","","","","","","","","","","","","","","","","","","","","","","","","","","","","","","","","","","","","","","","","","","","","","","","","","","","","","","","","","","","","","","","","","","","","","","","","","","","","","","","","","","","","SYN004BUFR","","","","","","","","","",""
"01007099999","2021-01-18T10:00:00","78.9166666","11.9333333","7.7","NY ALESUND, SV","FM-12","4","","12","20","","","-0.05","3","73","","29.90","29.87","","18","113","41","35","","","","","","","","","","","","","","","","","","","","","","","","","","","","","","","","","","","","","","","","","","","","","","","","","","","","","","","","","","","","","","","","","","","","","","","","","","","","","","","","","","","","","","","","","","","SYN004BUFR","","","","","","","","","",""
"01007099999","2021-01-18T16:00:00","78.9166666","11.9333333","7.7","NY ALESUND, SV","FM-12","4","","10","19","","","-0.05","2","67","","29.99","29.96","","17","097","30","24","","","","","","","","","","","","","","","","","","","","","","","","","","","","","","","","","","","","","","","","","","","","","","","","","","","","","","","","","","","","","","","","","","","","","","","","","","","","","","","","","","","","","","","","","","","SYN004BUFR","","","","","","","","","",""
"01007099999","2021-01-18T22:00:00","78.9166666","11.9333333","7.7","NY ALESUND, SV","FM-12","4","","8","17","","","-0.06","2","65","","30.10","30.06","","15","127","21","13","","","","","","","","","","","","","","","","","","","","","","","","","","","","","","","","","","","","","","","","","","","","","","","","","","","","","","","","","","","","","","","","","","","","","","","","","","","","","","","","","","","","","","","","","","","SYN004BUFR","","","","","","","","","",""
"01007099999","2021-01-19T04:00:00","78.9166666","11.9333333","7.7","NY ALESUND, SV","FM-12","4","","9","18","","","-0.04","2","69","","30.17","30.14","","16","122","28","20","","","","","","","","","","","","","","","","","","","","","","","","","","","","","","","","","","","","","","","","","","","","","","","","","","","","","","","","","","","","","","","","","","","","","","","","","","","","","","","","","","","","","","","","","","","SYN004BUFR","","","","","","","","","",""
"01007099999","2021-01-19T06:00:00","78.9166666","11.9333333","7.7","NY ALESUND, SV","FM-12","4","","12","19","","","-0.04","2","72","","30.20","30.17","","17","115","33","26","","","","","","","","","","","","","","","","","","","","","","","","","","","","","","","","","","","","","","","","","","","","","","","","","","","","","","","","","","","","","","","","","","","","","","","","","","","","","","","","","","","","","","","","","","","SYN004BUFR","","","","","","","","","",""
"01007099999","2021-01-19T16:00:00","78.9166666","11.9333333","7.7","NY ALESUND, SV","FM-12","4","","7","14","","","-0.06","3","73","","30.37","30.34","","12","129","28","21","","","","","","","","","","","","","","","","","","","","","","","","","","","","","","","","","","","","","","","","","","","","","","","","","","","","","","","","","","","","","","","","","","","","","","","","","","","","","","","","","","","","","","","","","","","SYN004BUFR","","","","","","","","","",""
"01007099999","2021-01-19T21:00:00","78.9166666","11.9333333","7.7","NY ALESUND, SV","FM-12","4","","4","16","","","-0.04","2","59","","30.44","30.41","","13","139","18","10","","","","","","","","","","","","","","","","","","","","","","","","","","","","","","","","","","","","","","","","","","","","","","","","","","","","","","","","","","","","","","","","","","","","","","","","","","","","","","","","","","","","","","","","","","","SYN004BUFR","","","","","","","","","",""
"01007099999","2021-01-20T01:00:00","78.9166666","11.9333333","7.7","NY ALESUND, SV","FM-12","4","","6","16","","","-0.02","2","62","","30.47","30.44","","14","124","29","18","","","","","","","","","","","","","","","","","","","","","","","","","","","","","","","","","","","","","","","","","","","","","","","","","","","","","","","","","","","","","","","","","","","","","","","","","","","","","","","","","","","","","","","","","","","SYN004BUFR","","","","","","","","","",""
"01007099999","2021-01-20T04:00:00","78.9166666","11.9333333","7.7","NY ALESUND, SV","FM-12","4","","5","17","","","-0.02","3","60","","30.49","30.46","","14","136","19","11","","","","","","","","","","","","","","","","","","","","","","","","","","","","","","","","","","","","","","","","","","","","","","","","","","","","","","","","","","","","","","","","","","","","","","","","","","","","","","","","","","","","","","","","","","","SYN004BUFR","","","","","","","","","",""
"01007099999","2021-01-20T10:00:00","78.9166666","11.9333333","7.7","NY ALESUND, SV","FM-12","4","","5","18","","","-0.04","2","57","","30.54","30.51","","15","136","12","6","","","","","","","","","","","","","","","","","","","","","","","","","","","","","","","","","","","","","","","","","","","","","","","","","","","","","","","","","","","","","","","","","","","","","","","","","","","","","","","","","","","","","","","","","","","SYN004BUFR","","","","","","","","","",""
"01007099999","2021-01-20T16:00:00","78.9166666","11.9333333","7.7","NY ALESUND, SV","FM-12","4","","8","18","","","-0.02","2","64","","30.58","30.55","","16","104","19","14","","","","","","","","","","","","","","","","","","","","","","","","","","","","","","","","","","","","","","","","","","","","","","","","","","","","","","","","","","","","","","","","","","","","","","","","","","","","","","","","","","","","","","","","","","","SYN004BUFR","","","","","","","","","",""
"01007099999","2021-01-20T19:00:00","78.9166666","11.9333333","7.7","NY ALESUND, SV","FM-12","4","","7","17","","","-0.00","2","64","","30.58","30.55","46.60","15","142","17","8","","","","","","","","","","","","","","","","","","","","","","","","","","","","","","","","","","","","","","","","","","","","","","","","","","","","","","","","","","","","","","","","","","","","","","","","","","","","","","","","","","","","","","","","","","","SYN004BUFR","","","","","","","","","",""
"01007099999","2021-01-22T04:00:00","78.9166666","11.9333333","7.7","NY ALESUND, SV","FM-12","4","","-3","7","","","+0.00","5","63","","30.48","30.45","","5","253","","2","","","","","","","","","","","","","","","","","","","","","","","","","","","","","","","","","","","","","","","","","","","","","","","","","","","","","","","","","","","","","","","","","","","","","","","","","","","","","","","","","","","","","","","","","","","SYN004BUFR","","","","","","","","","",""
"01007099999","2021-01-22T16:00:00","78.9166666","11.9333333","7.7","NY ALESUND, SV","FM-12","4","","-2","6","","","+0.03","7","70","","30.42","30.39","","5","235","","1","","","","","","","","","","","","","","","","","","","","","","","","","","","","","","","","","","","","","","","","","","","","","","","","","","","","","","","","","","","","","","","","","","","","","","","","","","","","","","","","","","","","","","","","","","","SYN004BUFR","","","","","","","","","",""
"01007099999","2021-01-22T22:00:00","78.9166666","11.9333333","7.7","NY ALESUND, SV","FM-12","4","","-2","6","","","+0.03","7","68","","30.38","30.35","","5","290","","4","","","","","","","","","","","","","","","","","","","","","","","","","","","","","","","","","","","","","","","","","","","","","","","","","","","","","","","","","","","","","","","","","","","","","","","","","","","","","","","","","","","","","","","","","","","SYN004BUFR","","","","","","","","","",""
"01007099999","2021-01-23T01:00:00","78.9166666","11.9333333","7.7","NY ALESUND, SV","FM-12","4","","3","12","","","+0.03","7","65","","30.35","30.32","","10","162","","5","","","","","","","","","","","","","","","","","","","","","","","","","","","","","","","","","","","","","","","","","","","","","","","","","","","","","","","","","","","","","","","","","","","","","","","","","","","","","","","","","","","","","","","","","","","SYN004BUFR","","","","","","","","","",""
"01007099999","2021-01-23T04:00:00","78.9166666","11.9333333","7.7","NY ALESUND, SV","FM-12","4","","-1","9","","","+0.03","7","62","","30.32","30.29","","7","159","","1","","","","","","","","","","","","","","","","","","","","","","","","","","","","","","","","","","","","","","","","","","","","","","","","","","","","","","","","","","","","","","","","","","","","","","","","","","","","","","","","","","","","","","","","","","","SYN004BUFR","","","","","","","","","",""
"01007099999","2021-01-23T10:00:00","78.9166666","11.9333333","7.7","NY ALESUND, SV","FM-12","4","","3","10","","","+0.01","7","71","","30.29","30.27","","9","178","","3","","","","","","","","","","","","","","","","","","","","","","","","","","","","","","","","","","","","","","","","","","","","","","","","","","","","","","","","","","","","","","","","","","","","","","","","","","","","","","","","","","","","","","","","","","","SYN004BUFR","","","","","","","","","",""
"01007099999","2021-01-23T16:00:00","78.9166666","11.9333333","7.7","NY ALESUND, SV","FM-12","4","","1","11","","","+0.05","7","64","","30.22","30.19","","9","155","","1","","","","","","","","","","","","","","","","","","","","","","","","","","","","","","","","","","","","","","","","","","","","","","","","","","","","","","","","","","","","","","","","","","","","","","","","","","","","","","","","","","","","","","","","","","","SYN004BUFR","","","","","","","","","",""
"01007099999","2021-01-23T22:00:00","78.9166666","11.9333333","7.7","NY ALESUND, SV","FM-12","4","","2","11","","","+0.03","7","67","","30.16","30.14","","9","120","","6","","","","","","","","","","","","","","","","","","","","","","","","","","","","","","","","","","","","","","","","","","","","","","","","","","","","","","","","","","","","","","","","","","","","","","","","","","","","","","","","","","","","","","","","","","","SYN004BUFR","","","","","","","","","",""
"01007099999","2021-01-24T01:00:00","78.9166666","11.9333333","7.7","NY ALESUND, SV","FM-12","4","","3","13","","","+0.03","7","66","","30.13","30.10","","11","250","","4","","","","","","","","","","","","","","","","","","","","","","","","","","","","","","","","","","","","","","","","","","","","","","","","","","","","","","","","","","","","","","","","","","","","","","","","","","","","","","","","","","","","","","","","","","","SYN004BUFR","","","","","","","","","",""
"01007099999","2021-01-24T04:00:00","78.9166666","11.9333333","7.7","NY ALESUND, SV","FM-12","4","","2","13","","","+0.04","7","61","","30.09","30.06","","11","133","13","6","","","","","","","","","","","","","","","","","","","","","","","","","","","","","","","","","","","","","","","","","","","","","","","","","","","","","","","","","","","","","","","","","","","","","","","","","","","","","","","","","","","","","","","","","","","SYN004BUFR","","","","","","","","","",""
"01007099999","2021-01-24T10:00:00","78.9166666","11.9333333","7.7","NY ALESUND, SV","FM-12","4","","4","13","","","+0.01","7","67","","30.06","30.03","","11","137","16","14","","","","","","","","","","","","","","","","","","","","","","","","","","","","","","","","","","","","","","","","","","","","","","","","","","","","","","","","","","","","","","","","","","","","","","","","","","","","","","","","","","","","","","","","","","","SYN004BUFR","","","","","","","","","",""
"01007099999","2021-01-24T22:00:00","78.9166666","11.9333333","7.7","NY ALESUND, SV","FM-12","4","","7","14","","","-0.03","2","74","","30.08","30.05","","12","155","13","3","","","","","","","","","","","","","","","","","","","","","","","","","","","","","","","","","","","","","","","","","","","","","","","","","","","","","","","","","","","","","","","","","","","","","","","","","","","","","","","","","","","","","","","","","","","SYN004BUFR","","","","","","","","","",""
"01007099999","2021-01-25T04:00:00","78.9166666","11.9333333","7.7","NY ALESUND, SV","FM-12","4","","9","16","","","-0.04","1","73","","30.16","30.13","","14","137","25","17","","","","","","","","","","","","","","","","","","","","","","","","","","","","","","","","","","","","","","","","","","","","","","","","","","","","","","","","","","","","","","","","","","","","","","","","","","","","","","","","","","","","","","","","","","","SYN004BUFR","","","","","","","","","",""
"01007099999","2021-01-25T10:00:00","78.9166666","11.9333333","7.7","NY ALESUND, SV","FM-12","4","","9","19","","","-0.08","2","65","","30.32","30.29","","16","103","23","19","","","","","","","","","","","","","","","","","","","","","","","","","","","","","","","","","","","","","","","","","","","","","","","","","","","","","","","","","","","","","","","","","","","","","","","","","","","","","","","","","","","","","","","","","","","SYN004BUFR","","","","","","","","","",""
"01007099999","2021-01-25T13:00:00","78.9166666","11.9333333","7.7","NY ALESUND, SV","FM-12","4","","5","17","","","-0.08","2","60","FEW:02 33","30.40","30.37","24.85","14","111","24","19","","","","","","","","","","","","","","","","","","","","","","","","","","","","","","","","","","","","","","","","","","","","","","","","","","","","","","","","","","","","","","","","","","","","","","","","","","","","","","","","","","","","","","","","","","","SYN004BUFR","","","","","","","","","",""
"01007099999","2021-01-25T22:00:00","78.9166666","11.9333333","7.7","NY ALESUND, SV","FM-12","4","","4","15","","","-0.05","2","63","","30.55","30.52","","13","110","23","19","","","","","","","","","","","","","","","","","","","","","","","","","","","","","","","","","","","","","","","","","","","","","","","","","","","","","","","","","","","","","","","","","","","","","","","","","","","","","","","","","","","","","","","","","","","SYN004BUFR","","","","","","","","","",""
"01007099999","2021-01-26T01:00:00","78.9166666","11.9333333","7.7","NY ALESUND, SV","FM-12","4","","3","13","","","-0.04","1","63","","30.59","30.56","","11","119","25","17","","","","","","","","","","","","","","","","","","","","","","","","","","","","","","","","","","","","","","","","","","","","","","","","","","","","","","","","","","","","","","","","","","","","","","","","","","","","","","","","","","","","","","","","","","","SYN004BUFR","","","","","","","","","",""
"01007099999","2021-01-26T04:00:00","78.9166666","11.9333333","7.7","NY ALESUND, SV","FM-12","4","","-1","10","","","-0.01","0","59","","30.60","30.57","","8","155","13","8","","","","","","","","","","","","","","","","","","","","","","","","","","","","","","","","","","","","","","","","","","","","","","","","","","","","","","","","","","","","","","","","","","","","","","","","","","","","","","","","","","","","","","","","","","","SYN004BUFR","","","","","","","","","",""
"01007099999","2021-01-26T10:00:00","78.9166666","11.9333333","7.7","NY ALESUND, SV","FM-12","4","","-3","9","","","-0.00","3","56","","30.59","30.56","","7","144","15","11","","","","","","","","","","","","","","","","","","","","","","","","","","","","","","","","","","","","","","","","","","","","","","","","","","","","","","","","","","","","","","","","","","","","","","","","","","","","","","","","","","","","","","","","","","","SYN004BUFR","","","","","","","","","",""
"01007099999","2021-01-26T16:00:00","78.9166666","11.9333333","7.7","NY ALESUND, SV","FM-12","4","","-4","11","","","-0.00","0","50","","30.59","30.55","","8","108","24","19","","","","","","","","","","","","","","","","","","","","","","","","","","","","","","","","","","","","","","","","","","","","","","","","","","","","","","","","","","","","","","","","","","","","","","","","","","","","","","","","","","","","","","","","","","","SYN004BUFR","","","","","","","","","",""
"01007099999","2021-01-26T19:00:00","78.9166666","11.9333333","7.7","NY ALESUND, SV","FM-12","4","","-6","10","","","-0.01","2","49","","30.60","30.57","","7","150","27","17","","","","","","","","","","","","","","","","","","","","","","","","","","","","","","","","","","","","","","","","","","","","","","","","","","","","","","","","","","","","","","","","","","","","","","","","","","","","","","","","","","","","","","","","","","","SYN004BUFR","","","","","","","","","",""
"01007099999","2021-01-27T01:00:00","78.9166666","11.9333333","7.7","NY ALESUND, SV","FM-12","4","","-4","9","","","+0.01","6","55","","30.59","30.56","","7","141","21","16","","","","","","","","","","","","","","","","","","","","","","","","","","","","","","","","","","","","","","","","","","","","","","","","","","","","","","","","","","","","","","","","","","","","","","","","","","","","","","","","","","","","","","","","","","","SYN004BUFR","","","","","","","","","",""
"01007099999","2021-01-27T04:00:00","78.9166666","11.9333333","7.7","NY ALESUND, SV","FM-12","4","","-6","10","","","+0.02","5","48","","30.57","30.54","","7","139","17","15","","","","","","","","","","","","","","","","","","","","","","","","","","","","","","","","","","","","","","","","","","","","","","","","","","","","","","","","","","","","","","","","","","","","","","","","","","","","","","","","","","","","","","","","","","","SYN004BUFR","","","","","","","","","",""
"01007099999","2021-01-27T16:00:00","78.9166666","11.9333333","7.7","NY ALESUND, SV","FM-12","4","","-8","7","","","+0.02","7","51","","30.50","30.46","","5","176","","2","","","","","","","","","","","","","","","","","","","","","","","","","","","","","","","","","","","","","","","","","","","","","","","","","","","","","","","","","","","","","","","","","","","","","","","","","","","","","","","","","","","","","","","","","","","SYN004BUFR","","","","","","","","","",""
"01007099999","2021-01-27T22:00:00","78.9166666","11.9333333","7.7","NY ALESUND, SV","FM-12","4","","-5","6","","","+0.02","7","59","","30.43","30.40","","4","138","11","9","","","","","","","","","","","","","","","","","","","","","","","","","","","","","","","","","","","","","","","","","","","","","","","","","","","","","","","","","","","","","","","","","","","","","","","","","","","","","","","","","","","","","","","","","","","SYN004BUFR","","","","","","","","","",""
"01007099999","2021-01-28T01:00:00","78.9166666","11.9333333","7.7","NY ALESUND, SV","FM-12","4","","-6","4","","","+0.02","7","62","","30.42","30.39","","2","155","13","7","","","","","","","","","","","","","","","","","","","","","","","","","","","","","","","","","","","","","","","","","","","","","","","","","","","","","","","","","","","","","","","","","","","","","","","","","","","","","","","","","","","","","","","","","","","SYN004BUFR","","","","","","","","","",""
"01007099999","2021-01-28T10:00:00","78.9166666","11.9333333","7.7","NY ALESUND, SV","FM-12","4","","-3","6","","","-0.01","3","66","","30.38","30.35","","4","136","15","9","","","","","","","","","","","","","","","","","","","","","","","","","","","","","","","","","","","","","","","","","","","","","","","","","","","","","","","","","","","","","","","","","","","","","","","","","","","","","","","","","","","","","","","","","","","SYN004BUFR","","","","","","","","","",""
"01007099999","2021-01-28T16:00:00","78.9166666","11.9333333","7.7","NY ALESUND, SV","FM-12","4","","-2","6","","","-0.01","2","72","","30.41","30.38","","5","122","26","19","","","","","","","","","","","","","","","","","","","","","","","","","","","","","","","","","","","","","","","","","","","","","","","","","","","","","","","","","","","","","","","","","","","","","","","","","","","","","","","","","","","","","","","","","","","SYN004BUFR","","","","","","","","","",""
"01007099999","2021-01-28T22:00:00","78.9166666","11.9333333","7.7","NY ALESUND, SV","FM-12","4","","-12","0","","","-0.02","0","58","","30.45","30.42","","-1","122","30","21","","","","","","","","","","","","","","","","","","","","","","","","","","","","","","","","","","","","","","","","","","","","","","","","","","","","","","","","","","","","","","","","","","","","","","","","","","","","","","","","","","","","","","","","","","","SYN004BUFR","","","","","","","","","",""
"01007099999","2021-01-29T01:00:00","78.9166666","11.9333333","7.7","NY ALESUND, SV","FM-12","4","","-14","3","","","-0.01","3","44","","30.47","30.43","","1","128","35","17","","","","","","","","","","","","","","","","","","","","","","","","","","","","","","","","","","","","","","","","","","","","","","","","","","","","","","","","","","","","","","","","","","","","","","","","","","","","","","","","","","","","","","","","","","","SYN004BUFR","","","","","","","","","",""
"01007099999","2021-01-29T04:00:00","78.9166666","11.9333333","7.7","NY ALESUND, SV","FM-12","4","","-8","5","","","-0.01","3","53","","30.48","30.45","","3","111","31","24","","","","","","","","","","","","","","","","","","","","","","","","","","","","","","","","","","","","","","","","","","","","","","","","","","","","","","","","","","","","","","","","","","","","","","","","","","","","","","","","","","","","","","","","","","","SYN004BUFR","","","","","","","","","",""
"01007099999","2021-01-29T10:00:00","78.9166666","11.9333333","7.7","NY ALESUND, SV","FM-12","4","","-13","1","","","-0.03","3","51","","30.51","30.48","","-1","136","17","15","","","","","","","","","","","","","","","","","","","","","","","","","","","","","","","","","","","","","","","","","","","","","","","","","","","","","","","","","","","","","","","","","","","","","","","","","","","","","","","","","","","","","","","","","","","SYN004BUFR","","","","","","","","","",""
"01007099999","2021-01-29T16:00:00","78.9166666","11.9333333","7.7","NY ALESUND, SV","FM-12","4","","-15","3","","","+0.00","7","42","","30.52","30.49","","1","146","16","13","","","","","","","","","","","","","","","","","","","","","","","","","","","","","","","","","","","","","","","","","","","","","","","","","","","","","","","","","","","","","","","","","","","","","","","","","","","","","","","","","","","","","","","","","","","SYN004BUFR","","","","","","","","","",""
"01007099999","2021-01-29T22:00:00","78.9166666","11.9333333","7.7","NY ALESUND, SV","FM-12","4","","-13","1","","","-0.01","2","51","","30.53","30.50","","-1","143","15","10","","","","","","","","","","","","","","","","","","","","","","","","","","","","","","","","","","","","","","","","","","","","","","","","","","","","","","","","","","","","","","","","","","","","","","","","","","","","","","","","","","","","","","","","","","","SYN004BUFR","","","","","","","","","",""
"01007099999","2021-01-30T04:00:00","78.9166666","11.9333333","7.7","NY ALESUND, SV","FM-12","4","","-12","1","","","+0.03","7","53","","30.48","30.45","","-1","136","20","15","","","","","","","","","","","","","","","","","","","","","","","","","","","","","","","","","","","","","","","","","","","","","","","","","","","","","","","","","","","","","","","","","","","","","","","","","","","","","","","","","","","","","","","","","","","SYN004BUFR","","","","","","","","","",""
"01007099999","2021-01-30T16:00:00","78.9166666","11.9333333","7.7","NY ALESUND, SV","FM-12","4","","-14","-1","","","+0.04","7","52","","30.32","30.29","","-2","155","12","10","","","","","","","","","","","","","","","","","","","","","","","","","","","","","","","","","","","","","","","","","","","","","","","","","","","","","","","","","","","","","","","","","","","","","","","","","","","","","","","","","","","","","","","","","","","SYN004BUFR","","","","","","","","","",""
"01007099999","2021-01-30T22:00:00","78.9166666","11.9333333","7.7","NY ALESUND, SV","FM-12","4","","-19","-2","","","+0.04","6","43","","30.23","30.20","","-3","144","14","10","","","","","","","","","","","","","","","","","","","","","","","","","","","","","","","","","","","","","","","","","","","","","","","","","","","","","","","","","","","","","","","","","","","","","","","","","","","","","","","","","","","","","","","","","","","SYN004BUFR","","","","","","","","","",""
"01007099999","2021-01-31T01:00:00","78.9166666","11.9333333","7.7","NY ALESUND, SV","FM-12","4","","-19","-2","","","+0.04","7","43","","30.19","30.16","","-3","154","14","6","","","","","","","","","","","","","","","","","","","","","","","","","","","","","","","","","","","","","","","","","","","","","","","","","","","","","","","","","","","","","","","","","","","","","","","","","","","","","","","","","","","","","","","","","","","SYN004BUFR","","","","","","","","","",""
"01007099999","2021-01-31T04:00:00","78.9166666","11.9333333","7.7","NY ALESUND, SV","FM-12","4","","-20","-3","","","+0.04","7","42","","30.15","30.12","","-4","232","","3","","","","","","","","","","","","","","","","","","","","","","","","","","","","","","","","","","","","","","","","","","","","","","","","","","","","","","","","","","","","","","","","","","","","","","","","","","","","","","","","","","","","","","","","","","","SYN004BUFR","","","","","","","","","",""
"01007099999","2021-01-31T16:00:00","78.9166666","11.9333333","7.7","NY ALESUND, SV","FM-12","4","","-18","0","","","+0.04","7","42","","30.03","30.00","","-2","144","13","10","","","","","","","","","","","","","","","","","","","","","","","","","","","","","","","","","","","","","","","","","","","","","","","","","","","","","","","","","","","","","","","","","","","","","","","","","","","","","","","","","","","","","","","","","","","SYN004BUFR","","","","","","","","","",""
"01007099999","2021-01-31T22:00:00","78.9166666","11.9333333","7.7","NY ALESUND, SV","FM-12","4","","-4","7","","","+0.04","6","59","","29.95","29.92","","5","115","23","16","","","","","","","","","","","","","","","","","","","","","","","","","","","","","","","","","","","","","","","","","","","","","","","","","","","","","","","","","","","","","","","","","","","","","","","","","","","","","","","","","","","","","","","","","","","SYN004BUFR","","","","","","","","","",""
"01007099999","2021-02-01T04:00:00","78.9166666","11.9333333","7.7","NY ALESUND, SV","FM-12","4","","3","10","","","+0.04","6","74","","29.87","29.84","","9","118","35","31","","","","","","","","","","","","","","","","","","","","","","","","","","","","","","","","","","","","","","","","","","","","","","","","","","","","","","","","","","","","","","","","","","","","","","","","","","","","","","","","","","","","","","","","","","","SYN004BUFR","","","","","","","","","",""
"01007099999","2021-02-01T10:00:00","78.9166666","11.9333333","7.7","NY ALESUND, SV","FM-12","4","","6","13","","","-0.02","3","75","","29.86","29.83","","11","123","36","30","","","","","","","","","","","","","","","","","","","","","","","","","","","","","","","","","","","","","","","","","","","","","","","","","","","","","","","","","","","","","","","","","","","","","","","","","","","","","","","","","","","","","","","","","","","SYN004BUFR","","","","","","","","","",""
"01007099999","2021-02-01T16:00:00","78.9166666","11.9333333","7.7","NY ALESUND, SV","FM-12","4","","12","15","","","-0.01","3","87","","29.88","29.85","","14","130","26","18","","","","","","","","","","","","","","","","","","","","","","","","","","","","","","","","","","","","","","","","","","","","","","","","","","","","","","","","","","","","","","","","","","","","","","","","","","","","","","","","","","","","","","","","","","","SYN004BUFR","","","","","","","","","",""
"01007099999","2021-02-01T21:00:00","78.9166666","11.9333333","7.7","NY ALESUND, SV","FM-12","4","","13","18","","","-0.02","0","80","","29.90","29.87","","17","246","26","4","","","","","","","","","","","","","","","","","","","","","","","","","","","","","","","","","","","","","","","","","","","","","","","","","","","","","","","","","","","","","","","","","","","","","","","","","","","","","","","","","","","","","","","","","","","SYN004BUFR","","","","","","","","","",""
"01007099999","2021-02-01T22:00:00","78.9166666","11.9333333","7.7","NY ALESUND, SV","FM-12","4","","12","18","","","-0.01","3","77","","29.90","29.87","","16","119","29","24","","","","","","","","","","","","","","","","","","","","","","","","","","","","","","","","","","","","","","","","","","","","","","","","","","","","","","","","","","","","","","","","","","","","","","","","","","","","","","","","","","","","","","","","","","","SYN004BUFR","","","","","","","","","",""
"01007099999","2021-02-02T04:00:00","78.9166666","11.9333333","7.7","NY ALESUND, SV","FM-12","4","","14","20","","","-0.01","2","77","","29.94","29.91","","18","126","16","12","","","","","","","","","","","","","","","","","","","","","","","","","","","","","","","","","","","","","","","","","","","","","","","","","","","","","","","","","","","","","","","","","","","","","","","","","","","","","","","","","","","","","","","","","","","SYN004BUFR","","","","","","","","","",""
"01007099999","2021-02-02T10:00:00","78.9166666","11.9333333","7.7","NY ALESUND, SV","FM-12","4","","13","21","","","-0.01","2","71","","29.95","29.92","","19","143","13","9","","","","","","","","","","","","","","","","","","","","","","","","","","","","","","","","","","","","","","","","","","","","","","","","","","","","","","","","","","","","","","","","","","","","","","","","","","","","","","","","","","","","","","","","","","","SYN004BUFR","","","","","","","","","",""
"01007099999","2021-02-02T14:00:00","78.9166666","11.9333333","7.7","NY ALESUND, SV","FM-12","4","","16","21","","","+0.00","5","81","","29.95","29.92","","20","120","20","14","","","","","","","","","","","","","","","","","","","","","","","","","","","","","","","","","","","","","","","","","","","","","","","","","","","","","","","","","","","","","","","","","","","","","","","","","","","","","","","","","","","","","","","","","","","SYN004BUFR","","","","","","","","","",""
"01007099999","2021-02-02T16:00:00","78.9166666","11.9333333","7.7","NY ALESUND, SV","FM-12","4","","16","23","","","-0.01","3","75","","29.95","29.92","","21","141","13","7","","","","","","","","","","","","","","","","","","","","","","","","","","","","","","","","","","","","","","","","","","","","","","","","","","","","","","","","","","","","","","","","","","","","","","","","","","","","","","","","","","","","","","","","","","","SYN004BUFR","","","","","","","","","",""
"01007099999","2021-02-02T18:00:00","78.9166666","11.9333333","7.7","NY ALESUND, SV","FM-12","4","","17","24","","","+0.01","8","76","","29.94","29.91","","22","120","21","16","","","","","","","","","","","","","","","","","","","","","","","","","","","","","","","","","","","","","","","","","","","","","","","","","","","","","","","","","","","","","","","","","","","","","","","","","","","","","","","","","","","","","","","","","","","SYN004BUFR","","","","","","","","","",""
"01007099999","2021-02-02T20:00:00","78.9166666","11.9333333","7.7","NY ALESUND, SV","FM-12","4","","20","23","","","-0.01","3","89","","29.96","29.93","","22","128","19","8","","","","","","","","","","","","","","","","","","","","","","","","","","","","","","","","","","","","","","","","","","","","","","","","","","","","","","","","","","","","","","","","","","","","","","","","","","","","","","","","","","","","","","","","","","","SYN004BUFR","","","","","","","","","",""
"01007099999","2021-02-02T22:00:00","78.9166666","11.9333333","7.7","NY ALESUND, SV","FM-12","4","","20","23","","","-0.03","2","91","","29.98","29.95","","22","225","16","4","","","","","","","","","","","","","","","","","","","","","","","","","","","","","","","","","","","","","","","","","","","","","","","","","","","","","","","","","","","","","","","","","","","","","","","","","","","","","","","","","","","","","","","","","","","SYN004BUFR","","","","","","","","","",""
"01007099999","2021-02-03T04:00:00","78.9166666","11.9333333","7.7","NY ALESUND, SV","FM-12","4","","23","25","","","+0.01","8","94","","29.94","29.91","","24","119","38","30","","","","","","","","","","","","","","","","","","","","","","","","","","","","","","","","","","","","","","","","","","","","","","","","","","","","","","","","","","","","","","","","","","","","","","","","","","","","","","","","","","","","","","","","","","","SYN004BUFR","","","","","","","","","",""
"01007099999","2021-02-03T10:00:00","78.9166666","11.9333333","7.7","NY ALESUND, SV","FM-12","4","","21","26","","","-0.07","3","81","","30.06","30.03","","24","232","19","9","","","","","","","","","","","","","","","","","","","","","","","","","","","","","","","","","","","","","","","","","","","","","","","","","","","","","","","","","","","","","","","","","","","","","","","","","","","","","","","","","","","","","","","","","","","SYN004BUFR","","","","","","","","","",""
"01007099999","2021-02-03T16:00:00","78.9166666","11.9333333","7.7","NY ALESUND, SV","FM-12","4","","","24","","","-0.06","3","","","30.19","30.16","","","247","21","9","","","","","","","","","","","","","","","","","","","","","","","","","","","","","","","","","","","","","","","","","","","","","","","","","","","","","","","","","","","","","","","","","","","","","","","","","","","","","","","","","","","","","","","","","","","SYN004BUFR","","","","","","","","","",""
"01007099999","2021-02-03T22:00:00","78.9166666","11.9333333","7.7","NY ALESUND, SV","FM-12","4","","","21","","","-0.06","1","","","30.30","30.27","","","234","","1","","","","","","","","","","","","","","","","","","","","","","","","","","","","","","","","","","","","","","","","","","","","","","","","","","","","","","","","","","","","","","","","","","","","","","","","","","","","","","","","","","","","","","","","","","","SYN004BUFR","","","","","","","","","",""
"01007099999","2021-02-04T01:00:00","78.9166666","11.9333333","7.7","NY ALESUND, SV","FM-12","4","","","22","","","-0.03","2","","","30.33","30.30","","","237","15","9","","","","","","","","","","","","","","","","","","","","","","","","","","","","","","","","","","","","","","","","","","","","","","","","","","","","","","","","","","","","","","","","","","","","","","","","","","","","","","","","","","","","","","","","","","","SYN004BUFR","","","","","","","","","",""
"01007099999","2021-02-04T04:00:00","78.9166666","11.9333333","7.7","NY ALESUND, SV","FM-12","4","","13","21","","","-0.02","0","70","","30.36","30.33","","19","242","15","10","","","","","","","","","","","","","","","","","","","","","","","","","","","","","","","","","","","","","","","","","","","","","","","","","","","","","","","","","","","","","","","","","","","","","","","","","","","","","","","","","","","","","","","","","","","SYN004BUFR","","","","","","","","","",""
"01007099999","2021-02-04T10:00:00","78.9166666","11.9333333","7.7","NY ALESUND, SV","FM-12","4","","12","20","","","-0.04","3","71","","30.42","30.39","","18","264","17","11","","","","","","","","","","","","","","","","","","","","","","","","","","","","","","","","","","","","","","","","","","","","","","","","","","","","","","","","","","","","","","","","","","","","","","","","","","","","","","","","","","","","","","","","","","","SYN004BUFR","","","","","","","","","",""
"01007099999","2021-02-04T22:00:00","78.9166666","11.9333333","7.7","NY ALESUND, SV","FM-12","4","","9","14","","","-0.03","3","80","","30.53","30.50","","13","248","","5","","","","","","","","","","","","","","","","","","","","","","","","","","","","","","","","","","","","","","","","","","","","","","","","","","","","","","","","","","","","","","","","","","","","","","","","","","","","","","","","","","","","","","","","","","","SYN004BUFR","","","","","","","","","",""
"01007099999","2021-02-05T01:00:00","78.9166666","11.9333333","7.7","NY ALESUND, SV","FM-12","4","","9","15","","","-0.02","2","78","","30.55","30.52","","14","271","","5","","","","","","","","","","","","","","","","","","","","","","","","","","","","","","","","","","","","","","","","","","","","","","","","","","","","","","","","","","","","","","","","","","","","","","","","","","","","","","","","","","","","","","","","","","","SYN004BUFR","","","","","","","","","",""
"01007099999","2021-02-05T04:00:00","78.9166666","11.9333333","7.7","NY ALESUND, SV","FM-12","4","","10","16","","","-0.02","0","76","","30.57","30.54","","14","230","","5","","","","","","","","","","","","","","","","","","","","","","","","","","","","","","","","","","","","","","","","","","","","","","","","","","","","","","","","","","","","","","","","","","","","","","","","","","","","","","","","","","","","","","","","","","","SYN004BUFR","","","","","","","","","",""
"01007099999","2021-02-05T07:00:00","78.9166666","11.9333333","7.7","NY ALESUND, SV","FM-12","4","","11","17","","","-0.01","2","77","OVC:08 20","30.58","30.55","18.64","15","154","","7","","","","","","","","","","","","","","","","","","","","","","","","","","","","","","","","","","","","","","","","","","","","","","","","","","","","","","","","","","","","","","","","","","","","","","","","","","","","","","","","","","","","","","","","","","","SYN004BUFR","","","","","","","","","",""
"01007099999","2021-02-05T10:00:00","78.9166666","11.9333333","7.7","NY ALESUND, SV","FM-12","4","","11","19","","","-0.01","2","72","","30.60","30.57","","17","140","","1","","","","","","","","","","","","","","","","","","","","","","","","","","","","","","","","","","","","","","","","","","","","","","","","","","","","","","","","","","","","","","","","","","","","","","","","","","","","","","","","","","","","","","","","","","","SYN004BUFR","","","","","","","","","",""
"01007099999","2021-02-05T14:00:00","78.9166666","11.9333333","7.7","NY ALESUND, SV","FM-12","4","","18","21","","","-0.00","2","91","","30.61","30.58","","20","133","12","8","","","","","","","","","","","","","","","","","","","","","","","","","","","","","","","","","","","","","","","","","","","","","","","","","","","","","","","","","","","","","","","","","","","","","","","","","","","","","","","","","","","","","","","","","","","SYN004BUFR","","","","","","","","","",""
"01007099999","2021-02-05T15:00:00","78.9166666","11.9333333","7.7","NY ALESUND, SV","FM-12","4","","20","22","","","-0.02","3","92","","30.63","30.60","","21","048","","3","","","","","","","","","","","","","","","","","","","","","","","","","","","","","","","","","","","","","","","","","","","","","","","","","","","","","","","","","","","","","","","","","","","","","","","","","","","","","","","","","","","","","","","","","","","SYN004BUFR","","","","","","","","","",""
"01007099999","2021-02-05T16:00:00","78.9166666","11.9333333","7.7","NY ALESUND, SV","FM-12","4","","22","25","","","-0.02","3","87","","30.63","30.60","","24","229","12","4","","","","","","","","","","","","","","","","","","","","","","","","","","","","","","","","","","","","","","","","","","","","","","","","","","","","","","","","","","","","","","","","","","","","","","","","","","","","","","","","","","","","","","","","","","","SYN004BUFR","","","","","","","","","",""
"01007099999","2021-02-05T22:00:00","78.9166666","11.9333333","7.7","NY ALESUND, SV","FM-12","4","","21","24","","","-0.04","3","89","","30.72","30.69","","23","305","18","14","","","","","","","","","","","","","","","","","","","","","","","","","","","","","","","","","","","","","","","","","","","","","","","","","","","","","","","","","","","","","","","","","","","","","","","","","","","","","","","","","","","","","","","","","","","SYN004BUFR","","","","","","","","","",""
"01007099999","2021-02-06T01:00:00","78.9166666","11.9333333","7.7","NY ALESUND, SV","FM-12","4","","19","23","","","-0.03","1","87","","30.75","30.72","","22","296","15","10","","","","","","","","","","","","","","","","","","","","","","","","","","","","","","","","","","","","","","","","","","","","","","","","","","","","","","","","","","","","","","","","","","","","","","","","","","","","","","","","","","","","","","","","","","","SYN004BUFR","","","","","","","","","",""
"01007099999","2021-02-06T04:00:00","78.9166666","11.9333333","7.7","NY ALESUND, SV","FM-12","4","","18","22","","","-0.01","0","82","","30.76","30.73","","21","280","18","10","","","","","","","","","","","","","","","","","","","","","","","","","","","","","","","","","","","","","","","","","","","","","","","","","","","","","","","","","","","","","","","","","","","","","","","","","","","","","","","","","","","","","","","","","","","SYN004BUFR","","","","","","","","","",""
"01007099999","2021-02-06T10:00:00","78.9166666","11.9333333","7.7","NY ALESUND, SV","FM-12","4","","20","22","","","+0.01","7","93","","30.74","30.71","","21","254","","4","","","","","","","","","","","","","","","","","","","","","","","","","","","","","","","","","","","","","","","","","","","","","","","","","","","","","","","","","","","","","","","","","","","","","","","","","","","","","","","","","","","","","","","","","","","SYN004BUFR","","","","","","","","","",""
"01007099999","2021-02-06T16:00:00","78.9166666","11.9333333","7.7","NY ALESUND, SV","FM-12","4","","18","21","","","+0.02","7","87","","30.71","30.68","","20","230","","1","","","","","","","","","","","","","","","","","","","","","","","","","","","","","","","","","","","","","","","","","","","","","","","","","","","","","","","","","","","","","","","","","","","","","","","","","","","","","","","","","","","","","","","","","","","SYN004BUFR","","","","","","","","","",""
"01007099999","2021-02-06T22:00:00","78.9166666","11.9333333","7.7","NY ALESUND, SV","FM-12","4","","19","20","","","+0.02","7","94","","30.66","30.63","","20","130","","2","","","","","","","","","","","","","","","","","","","","","","","","","","","","","","","","","","","","","","","","","","","","","","","","","","","","","","","","","","","","","","","","","","","","","","","","","","","","","","","","","","","","","","","","","","","SYN004BUFR","","","","","","","","","",""
"01007099999","2021-02-07T01:00:00","78.9166666","11.9333333","7.7","NY ALESUND, SV","FM-12","4","","10","15","","","+0.03","7","78","","30.63","30.60","","14","142","14","9","","","","","","","","","","","","","","","","","","","","","","","","","","","","","","","","","","","","","","","","","","","","","","","","","","","","","","","","","","","","","","","","","","","","","","","","","","","","","","","","","","","","","","","","","","","SYN004BUFR","","","","","","","","","",""
"01007099999","2021-02-07T10:00:00","78.9166666","11.9333333","7.7","NY ALESUND, SV","FM-12","4","","17","23","","","+0.02","6","78","","30.54","30.50","","21","124","23","11","","","","","","","","","","","","","","","","","","","","","","","","","","","","","","","","","","","","","","","","","","","","","","","","","","","","","","","","","","","","","","","","","","","","","","","","","","","","","","","","","","","","","","","","","","","SYN004BUFR","","","","","","","","","",""
"01007099999","2021-02-07T16:00:00","78.9166666","11.9333333","7.7","NY ALESUND, SV","FM-12","4","","16","20","","","+0.00","5","82","","30.53","30.50","","19","125","28","21","","","","","","","","","","","","","","","","","","","","","","","","","","","","","","","","","","","","","","","","","","","","","","","","","","","","","","","","","","","","","","","","","","","","","","","","","","","","","","","","","","","","","","","","","","","SYN004BUFR","","","","","","","","","",""
"01007099999","2021-02-07T22:00:00","78.9166666","11.9333333","7.7","NY ALESUND, SV","FM-12","4","","14","21","","","-0.02","2","73","","30.55","30.52","","19","123","20","13","","","","","","","","","","","","","","","","","","","","","","","","","","","","","","","","","","","","","","","","","","","","","","","","","","","","","","","","","","","","","","","","","","","","","","","","","","","","","","","","","","","","","","","","","","","SYN004BUFR","","","","","","","","","",""
"01007099999","2021-02-08T10:00:00","78.9166666","11.9333333","7.7","NY ALESUND, SV","FM-12","4","","2","18","","","-0.05","2","48","","30.66","30.63","","14","131","18","15","","","","","","","","","","","","","","","","","","","","","","","","","","","","","","","","","","","","","","","","","","","","","","","","","","","","","","","","","","","","","","","","","","","","","","","","","","","","","","","","","","","","","","","","","","","SYN004BUFR","","","","","","","","","",""
"01007099999","2021-02-08T13:00:00","78.9166666","11.9333333","7.7","NY ALESUND, SV","FM-12","4","","-1","18","","","-0.04","2","44","FEW:01 33","30.70","30.66","46.60","14","140","14","7","","","","","","","","","","","","","","","","","","","","","","","","","","","","","","","","","","","","","","","","","","","","","","","","","","","","","","","","","","","","","","","","","","","","","","","","","","","","","","","","","","","","","","","","","","","SYN004BUFR","","","","","","","","","",""
"01007099999","2021-02-08T14:00:00","78.9166666","11.9333333","7.7","NY ALESUND, SV","FM-12","4","","0","18","","","-0.04","2","44","","30.71","30.68","","14","118","","3","","","","","","","","","","","","","","","","","","","","","","","","","","","","","","","","","","","","","","","","","","","","","","","","","","","","","","","","","","","","","","","","","","","","","","","","","","","","","","","","","","","","","","","","","","","SYN004BUFR","","","","","","","","","",""
"01007099999","2021-02-08T16:00:00","78.9166666","11.9333333","7.7","NY ALESUND, SV","FM-12","4","","-1","17","","","-0.02","0","44","","30.72","30.69","","13","238","13","3","","","","","","","","","","","","","","","","","","","","","","","","","","","","","","","","","","","","","","","","","","","","","","","","","","","","","","","","","","","","","","","","","","","","","","","","","","","","","","","","","","","","","","","","","","","SYN004BUFR","","","","","","","","","",""
"01007099999","2021-02-09T01:00:00","78.9166666","11.9333333","7.7","NY ALESUND, SV","FM-12","4","","-5","15","","","+0.00","8","40","","30.73","30.70","","11","140","14","7","","","","","","","","","","","","","","","","","","","","","","","","","","","","","","","","","","","","","","","","","","","","","","","","","","","","","","","","","","","","","","","","","","","","","","","","","","","","","","","","","","","","","","","","","","","SYN004BUFR","","","","","","","","","",""
"01007099999","2021-02-09T10:00:00","78.9166666","11.9333333","7.7","NY ALESUND, SV","FM-12","4","","-9","10","","","+0.05","7","42","","30.58","30.55","","7","254","","1","","","","","","","","","","","","","","","","","","","","","","","","","","","","","","","","","","","","","","","","","","","","","","","","","","","","","","","","","","","","","","","","","","","","","","","","","","","","","","","","","","","","","","","","","","","SYN004BUFR","","","","","","","","","",""
"01007099999","2021-02-09T11:00:00","78.9166666","11.9333333","7.7","NY ALESUND, SV","FM-12","4","","-9","7","","","+0.05","7","48","","30.56","30.53","","5","289","","1","","","","","","","","","","","","","","","","","","","","","","","","","","","","","","","","","","","","","","","","","","","","","","","","","","","","","","","","","","","","","","","","","","","","","","","","","","","","","","","","","","","","","","","","","","","SYN004BUFR","","","","","","","","","",""
"01007099999","2021-02-09T13:00:00","78.9166666","11.9333333","7.7","NY ALESUND, SV","FM-12","4","","-2","11","","","+0.07","7","55","OVC:08 49","30.52","30.48","31.07","9","134","","6","","","","","","","","","","","","","","","","","","","","","","","","","","","","","","","","","","","","","","","","","","","","","","","","","","","","","","","","","","","","","","","","","","","","","","","","","","","","","","","","","","","","","","","","","","","SYN004BUFR","","","","","","","","","",""
"01007099999","2021-02-09T22:00:00","78.9166666","11.9333333","7.7","NY ALESUND, SV","FM-12","4","","14","18","","","+0.07","7","84","","30.27","30.24","","17","302","18","15","","","","","","","","","","","","","","","","","","","","","","","","","","","","","","","","","","","","","","","","","","","","","","","","","","","","","","","","","","","","","","","","","","","","","","","","","","","","","","","","","","","","","","","","","","","SYN004BUFR","","","","","","","","","",""
"01007099999","2021-02-10T08:00:00","78.9166666","11.9333333","7.7","NY ALESUND, SV","FM-12","4","","6","12","","","+0.06","7","75","","30.07","30.04","","11","123","","7","","","","","","","","","","","","","","","","","","","","","","","","","","","","","","","","","","","","","","","","","","","","","","","","","","","","","","","","","","","","","","","","","","","","","","","","","","","","","","","","","","","","","","","","","","","SYN004BUFR","","","","","","","","","",""
"01007099999","2021-02-10T10:00:00","78.9166666","11.9333333","7.7","NY ALESUND, SV","FM-12","4","","5","11","","","+0.03","6","74","","30.06","30.03","","10","146","12","11","","","","","","","","","","","","","","","","","","","","","","","","","","","","","","","","","","","","","","","","","","","","","","","","","","","","","","","","","","","","","","","","","","","","","","","","","","","","","","","","","","","","","","","","","","","SYN004BUFR","","","","","","","","","",""
"01007099999","2021-02-11T01:00:00","78.9166666","11.9333333","7.7","NY ALESUND, SV","FM-12","4","","-3","7","","","-0.05","2","64","","30.21","30.18","","5","139","17","15","","","","","","","","","","","","","","","","","","","","","","","","","","","","","","","","","","","","","","","","","","","","","","","","","","","","","","","","","","","","","","","","","","","","","","","","","","","","","","","","","","","","","","","","","","","SYN004BUFR","","","","","","","","","",""
"01007099999","2021-02-13T16:00:00","78.9166666","11.9333333","7.7","NY ALESUND, SV","FM-12","4","","","6","","","-0.03","2","","","30.19","30.16","","","241","12","9","","","","","","","","","","","","","","","","","","","","","","","","","","","","","","","","","","","","","","","","","","","","","","","","","","","","","","","","","","","","","","","","","","","","","","","","","","","","","","","","","","","","","","","","","","","SYN004BUFR","","","","","","","","","",""
"01007099999","2021-02-13T22:00:00","78.9166666","11.9333333","7.7","NY ALESUND, SV","FM-12","4","","0","6","","","-0.00","0","76","","30.20","30.17","","5","188","","2","","","","","","","","","","","","","","","","","","","","","","","","","","","","","","","","","","","","","","","","","","","","","","","","","","","","","","","","","","","","","","","","","","","","","","","","","","","","","","","","","","","","","","","","","","","SYN004BUFR","","","","","","","","","",""
"01007099999","2021-02-14T01:00:00","78.9166666","11.9333333","7.7","NY ALESUND, SV","FM-12","4","","-5","5","","","+0.03","8","64","","30.17","30.14","","3","153","13","10","","","","","","","","","","","","","","","","","","","","","","","","","","","","","","","","","","","","","","","","","","","","","","","","","","","","","","","","","","","","","","","","","","","","","","","","","","","","","","","","","","","","","","","","","","","SYN004BUFR","","","","","","","","","",""
"01007099999","2021-02-14T04:00:00","78.9166666","11.9333333","7.7","NY ALESUND, SV","FM-12","4","","-4","6","","","+0.08","7","65","","30.10","30.06","","4","135","12","8","","","","","","","","","","","","","","","","","","","","","","","","","","","","","","","","","","","","","","","","","","","","","","","","","","","","","","","","","","","","","","","","","","","","","","","","","","","","","","","","","","","","","","","","","","","SYN004BUFR","","","","","","","","","",""
"01007099999","2021-02-14T13:00:00","78.9166666","11.9333333","7.7","NY ALESUND, SV","FM-12","4","","5","11","","","+0.03","6","76","OVC:08 33","29.97","29.94","18.64","10","134","31","10","","","","","","","","","","","","","","","","","","","","","","","","","","","","","","","","","","","","","","","","","","","","","","","","","","","","","","","","","","","","","","","","","","","","","","","","","","","","","","","","","","","","","","","","","","","SYN004BUFR","","","","","","","","","",""
"01007099999","2021-02-14T16:00:00","78.9166666","11.9333333","7.7","NY ALESUND, SV","FM-12","4","","5","14","","","+0.01","6","67","","29.96","29.93","","12","126","18","11","","","","","","","","","","","","","","","","","","","","","","","","","","","","","","","","","","","","","","","","","","","","","","","","","","","","","","","","","","","","","","","","","","","","","","","","","","","","","","","","","","","","","","","","","","","SYN004BUFR","","","","","","","","","",""
"01007099999","2021-02-14T22:00:00","78.9166666","11.9333333","7.7","NY ALESUND, SV","FM-12","4","","11","17","","","+0.01","8","75","","29.91","29.88","","15","117","15","11","","","","","","","","","","","","","","","","","","","","","","","","","","","","","","","","","","","","","","","","","","","","","","","","","","","","","","","","","","","","","","","","","","","","","","","","","","","","","","","","","","","","","","","","","","","SYN004BUFR","","","","","","","","","",""
"01007099999","2021-02-15T01:00:00","78.9166666","11.9333333","7.7","NY ALESUND, SV","FM-12","4","","13","16","","","-0.00","0","86","","29.91","29.88","","15","260","16","4","","","","","","","","","","","","","","","","","","","","","","","","","","","","","","","","","","","","","","","","","","","","","","","","","","","","","","","","","","","","","","","","","","","","","","","","","","","","","","","","","","","","","","","","","","","SYN004BUFR","","","","","","","","","",""
"01007099999","2021-02-15T04:00:00","78.9166666","11.9333333","7.7","NY ALESUND, SV","FM-12","4","","15","21","","","-0.01","3","80","","29.92","29.89","","19","251","","1","","","","","","","","","","","","","","","","","","","","","","","","","","","","","","","","","","","","","","","","","","","","","","","","","","","","","","","","","","","","","","","","","","","","","","","","","","","","","","","","","","","","","","","","","","","SYN004BUFR","","","","","","","","","",""
"01007099999","2021-02-15T10:00:00","78.9166666","11.9333333","7.7","NY ALESUND, SV","FM-12","4","","18","24","","","-0.01","3","77","","29.94","29.91","","22","119","26","15","","","","","","","","","","","","","","","","","","","","","","","","","","","","","","","","","","","","","","","","","","","","","","","","","","","","","","","","","","","","","","","","","","","","","","","","","","","","","","","","","","","","","","","","","","","SYN004BUFR","","","","","","","","","",""
"01007099999","2021-02-15T16:00:00","78.9166666","11.9333333","7.7","NY ALESUND, SV","FM-12","4","","20","26","","","-0.02","1","79","","30.01","29.98","","24","163","","6","","","","","","","","","","","","","","","","","","","","","","","","","","","","","","","","","","","","","","","","","","","","","","","","","","","","","","","","","","","","","","","","","","","","","","","","","","","","","","","","","","","","","","","","","","","SYN004BUFR","","","","","","","","","",""
"01007099999","2021-02-15T22:00:00","78.9166666","11.9333333","7.7","NY ALESUND, SV","FM-12","4","","25","28","","","-0.01","2","86","","30.04","30.01","","27","142","","6","","","","","","","","","","","","","","","","","","","","","","","","","","","","","","","","","","","","","","","","","","","","","","","","","","","","","","","","","","","","","","","","","","","","","","","","","","","","","","","","","","","","","","","","","","","SYN004BUFR","","","","","","","","","",""
"01007099999","2021-02-16T01:00:00","78.9166666","11.9333333","7.7","NY ALESUND, SV","FM-12","4","","25","29","","","+0.00","8","86","","30.03","30.01","","28","111","","4","","","","","","","","","","","","","","","","","","","","","","","","","","","","","","","","","","","","","","","","","","","","","","","","","","","","","","","","","","","","","","","","","","","","","","","","","","","","","","","","","","","","","","","","","","","SYN004BUFR","","","","","","","","","",""
"01007099999","2021-02-16T04:00:00","78.9166666","11.9333333","7.7","NY ALESUND, SV","FM-12","4","","24","35","","","+0.02","7","65","","30.01","29.99","","31","142","17","9","","","","","","","","","","","","","","","","","","","","","","","","","","","","","","","","","","","","","","","","","","","","","","","","","","","","","","","","","","","","","","","","","","","","","","","","","","","","","","","","","","","","","","","","","","","SYN004BUFR","","","","","","","","","",""
"01007099999","2021-02-16T11:00:00","78.9166666","11.9333333","7.7","NY ALESUND, SV","FM-12","4","","27","36","","","+0.04","7","69","","29.94","29.91","","33","044","11","7","","","","","","","","","","","","","","","","","","","","","","","","","","","","","","","","","","","","","","","","","","","","","","","","","","","","","","","","","","","","","","","","","","","","","","","","","","","","","","","","","","","","","","","","","","","SYN004BUFR","","","","","","","","","",""
"01007099999","2021-02-16T16:00:00","78.9166666","11.9333333","7.7","NY ALESUND, SV","FM-12","4","","29","35","","","+0.02","8","80","","29.91","29.88","","33","101","14","7","","","","","","","","","","","","","","","","","","","","","","","","","","","","","","","","","","","","","","","","","","","","","","","","","","","","","","","","","","","","","","","","","","","","","","","","","","","","","","","","","","","","","","","","","","","SYN004BUFR","","","","","","","","","",""
"01007099999","2021-02-16T22:00:00","78.9166666","11.9333333","7.7","NY ALESUND, SV","FM-12","4","","32","35","","","-0.00","2","91","","29.89","29.86","","34","159","","1","","","","","","","","","","","","","","","","","","","","","","","","","","","","","","","","","","","","","","","","","","","","","","","","","","","","","","","","","","","","","","","","","","","","","","","","","","","","","","","","","","","","","","","","","","","SYN004BUFR","","","","","","","","","",""
"01007099999","2021-02-17T01:00:00","78.9166666","11.9333333","7.7","NY ALESUND, SV","FM-12","4","","31","32","","","+0.00","7","96","","29.89","29.86","","32","114","11","3","","","","","","","","","","","","","","","","","","","","","","","","","","","","","","","","","","","","","","","","","","","","","","","","","","","","","","","","","","","","","","","","","","","","","","","","","","","","","","","","","","","","","","","","","","","SYN004BUFR","","","","","","","","","",""
"01007099999","2021-02-17T04:00:00","78.9166666","11.9333333","7.7","NY ALESUND, SV","FM-12","4","","31","34","","","+0.00","5","89","","29.89","29.86","","33","103","","4","","","","","","","","","","","","","","","","","","","","","","","","","","","","","","","","","","","","","","","","","","","","","","","","","","","","","","","","","","","","","","","","","","","","","","","","","","","","","","","","","","","","","","","","","","","SYN004BUFR","","","","","","","","","",""
"01007099999","2021-02-17T09:00:00","78.9166666","11.9333333","7.7","NY ALESUND, SV","FM-12","4","","32","34","","","-0.01","2","91","","29.90","29.87","","33","121","","2","","","","","","","","","","","","","","","","","","","","","","","","","","","","","","","","","","","","","","","","","","","","","","","","","","","","","","","","","","","","","","","","","","","","","","","","","","","","","","","","","","","","","","","","","","","SYN004BUFR","","","","","","","","","",""
"01007099999","2021-02-17T10:00:00","78.9166666","11.9333333","7.7","NY ALESUND, SV","FM-12","4","","31","35","","","-0.01","2","86","","29.91","29.88","","33","111","","4","","","","","","","","","","","","","","","","","","","","","","","","","","","","","","","","","","","","","","","","","","","","","","","","","","","","","","","","","","","","","","","","","","","","","","","","","","","","","","","","","","","","","","","","","","","SYN004BUFR","","","","","","","","","",""
"01007099999","2021-02-17T16:00:00","78.9166666","11.9333333","7.7","NY ALESUND, SV","FM-12","4","","29","35","","","-0.01","2","77","","29.94","29.91","","33","360","","0","","","","","","","","","","","","","","","","","","","","","","","","","","","","","","","","","","","","","","","","","","","","","","","","","","","","","","","","","","","","","","","","","","","","","","","","","","","","","","","","","","","","","","","","","","","SYN004BUFR","","","","","","","","","",""
"01007099999","2021-02-17T22:00:00","78.9166666","11.9333333","7.7","NY ALESUND, SV","FM-12","4","","30","34","","","-0.03","3","85","","29.98","29.96","","32","276","","1","","","","","","","","","","","","","","","","","","","","","","","","","","","","","","","","","","","","","","","","","","","","","","","","","","","","","","","","","","","","","","","","","","","","","","","","","","","","","","","","","","","","","","","","","","","SYN004BUFR","","","","","","","","","",""
"01007099999","2021-02-18T01:00:00","78.9166666","11.9333333","7.7","NY ALESUND, SV","FM-12","4","","29","33","","","-0.02","2","84","","30.00","29.97","","31","204","16","0","","","","","","","","","","","","","","","","","","","","","","","","","","","","","","","","","","","","","","","","","","","","","","","","","","","","","","","","","","","","","","","","","","","","","","","","","","","","","","","","","","","","","","","","","","","SYN004BUFR","","","","","","","","","",""
"01007099999","2021-02-18T04:00:00","78.9166666","11.9333333","7.7","NY ALESUND, SV","FM-12","4","","30","33","","","-0.03","3","88","","30.03","30.00","","32","221","","0","","","","","","","","","","","","","","","","","","","","","","","","","","","","","","","","","","","","","","","","","","","","","","","","","","","","","","","","","","","","","","","","","","","","","","","","","","","","","","","","","","","","","","","","","","","SYN004BUFR","","","","","","","","","",""
"01007099999","2021-02-18T07:00:00","78.9166666","11.9333333","7.7","NY ALESUND, SV","FM-12","4","","27","33","","","-0.02","2","78","OVC:08 20","30.05","30.02","31.07","31","206","","3","","","","","","","","","","","","","","","","","","","","","","","","","","","","","","","","","","","","","","","","","","","","","","","","","","","","","","","","","","","","","","","","","","","","","","","","","","","","","","","","","","","","","","","","","","","SYN004BUFR","","","","","","","","","",""
"01007099999","2021-02-18T10:00:00","78.9166666","11.9333333","7.7","NY ALESUND, SV","FM-12","4","","27","32","","","-0.02","2","83","","30.07","30.04","","30","119","16","13","","","","","","","","","","","","","","","","","","","","","","","","","","","","","","","","","","","","","","","","","","","","","","","","","","","","","","","","","","","","","","","","","","","","","","","","","","","","","","","","","","","","","","","","","","","SYN004BUFR","","","","","","","","","",""
"01007099999","2021-02-18T22:00:00","78.9166666","11.9333333","7.7","NY ALESUND, SV","FM-12","4","","24","29","","","-0.03","1","81","","30.13","30.10","","27","126","19","15","","","","","","","","","","","","","","","","","","","","","","","","","","","","","","","","","","","","","","","","","","","","","","","","","","","","","","","","","","","","","","","","","","","","","","","","","","","","","","","","","","","","","","","","","","","SYN004BUFR","","","","","","","","","",""
"01007099999","2021-02-19T01:00:00","78.9166666","11.9333333","7.7","NY ALESUND, SV","FM-12","4","","22","29","","","-0.01","0","73","","30.14","30.11","","27","209","12","4","","","","","","","","","","","","","","","","","","","","","","","","","","","","","","","","","","","","","","","","","","","","","","","","","","","","","","","","","","","","","","","","","","","","","","","","","","","","","","","","","","","","","","","","","","","SYN004BUFR","","","","","","","","","",""
"01007099999","2021-02-19T04:00:00","78.9166666","11.9333333","7.7","NY ALESUND, SV","FM-12","4","","19","28","","","-0.01","2","68","","30.16","30.13","","25","161","12","6","","","","","","","","","","","","","","","","","","","","","","","","","","","","","","","","","","","","","","","","","","","","","","","","","","","","","","","","","","","","","","","","","","","","","","","","","","","","","","","","","","","","","","","","","","","SYN004BUFR","","","","","","","","","",""
"01007099999","2021-02-19T10:00:00","78.9166666","11.9333333","7.7","NY ALESUND, SV","FM-12","4","","22","29","","","-0.01","2","76","","30.17","30.14","","27","113","15","13","","","","","","","","","","","","","","","","","","","","","","","","","","","","","","","","","","","","","","","","","","","","","","","","","","","","","","","","","","","","","","","","","","","","","","","","","","","","","","","","","","","","","","","","","","","SYN004BUFR","","","","","","","","","",""
"01007099999","2021-02-20T16:00:00","78.9166666","11.9333333","7.7","NY ALESUND, SV","FM-12","4","","13","22","","","+0.01","6","70","","30.24","30.22","","19","126","24","16","","","","","","","","","","","","","","","","","","","","","","","","","","","","","","","","","","","","","","","","","","","","","","","","","","","","","","","","","","","","","","","","","","","","","","","","","","","","","","","","","","","","","","","","","","","SYN004BUFR","","","","","","","","","",""
"01007099999","2021-02-20T22:00:00","78.9166666","11.9333333","7.7","NY ALESUND, SV","FM-12","4","","15","23","","","-0.02","3","73","","30.28","30.25","","21","126","24","13","","","","","","","","","","","","","","","","","","","","","","","","","","","","","","","","","","","","","","","","","","","","","","","","","","","","","","","","","","","","","","","","","","","","","","","","","","","","","","","","","","","","","","","","","","","SYN004BUFR","","","","","","","","","",""
"01007099999","2021-02-21T01:00:00","78.9166666","11.9333333","7.7","NY ALESUND, SV","FM-12","4","","14","24","","","+0.01","7","67","","30.27","30.24","","21","128","22","12","","","","","","","","","","","","","","","","","","","","","","","","","","","","","","","","","","","","","","","","","","","","","","","","","","","","","","","","","","","","","","","","","","","","","","","","","","","","","","","","","","","","","","","","","","","SYN004BUFR","","","","","","","","","",""
"01007099999","2021-02-21T13:00:00","78.9166666","11.9333333","7.7","NY ALESUND, SV","FM-12","4","","14","24","","","+0.01","7","64","SCT:04 49","30.22","30.19","37.28","21","127","25","17","","","","","","","","","","","","","","","","","","","","","","","","","","","","","","","","","","","","","","","","","","","","","","","","","","","","","","","","","","","","","","","","","","","","","","","","","","","","","","","","","","","","","","","","","","","SYN004BUFR","","","","","","","","","",""
"01007099999","2021-02-21T16:00:00","78.9166666","11.9333333","7.7","NY ALESUND, SV","FM-12","4","","17","25","","","+0.03","8","72","","30.19","30.16","","23","126","29","19","","","","","","","","","","","","","","","","","","","","","","","","","","","","","","","","","","","","","","","","","","","","","","","","","","","","","","","","","","","","","","","","","","","","","","","","","","","","","","","","","","","","","","","","","","","SYN004BUFR","","","","","","","","","",""
"01007099999","2021-02-21T22:00:00","78.9166666","11.9333333","7.7","NY ALESUND, SV","FM-12","4","","18","26","","","+0.02","8","71","","30.14","30.11","","23","115","31","25","","","","","","","","","","","","","","","","","","","","","","","","","","","","","","","","","","","","","","","","","","","","","","","","","","","","","","","","","","","","","","","","","","","","","","","","","","","","","","","","","","","","","","","","","","","SYN004BUFR","","","","","","","","","",""
"01007099999","2021-02-22T01:00:00","78.9166666","11.9333333","7.7","NY ALESUND, SV","FM-12","4","","16","25","","","+0.04","7","70","","30.09","30.06","","22","122","30","22","","","","","","","","","","","","","","","","","","","","","","","","","","","","","","","","","","","","","","","","","","","","","","","","","","","","","","","","","","","","","","","","","","","","","","","","","","","","","","","","","","","","","","","","","","","SYN004BUFR","","","","","","","","","",""
"01007099999","2021-02-22T04:00:00","78.9166666","11.9333333","7.7","NY ALESUND, SV","FM-12","4","","18","25","","","+0.05","7","75","","30.04","30.01","","23","112","31","26","","","","","","","","","","","","","","","","","","","","","","","","","","","","","","","","","","","","","","","","","","","","","","","","","","","","","","","","","","","","","","","","","","","","","","","","","","","","","","","","","","","","","","","","","","","SYN004BUFR","","","","","","","","","",""
"01007099999","2021-02-22T07:00:00","78.9166666","11.9333333","7.7","NY ALESUND, SV","FM-12","4","","18","25","","","+0.07","7","75","FEW:02 33","29.97","29.94","34.18","23","112","33","24","","","","","","","","","","","","","","","","","","","","","","","","","","","","","","","","","","","","","","","","","","","","","","","","","","","","","","","","","","","","","","","","","","","","","","","","","","","","","","","","","","","","","","","","","","","SYN004BUFR","","","","","","","","","",""
"01007099999","2021-02-22T10:00:00","78.9166666","11.9333333","7.7","NY ALESUND, SV","FM-12","4","","17","25","","","+0.05","7","72","","29.92","29.89","","23","120","34","25","","","","","","","","","","","","","","","","","","","","","","","","","","","","","","","","","","","","","","","","","","","","","","","","","","","","","","","","","","","","","","","","","","","","","","","","","","","","","","","","","","","","","","","","","","","SYN004BUFR","","","","","","","","","",""
"01007099999","2021-02-22T16:00:00","78.9166666","11.9333333","7.7","NY ALESUND, SV","FM-12","4","","18","26","","","+0.07","7","70","","29.79","29.76","","23","112","27","22","","","","","","","","","","","","","","","","","","","","","","","","","","","","","","","","","","","","","","","","","","","","","","","","","","","","","","","","","","","","","","","","","","","","","","","","","","","","","","","","","","","","","","","","","","","SYN004BUFR","","","","","","","","","",""
"01007099999","2021-02-22T22:00:00","78.9166666","11.9333333","7.7","NY ALESUND, SV","FM-12","4","","17","26","","","+0.06","7","70","","29.67","29.65","","23","095","15","14","","","","","","","","","","","","","","","","","","","","","","","","","","","","","","","","","","","","","","","","","","","","","","","","","","","","","","","","","","","","","","","","","","","","","","","","","","","","","","","","","","","","","","","","","","","SYN004BUFR","","","","","","","","","",""
"01007099999","2021-02-23T04:00:00","78.9166666","11.9333333","7.7","NY ALESUND, SV","FM-12","4","","19","25","","","+0.04","7","79","","29.59","29.56","","23","193","11","2","","","","","","","","","","","","","","","","","","","","","","","","","","","","","","","","","","","","","","","","","","","","","","","","","","","","","","","","","","","","","","","","","","","","","","","","","","","","","","","","","","","","","","","","","","","SYN004BUFR","","","","","","","","","",""
"01007099999","2021-02-23T10:00:00","78.9166666","11.9333333","7.7","NY ALESUND, SV","FM-12","4","","25","27","","","+0.01","7","92","","29.56","29.53","","26","167","","0","","","","","","","","","","","","","","","","","","","","","","","","","","","","","","","","","","","","","","","","","","","","","","","","","","","","","","","","","","","","","","","","","","","","","","","","","","","","","","","","","","","","","","","","","","","SYN004BUFR","","","","","","","","","",""
"01007099999","2021-02-23T22:00:00","78.9166666","11.9333333","7.7","NY ALESUND, SV","FM-12","4","","31","34","","","+0.03","7","87","","29.47","29.44","","33","284","15","3","","","","","","","","","","","","","","","","","","","","","","","","","","","","","","","","","","","","","","","","","","","","","","","","","","","","","","","","","","","","","","","","","","","","","","","","","","","","","","","","","","","","","","","","","","","SYN004BUFR","","","","","","","","","",""
"01007099999","2021-02-24T01:00:00","78.9166666","11.9333333","7.7","NY ALESUND, SV","FM-12","4","","30","35","","","+0.02","7","81","","29.44","29.41","","33","269","15","2","","","","","","","","","","","","","","","","","","","","","","","","","","","","","","","","","","","","","","","","","","","","","","","","","","","","","","","","","","","","","","","","","","","","","","","","","","","","","","","","","","","","","","","","","","","SYN004BUFR","","","","","","","","","",""
"01007099999","2021-02-24T10:00:00","78.9166666","11.9333333","7.7","NY ALESUND, SV","FM-12","4","","32","35","","","+0.01","7","89","","29.39","29.37","","34","300","","3","","","","","","","","","","","","","","","","","","","","","","","","","","","","","","","","","","","","","","","","","","","","","","","","","","","","","","","","","","","","","","","","","","","","","","","","","","","","","","","","","","","","","","","","","","","SYN004BUFR","","","","","","","","","",""
"01007099999","2021-02-24T16:00:00","78.9166666","11.9333333","7.7","NY ALESUND, SV","FM-12","4","","28","31","","","+0.02","7","88","","29.38","29.35","","30","129","","4","","","","","","","","","","","","","","","","","","","","","","","","","","","","","","","","","","","","","","","","","","","","","","","","","","","","","","","","","","","","","","","","","","","","","","","","","","","","","","","","","","","","","","","","","","","SYN004BUFR","","","","","","","","","",""
"01007099999","2021-02-24T22:00:00","78.9166666","11.9333333","7.7","NY ALESUND, SV","FM-12","4","","24","31","","","+0.01","8","77","","29.36","29.33","","29","261","","3","","","","","","","","","","","","","","","","","","","","","","","","","","","","","","","","","","","","","","","","","","","","","","","","","","","","","","","","","","","","","","","","","","","","","","","","","","","","","","","","","","","","","","","","","","","SYN004BUFR","","","","","","","","","",""
"01007099999","2021-02-25T01:00:00","78.9166666","11.9333333","7.7","NY ALESUND, SV","FM-12","4","","26","32","","","+0.01","6","79","","29.35","29.32","","30","178","","0","","","","","","","","","","","","","","","","","","","","","","","","","","","","","","","","","","","","","","","","","","","","","","","","","","","","","","","","","","","","","","","","","","","","","","","","","","","","","","","","","","","","","","","","","","","SYN004BUFR","","","","","","","","","",""
"01007099999","2021-02-25T04:00:00","78.9166666","11.9333333","7.7","NY ALESUND, SV","FM-12","4","","26","32","","","+0.01","7","78","","29.34","29.31","","30","238","","4","","","","","","","","","","","","","","","","","","","","","","","","","","","","","","","","","","","","","","","","","","","","","","","","","","","","","","","","","","","","","","","","","","","","","","","","","","","","","","","","","","","","","","","","","","","SYN004BUFR","","","","","","","","","",""
"01007099999","2021-02-25T10:00:00","78.9166666","11.9333333","7.7","NY ALESUND, SV","FM-12","4","","29","31","","","-0.02","3","90","","29.35","29.32","","30","360","","0","","","","","","","","","","","","","","","","","","","","","","","","","","","","","","","","","","","","","","","","","","","","","","","","","","","","","","","","","","","","","","","","","","","","","","","","","","","","","","","","","","","","","","","","","","","SYN004BUFR","","","","","","","","","",""
"01007099999","2021-02-25T16:00:00","78.9166666","11.9333333","7.7","NY ALESUND, SV","FM-12","4","","29","30","","","-0.00","2","96","","29.37","29.34","","30","360","","0","","","","","","","","","","","","","","","","","","","","","","","","","","","","","","","","","","","","","","","","","","","","","","","","","","","","","","","","","","","","","","","","","","","","","","","","","","","","","","","","","","","","","","","","","","","SYN004BUFR","","","","","","","","","",""
"01007099999","2021-02-25T22:00:00","78.9166666","11.9333333","7.7","NY ALESUND, SV","FM-12","4","","29","29","","","-0.01","2","99","","29.39","29.36","","29","360","","0","","","","","","","","","","","","","","","","","","","","","","","","","","","","","","","","","","","","","","","","","","","","","","","","","","","","","","","","","","","","","","","","","","","","","","","","","","","","","","","","","","","","","","","","","","","SYN004BUFR","","","","","","","","","",""
"01007099999","2021-02-26T01:00:00","78.9166666","11.9333333","7.7","NY ALESUND, SV","FM-12","4","","26","27","","","-0.02","2","96","","29.41","29.38","","27","307","20","15","","","","","","","","","","","","","","","","","","","","","","","","","","","","","","","","","","","","","","","","","","","","","","","","","","","","","","","","","","","","","","","","","","","","","","","","","","","","","","","","","","","","","","","","","","","SYN004BUFR","","","","","","","","","",""
"01007099999","2021-02-26T04:00:00","78.9166666","11.9333333","7.7","NY ALESUND, SV","FM-12","4","","22","24","","","-0.04","2","92","","29.44","29.42","","23","303","26","23","","","","","","","","","","","","","","","","","","","","","","","","","","","","","","","","","","","","","","","","","","","","","","","","","","","","","","","","","","","","","","","","","","","","","","","","","","","","","","","","","","","","","","","","","","","SYN004BUFR","","","","","","","","","",""
"01007099999","2021-02-26T10:00:00","78.9166666","11.9333333","7.7","NY ALESUND, SV","FM-12","4","","19","22","","","-0.06","3","89","","29.55","29.53","","21","312","29","23","","","","","","","","","","","","","","","","","","","","","","","","","","","","","","","","","","","","","","","","","","","","","","","","","","","","","","","","","","","","","","","","","","","","","","","","","","","","","","","","","","","","","","","","","","","SYN004BUFR","","","","","","","","","",""
"01007099999","2021-02-26T11:00:00","78.9166666","11.9333333","7.7","NY ALESUND, SV","FM-12","4","","18","21","","","-0.07","2","89","","29.58","29.55","","20","315","30","24","","","","","","","","","","","","","","","","","","","","","","","","","","","","","","","","","","","","","","","","","","","","","","","","","","","","","","","","","","","","","","","","","","","","","","","","","","","","","","","","","","","","","","","","","","","SYN004BUFR","","","","","","","","","",""
"01007099999","2021-02-26T12:00:00","78.9166666","11.9333333","7.7","NY ALESUND, SV","FM-12","4","","17","21","","","-0.08","2","86","","29.60","29.57","","20","312","28","23","","","","","","","","","","","","","","","","","","","","","","","","","","","","","","","","","","","","","","","","","","","","","","","","","","","","","","","","","","","","","","","","","","","","","","","","","","","","","","","","","","","","","","","","","","","SYN004BUFR","","","","","","","","","",""
"01007099999","2021-02-26T13:00:00","78.9166666","11.9333333","7.7","NY ALESUND, SV","FM-12","4","","15","20","","||DRSN","-0.08","2","81","OVC:08 10","29.63","29.60","4.35","19","313","31","23","","","","","","","","","","","","","","","","","","","","","","","","","","","","","","","","","","","","","","","","","","","","","","","","","","","","","","","","","","","","","","","","","","","","","","","","","","","","","","","","","","","","","","","","","","","SYN004BUFR","","","","","","","","","",""
"01007099999","2021-02-26T14:00:00","78.9166666","11.9333333","7.7","NY ALESUND, SV","FM-12","4","","15","20","","","-0.09","2","79","","29.66","29.63","","19","322","29","25","","","","","","","","","","","","","","","","","","","","","","","","","","","","","","","","","","","","","","","","","","","","","","","","","","","","","","","","","","","","","","","","","","","","","","","","","","","","","","","","","","","","","","","","","","","SYN004BUFR","","","","","","","","","",""
"01007099999","2021-02-26T16:00:00","78.9166666","11.9333333","7.7","NY ALESUND, SV","FM-12","4","","15","19","","","-0.07","1","84","","29.70","29.67","","18","322","27","22","","","","","","","","","","","","","","","","","","","","","","","","","","","","","","","","","","","","","","","","","","","","","","","","","","","","","","","","","","","","","","","","","","","","","","","","","","","","","","","","","","","","","","","","","","","SYN004BUFR","","","","","","","","","",""
"01007099999","2021-02-26T22:00:00","78.9166666","11.9333333","7.7","NY ALESUND, SV","FM-12","4","","9","18","","","-0.03","2","65","","29.77","29.74","","16","321","17","12","","","","","","","","","","","","","","","","","","","","","","","","","","","","","","","","","","","","","","","","","","","","","","","","","","","","","","","","","","","","","","","","","","","","","","","","","","","","","","","","","","","","","","","","","","","SYN004BUFR","","","","","","","","","",""
"01007099999","2021-02-27T01:00:00","78.9166666","11.9333333","7.7","NY ALESUND, SV","FM-12","4","","10","18","","","-0.01","2","72","","29.78","29.75","","16","061","24","7","","","","","","","","","","","","","","","","","","","","","","","","","","","","","","","","","","","","","","","","","","","","","","","","","","","","","","","","","","","","","","","","","","","","","","","","","","","","","","","","","","","","","","","","","","","SYN004BUFR","","","","","","","","","",""
"01007099999","2021-02-27T04:00:00","78.9166666","11.9333333","7.7","NY ALESUND, SV","FM-12","4","","9","15","","","+0.02","8","76","","29.76","29.73","","14","139","","9","","","","","","","","","","","","","","","","","","","","","","","","","","","","","","","","","","","","","","","","","","","","","","","","","","","","","","","","","","","","","","","","","","","","","","","","","","","","","","","","","","","","","","","","","","","SYN004BUFR","","","","","","","","","",""
"01007099999","2021-02-27T10:00:00","78.9166666","11.9333333","7.7","NY ALESUND, SV","FM-12","4","","13","19","","","+0.03","7","78","","29.68","29.65","","17","169","","4","","","","","","","","","","","","","","","","","","","","","","","","","","","","","","","","","","","","","","","","","","","","","","","","","","","","","","","","","","","","","","","","","","","","","","","","","","","","","","","","","","","","","","","","","","","SYN004BUFR","","","","","","","","","",""
"01007099999","2021-02-27T16:00:00","78.9166666","11.9333333","7.7","NY ALESUND, SV","FM-12","4","","","21","","","+0.04","7","","","29.60","29.57","","","324","","2","","","","","","","","","","","","","","","","","","","","","","","","","","","","","","","","","","","","","","","","","","","","","","","","","","","","","","","","","","","","","","","","","","","","","","","","","","","","","","","","","","","","","","","","","","","SYN004BUFR","","","","","","","","","",""
"01007099999","2021-02-28T01:00:00","78.9166666","11.9333333","7.7","NY ALESUND, SV","FM-12","4","","15","20","","","+0.01","7","81","","29.54","29.51","","19","244","13","5","","","","","","","","","","","","","","","","","","","","","","","","","","","","","","","","","","","","","","","","","","","","","","","","","","","","","","","","","","","","","","","","","","","","","","","","","","","","","","","","","","","","","","","","","","","SYN004BUFR","","","","","","","","","",""
"01007099999","2021-02-28T04:00:00","78.9166666","11.9333333","7.7","NY ALESUND, SV","FM-12","4","","16","21","","","+0.04","8","81","","29.50","29.47","","20","171","","4","","","","","","","","","","","","","","","","","","","","","","","","","","","","","","","","","","","","","","","","","","","","","","","","","","","","","","","","","","","","","","","","","","","","","","","","","","","","","","","","","","","","","","","","","","","SYN004BUFR","","","","","","","","","",""
"01007099999","2021-02-28T16:00:00","78.9166666","11.9333333","7.7","NY ALESUND, SV","FM-12","4","","12","24","","","+0.04","6","61","","29.30","29.27","","21","120","23","17","","","","","","","","","","","","","","","","","","","","","","","","","","","","","","","","","","","","","","","","","","","","","","","","","","","","","","","","","","","","","","","","","","","","","","","","","","","","","","","","","","","","","","","","","","","SYN004BUFR","","","","","","","","","",""
"01007099999","2021-02-28T22:00:00","78.9166666","11.9333333","7.7","NY ALESUND, SV","FM-12","4","","8","18","","","-0.04","3","65","","29.34","29.31","","15","103","21","19","","","","","","","","","","","","","","","","","","","","","","","","","","","","","","","","","","","","","","","","","","","","","","","","","","","","","","","","","","","","","","","","","","","","","","","","","","","","","","","","","","","","","","","","","","","SYN004BUFR","","","","","","","","","",""
"01007099999","2021-03-01T01:00:00","78.9166666","11.9333333","7.7","NY ALESUND, SV","FM-12","4","","3","14","","","-0.06","1","61","","29.40","29.37","","12","157","11","6","","","","","","","","","","","","","","","","","","","","","","","","","","","","","","","","","","","","","","","","","","","","","","","","","","","","","","","","","","","","","","","","","","","","","","","","","","","","","","","","","","","","","","","","","","","SYN004BUFR","","","","","","","","","",""
"01007099999","2021-03-01T04:00:00","78.9166666","11.9333333","7.7","NY ALESUND, SV","FM-12","4","","2","12","","","-0.04","1","65","","29.44","29.41","","10","162","","3","","","","","","","","","","","","","","","","","","","","","","","","","","","","","","","","","","","","","","","","","","","","","","","","","","","","","","","","","","","","","","","","","","","","","","","","","","","","","","","","","","","","","","","","","","","SYN004BUFR","","","","","","","","","",""
"01007099999","2021-03-01T10:00:00","78.9166666","11.9333333","7.7","NY ALESUND, SV","FM-12","4","","3","13","","","-0.04","2","64","","29.52","29.49","","11","152","","4","","","","","","","","","","","","","","","","","","","","","","","","","","","","","","","","","","","","","","","","","","","","","","","","","","","","","","","","","","","","","","","","","","","","","","","","","","","","","","","","","","","","","","","","","","","SYN004BUFR","","","","","","","","","",""
"01007099999","2021-03-01T16:00:00","78.9166666","11.9333333","7.7","NY ALESUND, SV","FM-12","4","","5","15","","","-0.02","1","62","","29.57","29.54","","13","131","","4","","","","","","","","","","","","","","","","","","","","","","","","","","","","","","","","","","","","","","","","","","","","","","","","","","","","","","","","","","","","","","","","","","","","","","","","","","","","","","","","","","","","","","","","","","","SYN004BUFR","","","","","","","","","",""
"01007099999","2021-03-01T22:00:00","78.9166666","11.9333333","7.7","NY ALESUND, SV","FM-12","4","","","18","","","-0.03","2","","","29.62","29.59","","","130","","2","","","","","","","","","","","","","","","","","","","","","","","","","","","","","","","","","","","","","","","","","","","","","","","","","","","","","","","","","","","","","","","","","","","","","","","","","","","","","","","","","","","","","","","","","","","SYN004BUFR","","","","","","","","","",""
"01007099999","2021-03-02T01:00:00","78.9166666","11.9333333","7.7","NY ALESUND, SV","FM-12","4","","","16","","","-0.02","2","","","29.64","29.61","","","260","","6","","","","","","","","","","","","","","","","","","","","","","","","","","","","","","","","","","","","","","","","","","","","","","","","","","","","","","","","","","","","","","","","","","","","","","","","","","","","","","","","","","","","","","","","","","","SYN004BUFR","","","","","","","","","",""
"01007099999","2021-03-02T04:00:00","78.9166666","11.9333333","7.7","NY ALESUND, SV","FM-12","4","","","16","","","-0.04","2","","","29.67","29.65","","","139","14","8","","","","","","","","","","","","","","","","","","","","","","","","","","","","","","","","","","","","","","","","","","","","","","","","","","","","","","","","","","","","","","","","","","","","","","","","","","","","","","","","","","","","","","","","","","","SYN004BUFR","","","","","","","","","",""
"01007099999","2021-03-02T10:00:00","78.9166666","11.9333333","7.7","NY ALESUND, SV","FM-12","4","","5","14","","","-0.05","3","67","","29.75","29.72","","12","223","","2","","","","","","","","","","","","","","","","","","","","","","","","","","","","","","","","","","","","","","","","","","","","","","","","","","","","","","","","","","","","","","","","","","","","","","","","","","","","","","","","","","","","","","","","","","","SYN004BUFR","","","","","","","","","",""
"01007099999","2021-03-02T12:00:00","78.9166666","11.9333333","7.7","NY ALESUND, SV","FM-12","4","","6","14","","","-0.05","1","71","","29.78","29.75","","12","136","","5","","","","","","","","","","","","","","","","","","","","","","","","","","","","","","","","","","","","","","","","","","","","","","","","","","","","","","","","","","","","","","","","","","","","","","","","","","","","","","","","","","","","","","","","","","","SYN004BUFR","","","","","","","","","",""
"01007099999","2021-03-02T13:00:00","78.9166666","11.9333333","7.7","NY ALESUND, SV","FM-12","4","","5","12","","","-0.05","2","74","FEW:01 33","29.80","29.77","43.50","10","264","","4","","","","","","","","","","","","","","","","","","","","","","","","","","","","","","","","","","","","","","","","","","","","","","","","","","","","","","","","","","","","","","","","","","","","","","","","","","","","","","","","","","","","","","","","","","","SYN004BUFR","","","","","","","","","",""
"01007099999","2021-03-02T22:00:00","78.9166666","11.9333333","7.7","NY ALESUND, SV","FM-12","4","","1","13","","","-0.05","2","59","","29.93","29.90","","10","145","17","8","","","","","","","","","","","","","","","","","","","","","","","","","","","","","","","","","","","","","","","","","","","","","","","","","","","","","","","","","","","","","","","","","","","","","","","","","","","","","","","","","","","","","","","","","","","SYN004BUFR","","","","","","","","","",""
"01007099999","2021-03-03T01:00:00","78.9166666","11.9333333","7.7","NY ALESUND, SV","FM-12","4","","2","14","","","-0.03","2","59","","29.96","29.93","","11","162","11","9","","","","","","","","","","","","","","","","","","","","","","","","","","","","","","","","","","","","","","","","","","","","","","","","","","","","","","","","","","","","","","","","","","","","","","","","","","","","","","","","","","","","","","","","","","","SYN004BUFR","","","","","","","","","",""
"01007099999","2021-03-03T04:00:00","78.9166666","11.9333333","7.7","NY ALESUND, SV","FM-12","4","","2","13","","","-0.02","2","62","","29.98","29.95","","11","252","","5","","","","","","","","","","","","","","","","","","","","","","","","","","","","","","","","","","","","","","","","","","","","","","","","","","","","","","","","","","","","","","","","","","","","","","","","","","","","","","","","","","","","","","","","","","","SYN004BUFR","","","","","","","","","",""
"01007099999","2021-03-03T16:00:00","78.9166666","11.9333333","7.7","NY ALESUND, SV","FM-12","4","","9","16","","","-0.05","2","73","","30.12","30.09","","14","152","","4","","","","","","","","","","","","","","","","","","","","","","","","","","","","","","","","","","","","","","","","","","","","","","","","","","","","","","","","","","","","","","","","","","","","","","","","","","","","","","","","","","","","","","","","","","","SYN004BUFR","","","","","","","","","",""
"01007099999","2021-03-03T22:00:00","78.9166666","11.9333333","7.7","NY ALESUND, SV","FM-12","4","","4","11","","","-0.02","2","72","","30.17","30.14","","9","249","","4","","","","","","","","","","","","","","","","","","","","","","","","","","","","","","","","","","","","","","","","","","","","","","","","","","","","","","","","","","","","","","","","","","","","","","","","","","","","","","","","","","","","","","","","","","","SYN004BUFR","","","","","","","","","",""
"01007099999","2021-03-04T01:00:00","78.9166666","11.9333333","7.7","NY ALESUND, SV","FM-12","4","","3","12","","","0.00","4","67","","30.17","30.14","","10","157","","2","","","","","","","","","","","","","","","","","","","","","","","","","","","","","","","","","","","","","","","","","","","","","","","","","","","","","","","","","","","","","","","","","","","","","","","","","","","","","","","","","","","","","","","","","","","SYN004BUFR","","","","","","","","","",""
"01007099999","2021-03-04T04:00:00","78.9166666","11.9333333","7.7","NY ALESUND, SV","FM-12","4","","2","10","","","+0.01","7","70","","30.16","30.13","","8","151","","2","","","","","","","","","","","","","","","","","","","","","","","","","","","","","","","","","","","","","","","","","","","","","","","","","","","","","","","","","","","","","","","","","","","","","","","","","","","","","","","","","","","","","","","","","","","SYN004BUFR","","","","","","","","","",""
"01007099999","2021-03-04T10:00:00","78.9166666","11.9333333","7.7","NY ALESUND, SV","FM-12","4","","-3","8","","","+0.01","7","61","","30.11","30.09","","6","139","12","7","","","","","","","","","","","","","","","","","","","","","","","","","","","","","","","","","","","","","","","","","","","","","","","","","","","","","","","","","","","","","","","","","","","","","","","","","","","","","","","","","","","","","","","","","","","SYN004BUFR","","","","","","","","","",""
"01007099999","2021-03-04T16:00:00","78.9166666","11.9333333","7.7","NY ALESUND, SV","FM-12","4","","-4","6","","","+0.04","8","61","","30.03","30.00","","4","139","13","11","","","","","","","","","","","","","","","","","","","","","","","","","","","","","","","","","","","","","","","","","","","","","","","","","","","","","","","","","","","","","","","","","","","","","","","","","","","","","","","","","","","","","","","","","","","SYN004BUFR","","","","","","","","","",""
"01007099999","2021-03-04T22:00:00","78.9166666","11.9333333","7.7","NY ALESUND, SV","FM-12","4","","4","12","","","+0.08","8","71","","29.88","29.85","","10","139","16","14","","","","","","","","","","","","","","","","","","","","","","","","","","","","","","","","","","","","","","","","","","","","","","","","","","","","","","","","","","","","","","","","","","","","","","","","","","","","","","","","","","","","","","","","","","","SYN004BUFR","","","","","","","","","",""
"01007099999","2021-03-05T01:00:00","78.9166666","11.9333333","7.7","NY ALESUND, SV","FM-12","4","","9","14","","","+0.10","8","83","","29.78","29.75","","13","132","15","8","","","","","","","","","","","","","","","","","","","","","","","","","","","","","","","","","","","","","","","","","","","","","","","","","","","","","","","","","","","","","","","","","","","","","","","","","","","","","","","","","","","","","","","","","","","SYN004BUFR","","","","","","","","","",""
"01007099999","2021-03-05T04:00:00","78.9166666","11.9333333","7.7","NY ALESUND, SV","FM-12","4","","11","17","","","+0.15","7","79","","29.62","29.59","","15","112","38","32","","","","","","","","","","","","","","","","","","","","","","","","","","","","","","","","","","","","","","","","","","","","","","","","","","","","","","","","","","","","","","","","","","","","","","","","","","","","","","","","","","","","","","","","","","","SYN004BUFR","","","","","","","","","",""
"01007099999","2021-03-05T12:00:00","78.9166666","11.9333333","7.7","NY ALESUND, SV","FM-12","4","","8","12","","","-0.02","3","86","","29.48","29.45","","11","322","30","2","","","","","","","","","","","","","","","","","","","","","","","","","","","","","","","","","","","","","","","","","","","","","","","","","","","","","","","","","","","","","","","","","","","","","","","","","","","","","","","","","","","","","","","","","","","SYN004BUFR","","","","","","","","","",""
"01007099999","2021-03-05T16:00:00","78.9166666","11.9333333","7.7","NY ALESUND, SV","FM-12","4","","4","12","","","+0.02","6","70","","29.46","29.43","","10","118","35","28","","","","","","","","","","","","","","","","","","","","","","","","","","","","","","","","","","","","","","","","","","","","","","","","","","","","","","","","","","","","","","","","","","","","","","","","","","","","","","","","","","","","","","","","","","","SYN004BUFR","","","","","","","","","",""
"01007099999","2021-03-05T22:00:00","78.9166666","11.9333333","7.7","NY ALESUND, SV","FM-12","4","","3","11","","","-0.07","3","70","","29.56","29.53","","9","127","27","20","","","","","","","","","","","","","","","","","","","","","","","","","","","","","","","","","","","","","","","","","","","","","","","","","","","","","","","","","","","","","","","","","","","","","","","","","","","","","","","","","","","","","","","","","","","SYN004BUFR","","","","","","","","","",""
"01007099999","2021-03-05T23:00:00","78.9166666","11.9333333","7.7","NY ALESUND, SV","FM-12","4","","2","12","","","-0.07","1","66","","29.58","29.55","","10","130","18","10","","","","","","","","","","","","","","","","","","","","","","","","","","","","","","","","","","","","","","","","","","","","","","","","","","","","","","","","","","","","","","","","","","","","","","","","","","","","","","","","","","","","","","","","","","","SYN004BUFR","","","","","","","","","",""
"01007099999","2021-03-06T04:00:00","78.9166666","11.9333333","7.7","NY ALESUND, SV","FM-12","4","","1","13","","","-0.08","1","58","","29.72","29.69","","10","123","23","19","","","","","","","","","","","","","","","","","","","","","","","","","","","","","","","","","","","","","","","","","","","","","","","","","","","","","","","","","","","","","","","","","","","","","","","","","","","","","","","","","","","","","","","","","","","SYN004BUFR","","","","","","","","","",""
"01007099999","2021-03-06T22:00:00","78.9166666","11.9333333","7.7","NY ALESUND, SV","FM-12","4","","-9","4","","","-0.01","3","55","","30.04","30.01","","2","144","14","8","","","","","","","","","","","","","","","","","","","","","","","","","","","","","","","","","","","","","","","","","","","","","","","","","","","","","","","","","","","","","","","","","","","","","","","","","","","","","","","","","","","","","","","","","","","SYN004BUFR","","","","","","","","","",""
"01007099999","2021-03-07T01:00:00","78.9166666","11.9333333","7.7","NY ALESUND, SV","FM-12","4","","-10","2","","","-0.02","0","54","","30.06","30.02","","0","259","19","2","","","","","","","","","","","","","","","","","","","","","","","","","","","","","","","","","","","","","","","","","","","","","","","","","","","","","","","","","","","","","","","","","","","","","","","","","","","","","","","","","","","","","","","","","","","SYN004BUFR","","","","","","","","","",""
"01007099999","2021-03-07T04:00:00","78.9166666","11.9333333","7.7","NY ALESUND, SV","FM-12","4","","-13","1","","","0.00","4","52","","30.06","30.02","","-1","289","","3","","","","","","","","","","","","","","","","","","","","","","","","","","","","","","","","","","","","","","","","","","","","","","","","","","","","","","","","","","","","","","","","","","","","","","","","","","","","","","","","","","","","","","","","","","","SYN004BUFR","","","","","","","","","",""
"01007099999","2021-03-07T10:00:00","78.9166666","11.9333333","7.7","NY ALESUND, SV","FM-12","4","","-11","2","","","-0.03","2","53","","30.09","30.06","","0","150","","6","","","","","","","","","","","","","","","","","","","","","","","","","","","","","","","","","","","","","","","","","","","","","","","","","","","","","","","","","","","","","","","","","","","","","","","","","","","","","","","","","","","","","","","","","","","SYN004BUFR","","","","","","","","","",""
"01007099999","2021-03-07T16:00:00","78.9166666","11.9333333","7.7","NY ALESUND, SV","FM-12","4","","-8","2","","","","","61","","30.10","30.06","","1","138","12","5","","","","","","","","","","","","","","","","","","","","","","","","","","","","","","","","","","","","","","","","","","","","","","","","","","","","","","","","","","","","","","","","","","","","","","","","","","","","","","","","","","","","","","","","","","","SYN004BUFR","","","","","","","","","",""
"01007099999","2021-03-07T22:00:00","78.9166666","11.9333333","7.7","NY ALESUND, SV","FM-12","4","","-6","8","","","+0.02","7","52","","30.06","30.03","","6","154","17","4","","","","","","","","","","","","","","","","","","","","","","","","","","","","","","","","","","","","","","","","","","","","","","","","","","","","","","","","","","","","","","","","","","","","","","","","","","","","","","","","","","","","","","","","","","","SYN004BUFR","","","","","","","","","",""
"01007099999","2021-03-08T04:00:00","78.9166666","11.9333333","7.7","NY ALESUND, SV","FM-12","4","","5","15","","","+0.03","6","65","","30.01","29.98","","13","117","26","18","","","","","","","","","","","","","","","","","","","","","","","","","","","","","","","","","","","","","","","","","","","","","","","","","","","","","","","","","","","","","","","","","","","","","","","","","","","","","","","","","","","","","","","","","","","SYN004BUFR","","","","","","","","","",""
"01007099999","2021-03-08T16:00:00","78.9166666","11.9333333","7.7","NY ALESUND, SV","FM-12","4","","10","20","","","-0.00","0","66","","30.03","30.00","","17","113","26","21","","","","","","","","","","","","","","","","","","","","","","","","","","","","","","","","","","","","","","","","","","","","","","","","","","","","","","","","","","","","","","","","","","","","","","","","","","","","","","","","","","","","","","","","","","","SYN004BUFR","","","","","","","","","",""
"01007099999","2021-03-08T22:00:00","78.9166666","11.9333333","7.7","NY ALESUND, SV","FM-12","4","","19","22","","","-0.02","2","91","","30.04","30.01","","21","219","12","3","","","","","","","","","","","","","","","","","","","","","","","","","","","","","","","","","","","","","","","","","","","","","","","","","","","","","","","","","","","","","","","","","","","","","","","","","","","","","","","","","","","","","","","","","","","SYN004BUFR","","","","","","","","","",""
"01007099999","2021-03-09T01:00:00","78.9166666","11.9333333","7.7","NY ALESUND, SV","FM-12","4","","17","19","","","+0.01","8","91","","30.02","29.99","","18","235","15","2","","","","","","","","","","","","","","","","","","","","","","","","","","","","","","","","","","","","","","","","","","","","","","","","","","","","","","","","","","","","","","","","","","","","","","","","","","","","","","","","","","","","","","","","","","","SYN004BUFR","","","","","","","","","",""
"01007099999","2021-03-09T04:00:00","78.9166666","11.9333333","7.7","NY ALESUND, SV","FM-12","4","","17","19","","","+0.06","8","91","","29.97","29.94","","18","154","","4","","","","","","","","","","","","","","","","","","","","","","","","","","","","","","","","","","","","","","","","","","","","","","","","","","","","","","","","","","","","","","","","","","","","","","","","","","","","","","","","","","","","","","","","","","","SYN004BUFR","","","","","","","","","",""
"01007099999","2021-03-09T10:00:00","78.9166666","11.9333333","7.7","NY ALESUND, SV","FM-12","4","","19","21","","","+0.04","6","91","","29.85","29.83","","20","205","","0","","","","","","","","","","","","","","","","","","","","","","","","","","","","","","","","","","","","","","","","","","","","","","","","","","","","","","","","","","","","","","","","","","","","","","","","","","","","","","","","","","","","","","","","","","","SYN004BUFR","","","","","","","","","",""
"01007099999","2021-03-09T12:00:00","78.9166666","11.9333333","7.7","NY ALESUND, SV","FM-12","4","","19","22","","","+0.03","7","88","","29.83","29.80","","21","247","","4","","","","","","","","","","","","","","","","","","","","","","","","","","","","","","","","","","","","","","","","","","","","","","","","","","","","","","","","","","","","","","","","","","","","","","","","","","","","","","","","","","","","","","","","","","","SYN004BUFR","","","","","","","","","",""
"01007099999","2021-03-09T16:00:00","78.9166666","11.9333333","7.7","NY ALESUND, SV","FM-12","4","","18","22","","","+0.03","7","87","","29.78","29.76","","21","139","","4","","","","","","","","","","","","","","","","","","","","","","","","","","","","","","","","","","","","","","","","","","","","","","","","","","","","","","","","","","","","","","","","","","","","","","","","","","","","","","","","","","","","","","","","","","","SYN004BUFR","","","","","","","","","",""
"01007099999","2021-03-09T22:00:00","78.9166666","11.9333333","7.7","NY ALESUND, SV","FM-12","4","","17","23","","","+0.04","7","78","","29.71","29.68","","21","132","","7","","","","","","","","","","","","","","","","","","","","","","","","","","","","","","","","","","","","","","","","","","","","","","","","","","","","","","","","","","","","","","","","","","","","","","","","","","","","","","","","","","","","","","","","","","","SYN004BUFR","","","","","","","","","",""
"01007099999","2021-03-10T01:00:00","78.9166666","11.9333333","7.7","NY ALESUND, SV","FM-12","4","","21","24","","","+0.03","7","89","","29.67","29.65","","23","149","14","4","","","","","","","","","","","","","","","","","","","","","","","","","","","","","","","","","","","","","","","","","","","","","","","","","","","","","","","","","","","","","","","","","","","","","","","","","","","","","","","","","","","","","","","","","","","SYN004BUFR","","","","","","","","","",""
"01007099999","2021-03-10T04:00:00","78.9166666","11.9333333","7.7","NY ALESUND, SV","FM-12","4","","21","24","","","+0.05","7","87","","29.63","29.60","","23","159","","2","","","","","","","","","","","","","","","","","","","","","","","","","","","","","","","","","","","","","","","","","","","","","","","","","","","","","","","","","","","","","","","","","","","","","","","","","","","","","","","","","","","","","","","","","","","SYN004BUFR","","","","","","","","","",""
"01007099999","2021-03-10T10:00:00","78.9166666","11.9333333","7.7","NY ALESUND, SV","FM-12","4","","22","24","","","+0.05","7","91","","29.52","29.50","","23","132","","3","","","","","","","","","","","","","","","","","","","","","","","","","","","","","","","","","","","","","","","","","","","","","","","","","","","","","","","","","","","","","","","","","","","","","","","","","","","","","","","","","","","","","","","","","","","SYN004BUFR","","","","","","","","","",""
"01007099999","2021-03-10T16:00:00","78.9166666","11.9333333","7.7","NY ALESUND, SV","FM-12","4","","22","24","","","+0.08","8","89","","29.38","29.35","","23","159","","2","","","","","","","","","","","","","","","","","","","","","","","","","","","","","","","","","","","","","","","","","","","","","","","","","","","","","","","","","","","","","","","","","","","","","","","","","","","","","","","","","","","","","","","","","","","SYN004BUFR","","","","","","","","","",""
"01007099999","2021-03-10T22:00:00","78.9166666","11.9333333","7.7","NY ALESUND, SV","FM-12","4","","19","25","","","+0.06","6","77","","29.22","29.20","","23","143","","3","","","","","","","","","","","","","","","","","","","","","","","","","","","","","","","","","","","","","","","","","","","","","","","","","","","","","","","","","","","","","","","","","","","","","","","","","","","","","","","","","","","","","","","","","","","SYN004BUFR","","","","","","","","","",""
"01007099999","2021-03-11T01:00:00","78.9166666","11.9333333","7.7","NY ALESUND, SV","FM-12","4","","21","23","","","+0.06","7","93","","29.17","29.14","","22","253","12","3","","","","","","","","","","","","","","","","","","","","","","","","","","","","","","","","","","","","","","","","","","","","","","","","","","","","","","","","","","","","","","","","","","","","","","","","","","","","","","","","","","","","","","","","","","","SYN004BUFR","","","","","","","","","",""
"01007099999","2021-03-11T06:00:00","78.9166666","11.9333333","7.7","NY ALESUND, SV","FM-12","4","","20","23","","","+0.04","7","91","","29.09","29.06","","22","297","","6","","","","","","","","","","","","","","","","","","","","","","","","","","","","","","","","","","","","","","","","","","","","","","","","","","","","","","","","","","","","","","","","","","","","","","","","","","","","","","","","","","","","","","","","","","","SYN004BUFR","","","","","","","","","",""
"01007099999","2021-03-11T10:00:00","78.9166666","11.9333333","7.7","NY ALESUND, SV","FM-12","4","","13","21","","","+0.01","6","72","","29.06","29.03","","19","131","18","14","","","","","","","","","","","","","","","","","","","","","","","","","","","","","","","","","","","","","","","","","","","","","","","","","","","","","","","","","","","","","","","","","","","","","","","","","","","","","","","","","","","","","","","","","","","SYN004BUFR","","","","","","","","","",""
"01007099999","2021-03-11T16:00:00","78.9166666","11.9333333","7.7","NY ALESUND, SV","FM-12","4","","5","16","","","-0.09","1","60","","29.21","29.18","","13","001","16","11","","","","","","","","","","","","","","","","","","","","","","","","","","","","","","","","","","","","","","","","","","","","","","","","","","","","","","","","","","","","","","","","","","","","","","","","","","","","","","","","","","","","","","","","","","","SYN004BUFR","","","","","","","","","",""
"01007099999","2021-03-11T19:00:00","78.9166666","11.9333333","7.7","NY ALESUND, SV","FM-12","4","","3","15","","","-0.05","3","59","FEW:01 20","29.26","29.23","31.07","12","086","24","15","","","","","","","","","","","","","","","","","","","","","","","","","","","","","","","","","","","","","","","","","","","","","","","","","","","","","","","","","","","","","","","","","","","","","","","","","","","","","","","","","","","","","","","","","","","SYN004BUFR","","","","","","","","","",""
"01007099999","2021-03-11T22:00:00","78.9166666","11.9333333","7.7","NY ALESUND, SV","FM-12","4","","-3","7","","","-0.06","3","62","","29.32","29.29","","5","132","19","16","","","","","","","","","","","","","","","","","","","","","","","","","","","","","","","","","","","","","","","","","","","","","","","","","","","","","","","","","","","","","","","","","","","","","","","","","","","","","","","","","","","","","","","","","","","SYN004BUFR","","","","","","","","","",""
"01007099999","2021-03-12T07:00:00","78.9166666","11.9333333","7.7","NY ALESUND, SV","FM-12","4","","-10","6","","","-0.04","3","47","82","29.42","29.39","46.60","4","144","11","2","","","","","","","","","","","","","","","","","","","","","","","","","","","","","","","","","","","","","","","","","","","","","","","","","","","","","","","","","","","","","","","","","","","","","","","","","","","","","","","","","","","","","","","","","","","SYN004BUFR","","","","","","","","","",""
"01007099999","2021-03-12T08:00:00","78.9166666","11.9333333","7.7","NY ALESUND, SV","FM-12","4","","-9","6","","","-0.05","2","51","","29.44","29.41","","4","171","","2","","","","","","","","","","","","","","","","","","","","","","","","","","","","","","","","","","","","","","","","","","","","","","","","","","","","","","","","","","","","","","","","","","","","","","","","","","","","","","","","","","","","","","","","","","","SYN004BUFR","","","","","","","","","",""
"01007099999","2021-03-12T09:00:00","78.9166666","11.9333333","7.7","NY ALESUND, SV","FM-12","4","","-9","6","","","-0.03","1","51","","29.44","29.41","","4","148","","3","","","","","","","","","","","","","","","","","","","","","","","","","","","","","","","","","","","","","","","","","","","","","","","","","","","","","","","","","","","","","","","","","","","","","","","","","","","","","","","","","","","","","","","","","","","SYN004BUFR","","","","","","","","","",""
"01007099999","2021-03-12T10:00:00","78.9166666","11.9333333","7.7","NY ALESUND, SV","FM-12","4","","-9","6","","","-0.03","3","51","","29.45","29.42","","4","134","","5","","","","","","","","","","","","","","","","","","","","","","","","","","","","","","","","","","","","","","","","","","","","","","","","","","","","","","","","","","","","","","","","","","","","","","","","","","","","","","","","","","","","","","","","","","","SYN004BUFR","","","","","","","","","",""
"01007099999","2021-03-12T12:00:00","78.9166666","11.9333333","7.7","NY ALESUND, SV","FM-12","4","","-8","6","","","-0.02","0","52","","29.46","29.43","","4","123","11","6","","","","","","","","","","","","","","","","","","","","","","","","","","","","","","","","","","","","","","","","","","","","","","","","","","","","","","","","","","","","","","","","","","","","","","","","","","","","","","","","","","","","","","","","","","","SYN004BUFR","","","","","","","","","",""
"01007099999","2021-03-12T13:00:00","78.9166666","11.9333333","7.7","NY ALESUND, SV","FM-12","4","","-5","9","","","-0.00","0","52","BKN:07 20","29.45","29.42","27.96","6","139","11","9","","","","","","","","","","","","","","","","","","","","","","","","","","","","","","","","","","","","","","","","","","","","","","","","","","","","","","","","","","","","","","","","","","","","","","","","","","","","","","","","","","","","","","","","","","","SYN004BUFR","","","","","","","","","",""
"01007099999","2021-03-12T16:00:00","78.9166666","11.9333333","7.7","NY ALESUND, SV","FM-12","4","","0","11","","","+0.00","6","59","","29.45","29.42","","9","151","","4","","","","","","","","","","","","","","","","","","","","","","","","","","","","","","","","","","","","","","","","","","","","","","","","","","","","","","","","","","","","","","","","","","","","","","","","","","","","","","","","","","","","","","","","","","","SYN004BUFR","","","","","","","","","",""
"01007099999","2021-03-12T22:00:00","78.9166666","11.9333333","7.7","NY ALESUND, SV","FM-12","4","","10","14","","","-0.01","3","85","","29.47","29.44","","13","216","","2","","","","","","","","","","","","","","","","","","","","","","","","","","","","","","","","","","","","","","","","","","","","","","","","","","","","","","","","","","","","","","","","","","","","","","","","","","","","","","","","","","","","","","","","","","","SYN004BUFR","","","","","","","","","",""
"01007099999","2021-03-13T01:00:00","78.9166666","11.9333333","7.7","NY ALESUND, SV","FM-12","4","","8","14","","","-0.01","2","77","","29.48","29.45","","13","295","15","11","","","","","","","","","","","","","","","","","","","","","","","","","","","","","","","","","","","","","","","","","","","","","","","","","","","","","","","","","","","","","","","","","","","","","","","","","","","","","","","","","","","","","","","","","","","SYN004BUFR","","","","","","","","","",""
"01007099999","2021-03-13T04:00:00","78.9166666","11.9333333","7.7","NY ALESUND, SV","FM-12","4","","6","13","","","-0.00","2","75","","29.48","29.45","","11","297","12","9","","","","","","","","","","","","","","","","","","","","","","","","","","","","","","","","","","","","","","","","","","","","","","","","","","","","","","","","","","","","","","","","","","","","","","","","","","","","","","","","","","","","","","","","","","","SYN004BUFR","","","","","","","","","",""
"01007099999","2021-03-13T10:00:00","78.9166666","11.9333333","7.7","NY ALESUND, SV","FM-12","4","","-4","6","","","-0.05","2","64","","29.55","29.52","","4","129","21","14","","","","","","","","","","","","","","","","","","","","","","","","","","","","","","","","","","","","","","","","","","","","","","","","","","","","","","","","","","","","","","","","","","","","","","","","","","","","","","","","","","","","","","","","","","","SYN004BUFR","","","","","","","","","",""
"01007099999","2021-03-13T16:00:00","78.9166666","11.9333333","7.7","NY ALESUND, SV","FM-12","4","","-9","3","","","-0.03","2","56","","29.62","29.59","","1","142","16","10","","","","","","","","","","","","","","","","","","","","","","","","","","","","","","","","","","","","","","","","","","","","","","","","","","","","","","","","","","","","","","","","","","","","","","","","","","","","","","","","","","","","","","","","","","","SYN004BUFR","","","","","","","","","",""
"01007099999","2021-03-14T01:00:00","78.9166666","11.9333333","7.7","NY ALESUND, SV","FM-12","4","","-12","-1","","","-0.02","2","58","","29.71","29.68","","-2","145","18","13","","","","","","","","","","","","","","","","","","","","","","","","","","","","","","","","","","","","","","","","","","","","","","","","","","","","","","","","","","","","","","","","","","","","","","","","","","","","","","","","","","","","","","","","","","","SYN004BUFR","","","","","","","","","",""
"01007099999","2021-03-14T04:00:00","78.9166666","11.9333333","7.7","NY ALESUND, SV","FM-12","4","","-13","-3","","","-0.01","0","60","","29.72","29.70","","-4","140","16","14","","","","","","","","","","","","","","","","","","","","","","","","","","","","","","","","","","","","","","","","","","","","","","","","","","","","","","","","","","","","","","","","","","","","","","","","","","","","","","","","","","","","","","","","","","","SYN004BUFR","","","","","","","","","",""
"01007099999","2021-03-14T10:00:00","78.9166666","11.9333333","7.7","NY ALESUND, SV","FM-12","4","","-13","-1","","","-0.04","2","56","","29.79","29.76","","-2","147","13","11","","","","","","","","","","","","","","","","","","","","","","","","","","","","","","","","","","","","","","","","","","","","","","","","","","","","","","","","","","","","","","","","","","","","","","","","","","","","","","","","","","","","","","","","","","","SYN004BUFR","","","","","","","","","",""
"01007099999","2021-03-14T16:00:00","78.9166666","11.9333333","7.7","NY ALESUND, SV","FM-12","4","","-13","-2","","","-0.02","2","58","","29.84","29.81","","-3","138","15","12","","","","","","","","","","","","","","","","","","","","","","","","","","","","","","","","","","","","","","","","","","","","","","","","","","","","","","","","","","","","","","","","","","","","","","","","","","","","","","","","","","","","","","","","","","","SYN004BUFR","","","","","","","","","",""
"01007099999","2021-03-14T22:00:00","78.9166666","11.9333333","7.7","NY ALESUND, SV","FM-12","4","","-15","-2","","","-0.02","2","52","","29.89","29.85","","-3","147","14","6","","","","","","","","","","","","","","","","","","","","","","","","","","","","","","","","","","","","","","","","","","","","","","","","","","","","","","","","","","","","","","","","","","","","","","","","","","","","","","","","","","","","","","","","","","","SYN004BUFR","","","","","","","","","",""
"01007099999","2021-03-15T01:00:00","78.9166666","11.9333333","7.7","NY ALESUND, SV","FM-12","4","","-13","-2","","","-0.02","1","58","","29.91","29.88","","-3","153","18","9","","","","","","","","","","","","","","","","","","","","","","","","","","","","","","","","","","","","","","","","","","","","","","","","","","","","","","","","","","","","","","","","","","","","","","","","","","","","","","","","","","","","","","","","","","","SYN004BUFR","","","","","","","","","",""
"01007099999","2021-03-15T04:00:00","78.9166666","11.9333333","7.7","NY ALESUND, SV","FM-12","4","","-13","-3","","","-0.02","1","61","","29.93","29.90","","-4","140","","6","","","","","","","","","","","","","","","","","","","","","","","","","","","","","","","","","","","","","","","","","","","","","","","","","","","","","","","","","","","","","","","","","","","","","","","","","","","","","","","","","","","","","","","","","","","SYN004BUFR","","","","","","","","","",""
"01007099999","2021-03-15T10:00:00","78.9166666","11.9333333","7.7","NY ALESUND, SV","FM-12","4","","-15","-5","","","-0.03","2","62","","30.01","29.98","","-6","152","","6","","","","","","","","","","","","","","","","","","","","","","","","","","","","","","","","","","","","","","","","","","","","","","","","","","","","","","","","","","","","","","","","","","","","","","","","","","","","","","","","","","","","","","","","","","","SYN004BUFR","","","","","","","","","",""
"01007099999","2021-03-15T16:00:00","78.9166666","11.9333333","7.7","NY ALESUND, SV","FM-12","4","","-15","-3","","","-0.03","2","56","","30.08","30.05","","-4","042","13","6","","","","","","","","","","","","","","","","","","","","","","","","","","","","","","","","","","","","","","","","","","","","","","","","","","","","","","","","","","","","","","","","","","","","","","","","","","","","","","","","","","","","","","","","","","","SYN004BUFR","","","","","","","","","",""
"01007099999","2021-03-15T22:00:00","78.9166666","11.9333333","7.7","NY ALESUND, SV","FM-12","4","","-17","-7","","","-0.04","1","63","","30.13","30.10","","-8","150","","6","","","","","","","","","","","","","","","","","","","","","","","","","","","","","","","","","","","","","","","","","","","","","","","","","","","","","","","","","","","","","","","","","","","","","","","","","","","","","","","","","","","","","","","","","","","SYN004BUFR","","","","","","","","","",""
"01007099999","2021-03-16T01:00:00","78.9166666","11.9333333","7.7","NY ALESUND, SV","FM-12","4","","-17","-7","","","-0.01","2","61","","30.14","30.11","","-8","150","","4","","","","","","","","","","","","","","","","","","","","","","","","","","","","","","","","","","","","","","","","","","","","","","","","","","","","","","","","","","","","","","","","","","","","","","","","","","","","","","","","","","","","","","","","","","","SYN004BUFR","","","","","","","","","",""
"01007099999","2021-03-16T04:00:00","78.9166666","11.9333333","7.7","NY ALESUND, SV","FM-12","4","","-13","-5","","","-0.00","2","67","","30.15","30.11","","-6","220","","2","","","","","","","","","","","","","","","","","","","","","","","","","","","","","","","","","","","","","","","","","","","","","","","","","","","","","","","","","","","","","","","","","","","","","","","","","","","","","","","","","","","","","","","","","","","SYN004BUFR","","","","","","","","","",""
"01007099999","2021-03-16T16:00:00","78.9166666","11.9333333","7.7","NY ALESUND, SV","FM-12","4","","-12","0","","","-0.02","2","57","","30.27","30.24","","-1","168","","6","","","","","","","","","","","","","","","","","","","","","","","","","","","","","","","","","","","","","","","","","","","","","","","","","","","","","","","","","","","","","","","","","","","","","","","","","","","","","","","","","","","","","","","","","","","SYN004BUFR","","","","","","","","","",""
"01007099999","2021-03-16T19:00:00","78.9166666","11.9333333","7.7","NY ALESUND, SV","FM-12","4","","","-1","","","-0.01","1","","","30.28","30.25","46.60","","179","","2","","","","","","","","","","","","","","","","","","","","","","","","","","","","","","","","","","","","","","","","","","","","","","","","","","","","","","","","","","","","","","","","","","","","","","","","","","","","","","","","","","","","","","","","","","","SYN004BUFR","","","","","","","","","",""
"01007099999","2021-03-17T01:00:00","78.9166666","11.9333333","7.7","NY ALESUND, SV","FM-12","4","","","0","","","-0.02","3","","","30.32","30.29","","","146","","5","","","","","","","","","","","","","","","","","","","","","","","","","","","","","","","","","","","","","","","","","","","","","","","","","","","","","","","","","","","","","","","","","","","","","","","","","","","","","","","","","","","","","","","","","","","SYN004BUFR","","","","","","","","","",""
"01007099999","2021-03-17T04:00:00","78.9166666","11.9333333","7.7","NY ALESUND, SV","FM-12","4","","","1","","","0.00","4","","","30.32","30.29","","","131","","5","","","","","","","","","","","","","","","","","","","","","","","","","","","","","","","","","","","","","","","","","","","","","","","","","","","","","","","","","","","","","","","","","","","","","","","","","","","","","","","","","","","","","","","","","","","SYN004BUFR","","","","","","","","","",""
"01007099999","2021-03-17T07:00:00","78.9166666","11.9333333","7.7","NY ALESUND, SV","FM-12","4","","-15","3","","","+0.01","6","41","","30.32","30.28","40.39","1","149","12","6","","","","","","","","","","","","","","","","","","","","","","","","","","","","","","","","","","","","","","","","","","","","","","","","","","","","","","","","","","","","","","","","","","","","","","","","","","","","","","","","","","","","","","","","","","","SYN004BUFR","","","","","","","","","",""
"01007099999","2021-03-17T10:00:00","78.9166666","11.9333333","7.7","NY ALESUND, SV","FM-12","4","","-11","8","","","-0.00","3","40","","30.32","30.29","","5","187","15","4","","","","","","","","","","","","","","","","","","","","","","","","","","","","","","","","","","","","","","","","","","","","","","","","","","","","","","","","","","","","","","","","","","","","","","","","","","","","","","","","","","","","","","","","","","","SYN004BUFR","","","","","","","","","",""
"01007099999","2021-03-17T16:00:00","78.9166666","11.9333333","7.7","NY ALESUND, SV","FM-12","4","","-13","9","","","-0.00","2","35","","30.31","30.28","","6","242","11","1","","","","","","","","","","","","","","","","","","","","","","","","","","","","","","","","","","","","","","","","","","","","","","","","","","","","","","","","","","","","","","","","","","","","","","","","","","","","","","","","","","","","","","","","","","","SYN004BUFR","","","","","","","","","",""
"01007099999","2021-03-17T22:00:00","78.9166666","11.9333333","7.7","NY ALESUND, SV","FM-12","4","","-13","7","","","-0.01","3","39","","30.32","30.29","","4","194","12","3","","","","","","","","","","","","","","","","","","","","","","","","","","","","","","","","","","","","","","","","","","","","","","","","","","","","","","","","","","","","","","","","","","","","","","","","","","","","","","","","","","","","","","","","","","","SYN004BUFR","","","","","","","","","",""
"01007099999","2021-03-18T10:00:00","78.9166666","11.9333333","7.7","NY ALESUND, SV","FM-12","4","","17","21","","","+0.12","8","83","","30.07","30.04","","20","114","28","20","","","","","","","","","","","","","","","","","","","","","","","","","","","","","","","","","","","","","","","","","","","","","","","","","","","","","","","","","","","","","","","","","","","","","","","","","","","","","","","","","","","","","","","","","","","SYN004BUFR","","","","","","","","","",""
"01007099999","2021-03-18T16:00:00","78.9166666","11.9333333","7.7","NY ALESUND, SV","FM-12","4","","","28","","","+0.16","8","","","29.75","29.72","","","149","48","22","","","","","","","","","","","","","","","","","","","","","","","","","","","","","","","","","","","","","","","","","","","","","","","","","","","","","","","","","","","","","","","","","","","","","","","","","","","","","","","","","","","","","","","","","","","SYN004BUFR","","","","","","","","","",""
"01007099999","2021-03-18T22:00:00","78.9166666","11.9333333","7.7","NY ALESUND, SV","FM-12","4","","","33","","","+0.20","8","","","29.35s","29.33s","","","171","41","22","","","","","","","","","","","","","","","","","","","","","","","","","","","","","","","","","","","","","","","","","","","","","","","","","","","","","","","","","","","","","","","","","","","","","","","","","","","","","","","","","","","","","","","","","","","SYN004BUFR","","","","","","","","","",""
"01007099999","2021-03-19T01:00:00","78.9166666","11.9333333","7.7","NY ALESUND, SV","FM-12","4","","32","32","","","+0.22","8","98","","29.13","29.10","","32","117","16","9","","","","","","","","","","","","","","","","","","","","","","","","","","","","","","","","","","","","","","","","","","","","","","","","","","","","","","","","","","","","","","","","","","","","","","","","","","","","","","","","","","","","","","","","","","","SYN004BUFR","","","","","","","","","",""
"01007099999","2021-03-19T04:00:00","78.9166666","11.9333333","7.7","NY ALESUND, SV","FM-12","4","","29","30","","","+0.24","7","95","","28.89","28.86","","30","108","26","20","","","","","","","","","","","","","","","","","","","","","","","","","","","","","","","","","","","","","","","","","","","","","","","","","","","","","","","","","","","","","","","","","","","","","","","","","","","","","","","","","","","","","","","","","","","SYN004BUFR","","","","","","","","","",""
"01007099999","2021-03-19T10:00:00","78.9166666","11.9333333","7.7","NY ALESUND, SV","FM-12","4","","24","30","","","+0.03","6","80","","28.78","28.75","","28","152","","4","","","","","","","","","","","","","","","","","","","","","","","","","","","","","","","","","","","","","","","","","","","","","","","","","","","","","","","","","","","","","","","","","","","","","","","","","","","","","","","","","","","","","","","","","","","SYN004BUFR","","","","","","","","","",""
"01007099999","2021-03-19T13:00:00","78.9166666","11.9333333","7.7","NY ALESUND, SV","FM-12","4","","31","32","","","-0.01","3","95","FEW:01 10","28.78","28.76","31.07","32","296","21","18","","","","","","","","","","","","","","","","","","","","","","","","","","","","","","","","","","","","","","","","","","","","","","","","","","","","","","","","","","","","","","","","","","","","","","","","","","","","","","","","","","","","","","","","","","","SYN004BUFR","","","","","","","","","",""
"01007099999","2021-03-19T16:00:00","78.9166666","11.9333333","7.7","NY ALESUND, SV","FM-12","4","","28","30","","","-0.03","3","92","","28.82","28.79","","29","300","22","18","","","","","","","","","","","","","","","","","","","","","","","","","","","","","","","","","","","","","","","","","","","","","","","","","","","","","","","","","","","","","","","","","","","","","","","","","","","","","","","","","","","","","","","","","","","SYN004BUFR","","","","","","","","","",""
"01007099999","2021-03-19T22:00:00","78.9166666","11.9333333","7.7","NY ALESUND, SV","FM-12","4","","18","21","","","-0.08","1","88","","28.96","28.93","","20","309","38","31","","","","","","","","","","","","","","","","","","","","","","","","","","","","","","","","","","","","","","","","","","","","","","","","","","","","","","","","","","","","","","","","","","","","","","","","","","","","","","","","","","","","","","","","","","","SYN004BUFR","","","","","","","","","",""
"01007099999","2021-03-20T01:00:00","78.9166666","11.9333333","7.7","NY ALESUND, SV","FM-12","4","","15","18","","","-0.05","1","87","","29.01","28.98","","17","310","32","26","","","","","","","","","","","","","","","","","","","","","","","","","","","","","","","","","","","","","","","","","","","","","","","","","","","","","","","","","","","","","","","","","","","","","","","","","","","","","","","","","","","","","","","","","","","SYN004BUFR","","","","","","","","","",""
"01007099999","2021-03-20T04:00:00","78.9166666","11.9333333","7.7","NY ALESUND, SV","FM-12","4","","13","17","","","-0.01","2","87","","29.02","28.99","","16","309","32","26","","","","","","","","","","","","","","","","","","","","","","","","","","","","","","","","","","","","","","","","","","","","","","","","","","","","","","","","","","","","","","","","","","","","","","","","","","","","","","","","","","","","","","","","","","","SYN004BUFR","","","","","","","","","",""
"01007099999","2021-03-20T10:00:00","78.9166666","11.9333333","7.7","NY ALESUND, SV","FM-12","4","","6","13","","","","","73","","29.01","28.98","","11","316","28","17","","","","","","","","","","","","","","","","","","","","","","","","","","","","","","","","","","","","","","","","","","","","","","","","","","","","","","","","","","","","","","","","","","","","","","","","","","","","","","","","","","","","","","","","","","","SYN004BUFR","","","","","","","","","",""
"01007099999","2021-03-20T16:00:00","78.9166666","11.9333333","7.7","NY ALESUND, SV","FM-12","4","","4","9","","","+0.01","8","77","","29.00","28.97","","8","287","16","14","","","","","","","","","","","","","","","","","","","","","","","","","","","","","","","","","","","","","","","","","","","","","","","","","","","","","","","","","","","","","","","","","","","","","","","","","","","","","","","","","","","","","","","","","","","SYN004BUFR","","","","","","","","","",""
"01007099999","2021-03-21T01:00:00","78.9166666","11.9333333","7.7","NY ALESUND, SV","FM-12","4","","8","11","","","-0.01","2","85","","29.00","28.97","","10","314","31","24","","","","","","","","","","","","","","","","","","","","","","","","","","","","","","","","","","","","","","","","","","","","","","","","","","","","","","","","","","","","","","","","","","","","","","","","","","","","","","","","","","","","","","","","","","","SYN004BUFR","","","","","","","","","",""
"01007099999","2021-03-21T10:00:00","78.9166666","11.9333333","7.7","NY ALESUND, SV","FM-12","4","","7","13","","","-0.02","2","77","","29.03","29.00","","12","318","28","21","","","","","","","","","","","","","","","","","","","","","","","","","","","","","","","","","","","","","","","","","","","","","","","","","","","","","","","","","","","","","","","","","","","","","","","","","","","","","","","","","","","","","","","","","","","SYN004BUFR","","","","","","","","","",""
"01007099999","2021-03-21T16:00:00","78.9166666","11.9333333","7.7","NY ALESUND, SV","FM-12","4","","8","12","","","-0.04","2","82","","29.10","29.08","","11","312","27","23","","","","","","","","","","","","","","","","","","","","","","","","","","","","","","","","","","","","","","","","","","","","","","","","","","","","","","","","","","","","","","","","","","","","","","","","","","","","","","","","","","","","","","","","","","","SYN004BUFR","","","","","","","","","",""
"01007099999","2021-03-21T22:00:00","78.9166666","11.9333333","7.7","NY ALESUND, SV","FM-12","4","","7","13","","","-0.03","3","79","","29.17","29.14","","12","319","25","20","","","","","","","","","","","","","","","","","","","","","","","","","","","","","","","","","","","","","","","","","","","","","","","","","","","","","","","","","","","","","","","","","","","","","","","","","","","","","","","","","","","","","","","","","","","SYN004BUFR","","","","","","","","","",""
"01007099999","2021-03-22T01:00:00","78.9166666","11.9333333","7.7","NY ALESUND, SV","FM-12","4","","7","13","","","-0.02","1","78","","29.19","29.16","","12","307","24","17","","","","","","","","","","","","","","","","","","","","","","","","","","","","","","","","","","","","","","","","","","","","","","","","","","","","","","","","","","","","","","","","","","","","","","","","","","","","","","","","","","","","","","","","","","","SYN004BUFR","","","","","","","","","",""
"01007099999","2021-03-22T04:00:00","78.9166666","11.9333333","7.7","NY ALESUND, SV","FM-12","4","","9","13","","","-0.01","0","84","","29.20","29.17","","12","313","19","15","","","","","","","","","","","","","","","","","","","","","","","","","","","","","","","","","","","","","","","","","","","","","","","","","","","","","","","","","","","","","","","","","","","","","","","","","","","","","","","","","","","","","","","","","","","SYN004BUFR","","","","","","","","","",""
"01007099999","2021-03-22T16:00:00","78.9166666","11.9333333","7.7","NY ALESUND, SV","FM-12","4","","7","12","","","+0.06","8","81","","29.11","29.08","","11","142","","7","","","","","","","","","","","","","","","","","","","","","","","","","","","","","","","","","","","","","","","","","","","","","","","","","","","","","","","","","","","","","","","","","","","","","","","","","","","","","","","","","","","","","","","","","","","SYN004BUFR","","","","","","","","","",""
"01007099999","2021-03-22T22:00:00","78.9166666","11.9333333","7.7","NY ALESUND, SV","FM-12","4","","0","6","","","+0.11","8","75","","28.94","28.91","","5","232","","2","","","","","","","","","","","","","","","","","","","","","","","","","","","","","","","","","","","","","","","","","","","","","","","","","","","","","","","","","","","","","","","","","","","","","","","","","","","","","","","","","","","","","","","","","","","SYN004BUFR","","","","","","","","","",""
"01007099999","2021-03-23T04:00:00","78.9166666","11.9333333","7.7","NY ALESUND, SV","FM-12","4","","","18","","","+0.14","7","","","28.66","28.63","","","100","25","19","","","","","","","","","","","","","","","","","","","","","","","","","","","","","","","","","","","","","","","","","","","","","","","","","","","","","","","","","","","","","","","","","","","","","","","","","","","","","","","","","","","","","","","","","","","SYN004BUFR","","","","","","","","","",""
"01007099999","2021-03-23T10:00:00","78.9166666","11.9333333","7.7","NY ALESUND, SV","FM-12","4","","12","21","","","+0.02","6","70","","28.55","28.52","","18","118","27","22","","","","","","","","","","","","","","","","","","","","","","","","","","","","","","","","","","","","","","","","","","","","","","","","","","","","","","","","","","","","","","","","","","","","","","","","","","","","","","","","","","","","","","","","","","","SYN004BUFR","","","","","","","","","",""
"01007099999","2021-03-23T11:00:00","78.9166666","11.9333333","7.7","NY ALESUND, SV","FM-12","4","","12","21","","","+0.01","6","69","","28.56","28.53","","18","127","22","17","","","","","","","","","","","","","","","","","","","","","","","","","","","","","","","","","","","","","","","","","","","","","","","","","","","","","","","","","","","","","","","","","","","","","","","","","","","","","","","","","","","","","","","","","","","SYN004BUFR","","","","","","","","","",""
"01007099999","2021-03-23T13:00:00","78.9166666","11.9333333","7.7","NY ALESUND, SV","FM-12","4","","10","21","","","-0.01","3","61","FEW:02 33","28.56","28.53","34.18","18","136","24","20","","","","","","","","","","","","","","","","","","","","","","","","","","","","","","","","","","","","","","","","","","","","","","","","","","","","","","","","","","","","","","","","","","","","","","","","","","","","","","","","","","","","","","","","","","","SYN004BUFR","","","","","","","","","",""
"01007099999","2021-03-23T16:00:00","78.9166666","11.9333333","7.7","NY ALESUND, SV","FM-12","4","","12","22","","","-0.05","2","66","","28.61","28.58","","19","118","19","15","","","","","","","","","","","","","","","","","","","","","","","","","","","","","","","","","","","","","","","","","","","","","","","","","","","","","","","","","","","","","","","","","","","","","","","","","","","","","","","","","","","","","","","","","","","SYN004BUFR","","","","","","","","","",""
"01007099999","2021-03-23T22:00:00","78.9166666","11.9333333","7.7","NY ALESUND, SV","FM-12","4","","10","22","","","-0.06","2","60","","28.73","28.70","","19","259","","3","","","","","","","","","","","","","","","","","","","","","","","","","","","","","","","","","","","","","","","","","","","","","","","","","","","","","","","","","","","","","","","","","","","","","","","","","","","","","","","","","","","","","","","","","","","SYN004BUFR","","","","","","","","","",""
"01007099999","2021-03-24T10:00:00","78.9166666","11.9333333","7.7","NY ALESUND, SV","FM-12","4","","17","24","","","-0.01","2","75","","28.82","28.79","","22","108","","6","","","","","","","","","","","","","","","","","","","","","","","","","","","","","","","","","","","","","","","","","","","","","","","","","","","","","","","","","","","","","","","","","","","","","","","","","","","","","","","","","","","","","","","","","","","SYN004BUFR","","","","","","","","","",""
"01007099999","2021-03-24T16:00:00","78.9166666","11.9333333","7.7","NY ALESUND, SV","FM-12","4","","18","25","","","-0.01","2","75","","28.82","28.80","","23","128","17","10","","","","","","","","","","","","","","","","","","","","","","","","","","","","","","","","","","","","","","","","","","","","","","","","","","","","","","","","","","","","","","","","","","","","","","","","","","","","","","","","","","","","","","","","","","","SYN004BUFR","","","","","","","","","",""
"01007099999","2021-03-24T22:00:00","78.9166666","11.9333333","7.7","NY ALESUND, SV","FM-12","4","","19","27","","","-0.03","2","73","","28.87","28.84","","24","101","14","11","","","","","","","","","","","","","","","","","","","","","","","","","","","","","","","","","","","","","","","","","","","","","","","","","","","","","","","","","","","","","","","","","","","","","","","","","","","","","","","","","","","","","","","","","","","SYN004BUFR","","","","","","","","","",""
"01007099999","2021-03-25T10:00:00","78.9166666","11.9333333","7.7","NY ALESUND, SV","FM-12","4","","18","27","","","-0.06","2","70","","29.03","29.00","","24","145","","7","","","","","","","","","","","","","","","","","","","","","","","","","","","","","","","","","","","","","","","","","","","","","","","","","","","","","","","","","","","","","","","","","","","","","","","","","","","","","","","","","","","","","","","","","","","SYN004BUFR","","","","","","","","","",""
"01007099999","2021-03-25T16:00:00","78.9166666","11.9333333","7.7","NY ALESUND, SV","FM-12","4","","21","27","","","-0.04","2","77","","29.10","29.08","","25","101","14","12","","","","","","","","","","","","","","","","","","","","","","","","","","","","","","","","","","","","","","","","","","","","","","","","","","","","","","","","","","","","","","","","","","","","","","","","","","","","","","","","","","","","","","","","","","","SYN004BUFR","","","","","","","","","",""
"01007099999","2021-03-25T22:00:00","78.9166666","11.9333333","7.7","NY ALESUND, SV","FM-12","4","","17","23","","","-0.08","2","78","","29.23","29.20","","21","175","16","2","","","","","","","","","","","","","","","","","","","","","","","","","","","","","","","","","","","","","","","","","","","","","","","","","","","","","","","","","","","","","","","","","","","","","","","","","","","","","","","","","","","","","","","","","","","SYN004BUFR","","","","","","","","","",""
"01007099999","2021-03-26T01:00:00","78.9166666","11.9333333","7.7","NY ALESUND, SV","FM-12","4","","18","21","","","-0.07","2","88","","29.30","29.27","","20","128","21","4","","","","","","","","","","","","","","","","","","","","","","","","","","","","","","","","","","","","","","","","","","","","","","","","","","","","","","","","","","","","","","","","","","","","","","","","","","","","","","","","","","","","","","","","","","","SYN004BUFR","","","","","","","","","",""
"01007099999","2021-03-26T04:00:00","78.9166666","11.9333333","7.7","NY ALESUND, SV","FM-12","4","","16","18","","","-0.04","2","89","","29.34","29.31","","17","360","","0","","","","","","","","","","","","","","","","","","","","","","","","","","","","","","","","","","","","","","","","","","","","","","","","","","","","","","","","","","","","","","","","","","","","","","","","","","","","","","","","","","","","","","","","","","","SYN004BUFR","","","","","","","","","",""
"01007099999","2021-03-26T08:00:00","78.9166666","11.9333333","7.7","NY ALESUND, SV","FM-12","4","","12","19","","","-0.05","2","73","","29.41","29.38","","17","149","13","6","","","","","","","","","","","","","","","","","","","","","","","","","","","","","","","","","","","","","","","","","","","","","","","","","","","","","","","","","","","","","","","","","","","","","","","","","","","","","","","","","","","","","","","","","","","SYN004BUFR","","","","","","","","","",""
"01007099999","2021-03-26T10:00:00","78.9166666","11.9333333","7.7","NY ALESUND, SV","FM-12","4","","12","20","","","-0.06","2","70","","29.45","29.43","","18","148","","4","","","","","","","","","","","","","","","","","","","","","","","","","","","","","","","","","","","","","","","","","","","","","","","","","","","","","","","","","","","","","","","","","","","","","","","","","","","","","","","","","","","","","","","","","","","SYN004BUFR","","","","","","","","","",""
"01007099999","2021-03-26T16:00:00","78.9166666","11.9333333","7.7","NY ALESUND, SV","FM-12","4","","15","23","","","-0.04","3","71","","29.53","29.50","","21","103","16","14","","","","","","","","","","","","","","","","","","","","","","","","","","","","","","","","","","","","","","","","","","","","","","","","","","","","","","","","","","","","","","","","","","","","","","","","","","","","","","","","","","","","","","","","","","","SYN004BUFR","","","","","","","","","",""
"01007099999","2021-03-26T22:00:00","78.9166666","11.9333333","7.7","NY ALESUND, SV","FM-12","4","","6","16","","","-0.04","1","66","","29.61","29.58","","14","139","15","13","","","","","","","","","","","","","","","","","","","","","","","","","","","","","","","","","","","","","","","","","","","","","","","","","","","","","","","","","","","","","","","","","","","","","","","","","","","","","","","","","","","","","","","","","","","SYN004BUFR","","","","","","","","","",""
"01007099999","2021-03-27T01:00:00","78.9166666","11.9333333","7.7","NY ALESUND, SV","FM-12","4","","8","16","","","+0.01","8","70","","29.60","29.57","","14","137","22","18","","","","","","","","","","","","","","","","","","","","","","","","","","","","","","","","","","","","","","","","","","","","","","","","","","","","","","","","","","","","","","","","","","","","","","","","","","","","","","","","","","","","","","","","","","","SYN004BUFR","","","","","","","","","",""
"01007099999","2021-03-27T04:00:00","78.9166666","11.9333333","7.7","NY ALESUND, SV","FM-12","4","","12","19","","","+0.02","8","73","","29.58","29.55","","17","115","28","24","","","","","","","","","","","","","","","","","","","","","","","","","","","","","","","","","","","","","","","","","","","","","","","","","","","","","","","","","","","","","","","","","","","","","","","","","","","","","","","","","","","","","","","","","","","SYN004BUFR","","","","","","","","","",""
"01007099999","2021-03-27T10:00:00","78.9166666","11.9333333","7.7","NY ALESUND, SV","FM-12","4","","14","22","","","-0.00","3","71","","29.57","29.54","","20","115","41","30","","","","","","","","","","","","","","","","","","","","","","","","","","","","","","","","","","","","","","","","","","","","","","","","","","","","","","","","","","","","","","","","","","","","","","","","","","","","","","","","","","","","","","","","","","","SYN004BUFR","","","","","","","","","",""
"01007099999","2021-03-27T16:00:00","78.9166666","11.9333333","7.7","NY ALESUND, SV","FM-12","4","","17","24","","","+0.04","8","73","","29.49","29.47","","22","115","41","34","","","","","","","","","","","","","","","","","","","","","","","","","","","","","","","","","","","","","","","","","","","","","","","","","","","","","","","","","","","","","","","","","","","","","","","","","","","","","","","","","","","","","","","","","","","SYN004BUFR","","","","","","","","","",""
"01007099999","2021-03-27T22:00:00","78.9166666","11.9333333","7.7","NY ALESUND, SV","FM-12","4","","22","27","","","+0.01","6","79","","29.44","29.41","","25","114","43","36","","","","","","","","","","","","","","","","","","","","","","","","","","","","","","","","","","","","","","","","","","","","","","","","","","","","","","","","","","","","","","","","","","","","","","","","","","","","","","","","","","","","","","","","","","","SYN004BUFR","","","","","","","","","",""
"01007099999","2021-03-28T01:00:00","78.9166666","11.9333333","7.7","NY ALESUND, SV","FM-12","4","","22","30","","","+0.04","8","73","","29.40","29.37","","27","110","40","31","","","","","","","","","","","","","","","","","","","","","","","","","","","","","","","","","","","","","","","","","","","","","","","","","","","","","","","","","","","","","","","","","","","","","","","","","","","","","","","","","","","","","","","","","","","SYN004BUFR","","","","","","","","","",""
"01007099999","2021-03-28T10:00:00","78.9166666","11.9333333","7.7","NY ALESUND, SV","FM-12","4","","26","33","","","-0.05","3","75","","29.44","29.41","","30","109","30","24","","","","","","","","","","","","","","","","","","","","","","","","","","","","","","","","","","","","","","","","","","","","","","","","","","","","","","","","","","","","","","","","","","","","","","","","","","","","","","","","","","","","","","","","","","","SYN004BUFR","","","","","","","","","",""
"01007099999","2021-03-28T16:00:00","78.9166666","11.9333333","7.7","NY ALESUND, SV","FM-12","4","","27","33","","","-0.04","2","79","","29.52","29.49","","31","115","23","17","","","","","","","","","","","","","","","","","","","","","","","","","","","","","","","","","","","","","","","","","","","","","","","","","","","","","","","","","","","","","","","","","","","","","","","","","","","","","","","","","","","","","","","","","","","SYN004BUFR","","","","","","","","","",""
"01007099999","2021-03-28T22:00:00","78.9166666","11.9333333","7.7","NY ALESUND, SV","FM-12","4","","23","30","","","-0.04","3","75","","29.60","29.57","","28","128","","5","","","","","","","","","","","","","","","","","","","","","","","","","","","","","","","","","","","","","","","","","","","","","","","","","","","","","","","","","","","","","","","","","","","","","","","","","","","","","","","","","","","","","","","","","","","SYN004BUFR","","","","","","","","","",""
"01007099999","2021-03-29T01:00:00","78.9166666","11.9333333","7.7","NY ALESUND, SV","FM-12","4","","22","28","","","-0.03","2","78","","29.63","29.60","","26","136","18","14","","","","","","","","","","","","","","","","","","","","","","","","","","","","","","","","","","","","","","","","","","","","","","","","","","","","","","","","","","","","","","","","","","","","","","","","","","","","","","","","","","","","","","","","","","","SYN004BUFR","","","","","","","","","",""
"01007099999","2021-03-29T04:00:00","78.9166666","11.9333333","7.7","NY ALESUND, SV","FM-12","4","","22","28","","","-0.01","2","76","","29.64","29.61","","26","135","15","10","","","","","","","","","","","","","","","","","","","","","","","","","","","","","","","","","","","","","","","","","","","","","","","","","","","","","","","","","","","","","","","","","","","","","","","","","","","","","","","","","","","","","","","","","","","SYN004BUFR","","","","","","","","","",""
"01007099999","2021-03-29T10:00:00","78.9166666","11.9333333","7.7","NY ALESUND, SV","FM-12","4","","21","31","","","-0.03","3","67","","29.67","29.65","","28","360","","0","","","","","","","","","","","","","","","","","","","","","","","","","","","","","","","","","","","","","","","","","","","","","","","","","","","","","","","","","","","","","","","","","","","","","","","","","","","","","","","","","","","","","","","","","","","SYN004BUFR","","","","","","","","","",""
"01007099999","2021-03-29T16:00:00","78.9166666","11.9333333","7.7","NY ALESUND, SV","FM-12","4","","20","27","","","+0.02","8","73","","29.66","29.63","","25","105","17","13","","","","","","","","","","","","","","","","","","","","","","","","","","","","","","","","","","","","","","","","","","","","","","","","","","","","","","","","","","","","","","","","","","","","","","","","","","","","","","","","","","","","","","","","","","","SYN004BUFR","","","","","","","","","",""
"01007099999","2021-03-29T22:00:00","78.9166666","11.9333333","7.7","NY ALESUND, SV","FM-12","4","","18","26","","","-0.00","0","71","","29.66","29.63","","23","112","18","15","","","","","","","","","","","","","","","","","","","","","","","","","","","","","","","","","","","","","","","","","","","","","","","","","","","","","","","","","","","","","","","","","","","","","","","","","","","","","","","","","","","","","","","","","","","SYN004BUFR","","","","","","","","","",""
"01007099999","2021-03-30T01:00:00","78.9166666","11.9333333","7.7","NY ALESUND, SV","FM-12","4","","17","22","","","+0.00","7","78","","29.66","29.63","","20","148","18","12","","","","","","","","","","","","","","","","","","","","","","","","","","","","","","","","","","","","","","","","","","","","","","","","","","","","","","","","","","","","","","","","","","","","","","","","","","","","","","","","","","","","","","","","","","","SYN004BUFR","","","","","","","","","",""
"01007099999","2021-03-30T04:00:00","78.9166666","11.9333333","7.7","NY ALESUND, SV","FM-12","4","","17","25","","","0.00","4","71","","29.66","29.63","","23","120","12","5","","","","","","","","","","","","","","","","","","","","","","","","","","","","","","","","","","","","","","","","","","","","","","","","","","","","","","","","","","","","","","","","","","","","","","","","","","","","","","","","","","","","","","","","","","","SYN004BUFR","","","","","","","","","",""
"01007099999","2021-03-30T10:00:00","78.9166666","11.9333333","7.7","NY ALESUND, SV","FM-12","4","","16","27","","","-0.04","3","62","","29.71","29.68","","24","124","14","8","","","","","","","","","","","","","","","","","","","","","","","","","","","","","","","","","","","","","","","","","","","","","","","","","","","","","","","","","","","","","","","","","","","","","","","","","","","","","","","","","","","","","","","","","","","SYN004BUFR","","","","","","","","","",""
"01007099999","2021-03-30T16:00:00","78.9166666","11.9333333","7.7","NY ALESUND, SV","FM-12","4","","19","30","","","-0.02","2","65","","29.76","29.74","","26","360","","0","","","","","","","","","","","","","","","","","","","","","","","","","","","","","","","","","","","","","","","","","","","","","","","","","","","","","","","","","","","","","","","","","","","","","","","","","","","","","","","","","","","","","","","","","","","SYN004BUFR","","","","","","","","","",""
"01007099999","2021-03-30T22:00:00","78.9166666","11.9333333","7.7","NY ALESUND, SV","FM-12","4","","19","27","","","-0.01","3","70","","29.80","29.77","","24","143","12","6","","","","","","","","","","","","","","","","","","","","","","","","","","","","","","","","","","","","","","","","","","","","","","","","","","","","","","","","","","","","","","","","","","","","","","","","","","","","","","","","","","","","","","","","","","","SYN004BUFR","","","","","","","","","",""
"01007099999","2021-03-31T01:00:00","78.9166666","11.9333333","7.7","NY ALESUND, SV","FM-12","4","","18","27","","","0.00","4","69","","29.80","29.77","","24","070","15","1","","","","","","","","","","","","","","","","","","","","","","","","","","","","","","","","","","","","","","","","","","","","","","","","","","","","","","","","","","","","","","","","","","","","","","","","","","","","","","","","","","","","","","","","","","","SYN004BUFR","","","","","","","","","",""
"01007099999","2021-03-31T10:00:00","78.9166666","11.9333333","7.7","NY ALESUND, SV","FM-12","4","","21","27","","","+0.02","7","77","","29.77","29.74","","25","145","15","6","","","","","","","","","","","","","","","","","","","","","","","","","","","","","","","","","","","","","","","","","","","","","","","","","","","","","","","","","","","","","","","","","","","","","","","","","","","","","","","","","","","","","","","","","","","SYN004BUFR","","","","","","","","","",""
"01007099999","2021-03-31T22:00:00","78.9166666","11.9333333","7.7","NY ALESUND, SV","FM-12","4","","25","28","","","+0.03","6","87","","29.60","29.57","","27","138","17","8","","","","","","","","","","","","","","","","","","","","","","","","","","","","","","","","","","","","","","","","","","","","","","","","","","","","","","","","","","","","","","","","","","","","","","","","","","","","","","","","","","","","","","","","","","","SYN004BUFR","","","","","","","","","",""
"01007099999","2021-04-01T01:00:00","78.9166666","11.9333333","7.7","NY ALESUND, SV","FM-12","4","","24","28","","","+0.03","6","86","","29.57","29.54","","27","128","23","17","","","","","","","","","","","","","","","","","","","","","","","","","","","","","","","","","","","","","","","","","","","","","","","","","","","","","","","","","","","","","","","","","","","","","","","","","","","","","","","","","","","","","","","","","","","SYN004BUFR","","","","","","","","","",""
"01007099999","2021-04-01T04:00:00","78.9166666","11.9333333","7.7","NY ALESUND, SV","FM-12","4","","25","27","","","+0.01","7","90","","29.55","29.52","","26","131","22","18","","","","","","","","","","","","","","","","","","","","","","","","","","","","","","","","","","","","","","","","","","","","","","","","","","","","","","","","","","","","","","","","","","","","","","","","","","","","","","","","","","","","","","","","","","","SYN004BUFR","","","","","","","","","",""
"01007099999","2021-04-01T10:00:00","78.9166666","11.9333333","7.7","NY ALESUND, SV","FM-12","4","","26","30","","","0.00","4","83","","29.54","29.51","","29","120","26","19","","","","","","","","","","","","","","","","","","","","","","","","","","","","","","","","","","","","","","","","","","","","","","","","","","","","","","","","","","","","","","","","","","","","","","","","","","","","","","","","","","","","","","","","","","","SYN004BUFR","","","","","","","","","",""
"01007099999","2021-04-01T16:00:00","78.9166666","11.9333333","7.7","NY ALESUND, SV","FM-12","4","","25","31","","","-0.01","3","79","","29.56","29.53","","29","126","19","13","","","","","","","","","","","","","","","","","","","","","","","","","","","","","","","","","","","","","","","","","","","","","","","","","","","","","","","","","","","","","","","","","","","","","","","","","","","","","","","","","","","","","","","","","","","SYN004BUFR","","","","","","","","","",""
"01007099999","2021-04-01T22:00:00","78.9166666","11.9333333","7.7","NY ALESUND, SV","FM-12","4","","27","28","","","-0.03","2","95","","29.62","29.59","","28","119","","4","","","","","","","","","","","","","","","","","","","","","","","","","","","","","","","","","","","","","","","","","","","","","","","","","","","","","","","","","","","","","","","","","","","","","","","","","","","","","","","","","","","","","","","","","","","SYN004BUFR","","","","","","","","","",""
"01007099999","2021-04-02T01:00:00","78.9166666","11.9333333","7.7","NY ALESUND, SV","FM-12","4","","24","25","","","-0.03","3","95","","29.65","29.62","","25","312","19","13","","","","","","","","","","","","","","","","","","","","","","","","","","","","","","","","","","","","","","","","","","","","","","","","","","","","","","","","","","","","","","","","","","","","","","","","","","","","","","","","","","","","","","","","","","","SYN004BUFR","","","","","","","","","",""
"01007099999","2021-04-02T04:00:00","78.9166666","11.9333333","7.7","NY ALESUND, SV","FM-12","4","","18","21","","","-0.04","2","91","","29.68","29.65","","20","307","27","23","","","","","","","","","","","","","","","","","","","","","","","","","","","","","","","","","","","","","","","","","","","","","","","","","","","","","","","","","","","","","","","","","","","","","","","","","","","","","","","","","","","","","","","","","","","SYN004BUFR","","","","","","","","","",""
"01007099999","2021-04-02T08:00:00","78.9166666","11.9333333","7.7","NY ALESUND, SV","FM-12","4","","13","16","","","-0.04","2","87","","29.75","29.72","","15","308","28","23","","","","","","","","","","","","","","","","","","","","","","","","","","","","","","","","","","","","","","","","","","","","","","","","","","","","","","","","","","","","","","","","","","","","","","","","","","","","","","","","","","","","","","","","","","","SYN004BUFR","","","","","","","","","",""
"01007099999","2021-04-02T10:00:00","78.9166666","11.9333333","7.7","NY ALESUND, SV","FM-12","4","","13","16","","","-0.02","1","87","","29.76","29.73","","15","305","23","19","","","","","","","","","","","","","","","","","","","","","","","","","","","","","","","","","","","","","","","","","","","","","","","","","","","","","","","","","","","","","","","","","","","","","","","","","","","","","","","","","","","","","","","","","","","SYN004BUFR","","","","","","","","","",""
"01007099999","2021-04-02T16:00:00","78.9166666","11.9333333","7.7","NY ALESUND, SV","FM-12","4","","11","16","","","+0.01","8","78","","29.74","29.71","","15","320","23","15","","","","","","","","","","","","","","","","","","","","","","","","","","","","","","","","","","","","","","","","","","","","","","","","","","","","","","","","","","","","","","","","","","","","","","","","","","","","","","","","","","","","","","","","","","","SYN004BUFR","","","","","","","","","",""
"01007099999","2021-04-02T22:00:00","78.9166666","11.9333333","7.7","NY ALESUND, SV","FM-12","4","","5","12","","","+0.03","7","73","","29.66","29.63","","10","272","13","9","","","","","","","","","","","","","","","","","","","","","","","","","","","","","","","","","","","","","","","","","","","","","","","","","","","","","","","","","","","","","","","","","","","","","","","","","","","","","","","","","","","","","","","","","","","SYN004BUFR","","","","","","","","","",""
"01007099999","2021-04-03T01:00:00","78.9166666","11.9333333","7.7","NY ALESUND, SV","FM-12","4","","6","13","","","+0.05","7","73","","29.62","29.59","","11","256","15","4","","","","","","","","","","","","","","","","","","","","","","","","","","","","","","","","","","","","","","","","","","","","","","","","","","","","","","","","","","","","","","","","","","","","","","","","","","","","","","","","","","","","","","","","","","","SYN004BUFR","","","","","","","","","",""
"01007099999","2021-04-03T02:00:00","78.9166666","11.9333333","7.7","NY ALESUND, SV","FM-12","4","","6","12","","","+0.06","8","79","","29.59","29.56","","11","150","","5","","","","","","","","","","","","","","","","","","","","","","","","","","","","","","","","","","","","","","","","","","","","","","","","","","","","","","","","","","","","","","","","","","","","","","","","","","","","","","","","","","","","","","","","","","","SYN004BUFR","","","","","","","","","",""
"01007099999","2021-04-03T04:00:00","78.9166666","11.9333333","7.7","NY ALESUND, SV","FM-12","4","","5","11","","","+0.08","7","77","","29.53","29.50","","10","156","","2","","","","","","","","","","","","","","","","","","","","","","","","","","","","","","","","","","","","","","","","","","","","","","","","","","","","","","","","","","","","","","","","","","","","","","","","","","","","","","","","","","","","","","","","","","","SYN004BUFR","","","","","","","","","",""
"01007099999","2021-04-03T10:00:00","78.9166666","11.9333333","7.7","NY ALESUND, SV","FM-12","4","","3","14","","","+0.09","7","62","","29.39","29.36","","12","144","","4","","","","","","","","","","","","","","","","","","","","","","","","","","","","","","","","","","","","","","","","","","","","","","","","","","","","","","","","","","","","","","","","","","","","","","","","","","","","","","","","","","","","","","","","","","","SYN004BUFR","","","","","","","","","",""
"01007099999","2021-04-03T16:00:00","78.9166666","11.9333333","7.7","NY ALESUND, SV","FM-12","4","","7","17","","","+0.06","7","65","","29.26","29.23","","14","130","","3","","","","","","","","","","","","","","","","","","","","","","","","","","","","","","","","","","","","","","","","","","","","","","","","","","","","","","","","","","","","","","","","","","","","","","","","","","","","","","","","","","","","","","","","","","","SYN004BUFR","","","","","","","","","",""
"01007099999","2021-04-04T01:00:00","78.9166666","11.9333333","7.7","NY ALESUND, SV","FM-12","4","","12","20","","","+0.03","7","69","","29.16","29.13","","18","137","16","9","","","","","","","","","","","","","","","","","","","","","","","","","","","","","","","","","","","","","","","","","","","","","","","","","","","","","","","","","","","","","","","","","","","","","","","","","","","","","","","","","","","","","","","","","","","SYN004BUFR","","","","","","","","","",""
"01007099999","2021-04-04T04:00:00","78.9166666","11.9333333","7.7","NY ALESUND, SV","FM-12","4","","18","28","","","-0.01","3","66","","29.18","29.15","","25","111","23","18","","","","","","","","","","","","","","","","","","","","","","","","","","","","","","","","","","","","","","","","","","","","","","","","","","","","","","","","","","","","","","","","","","","","","","","","","","","","","","","","","","","","","","","","","","","SYN004BUFR","","","","","","","","","",""
"01007099999","2021-04-04T10:00:00","78.9166666","11.9333333","7.7","NY ALESUND, SV","FM-12","4","","13","27","","","-0.08","3","54","","29.34","29.31","","23","072","18","11","","","","","","","","","","","","","","","","","","","","","","","","","","","","","","","","","","","","","","","","","","","","","","","","","","","","","","","","","","","","","","","","","","","","","","","","","","","","","","","","","","","","","","","","","","","SYN004BUFR","","","","","","","","","",""
"01007099999","2021-04-04T16:00:00","78.9166666","11.9333333","7.7","NY ALESUND, SV","FM-12","4","","11","26","","","-0.04","3","54","","29.45","29.42","","22","037","26","18","","","","","","","","","","","","","","","","","","","","","","","","","","","","","","","","","","","","","","","","","","","","","","","","","","","","","","","","","","","","","","","","","","","","","","","","","","","","","","","","","","","","","","","","","","","SYN004BUFR","","","","","","","","","",""
"01007099999","2021-04-04T22:00:00","78.9166666","11.9333333","7.7","NY ALESUND, SV","FM-12","4","","11","24","","","-0.08","1","57","","29.60","29.57","","20","035","25","16","","","","","","","","","","","","","","","","","","","","","","","","","","","","","","","","","","","","","","","","","","","","","","","","","","","","","","","","","","","","","","","","","","","","","","","","","","","","","","","","","","","","","","","","","","","SYN004BUFR","","","","","","","","","",""
"01007099999","2021-04-05T01:00:00","78.9166666","11.9333333","7.7","NY ALESUND, SV","FM-12","4","","7","24","","","-0.07","3","50","","29.67","29.64","","19","042","35","20","","","","","","","","","","","","","","","","","","","","","","","","","","","","","","","","","","","","","","","","","","","","","","","","","","","","","","","","","","","","","","","","","","","","","","","","","","","","","","","","","","","","","","","","","","","SYN004BUFR","","","","","","","","","",""
"01007099999","2021-04-05T10:00:00","78.9166666","11.9333333","7.7","NY ALESUND, SV","FM-12","4","","6","18","","","-0.07","2","61","","29.84","29.81","","15","122","21","15","","","","","","","","","","","","","","","","","","","","","","","","","","","","","","","","","","","","","","","","","","","","","","","","","","","","","","","","","","","","","","","","","","","","","","","","","","","","","","","","","","","","","","","","","","","SYN004BUFR","","","","","","","","","",""
"01007099999","2021-04-05T16:00:00","78.9166666","11.9333333","7.7","NY ALESUND, SV","FM-12","4","","8","17","","","-0.03","2","67","","29.90","29.87","","15","129","26","21","","","","","","","","","","","","","","","","","","","","","","","","","","","","","","","","","","","","","","","","","","","","","","","","","","","","","","","","","","","","","","","","","","","","","","","","","","","","","","","","","","","","","","","","","","","SYN004BUFR","","","","","","","","","",""
"01007099999","2021-04-05T22:00:00","78.9166666","11.9333333","7.7","NY ALESUND, SV","FM-12","4","","4","14","","","-0.04","2","67","","29.98","29.95","","12","124","29","23","","","","","","","","","","","","","","","","","","","","","","","","","","","","","","","","","","","","","","","","","","","","","","","","","","","","","","","","","","","","","","","","","","","","","","","","","","","","","","","","","","","","","","","","","","","SYN004BUFR","","","","","","","","","",""
"01007099999","2021-04-06T01:00:00","78.9166666","11.9333333","7.7","NY ALESUND, SV","FM-12","4","","2","12","","","-0.01","2","64","","29.99","29.96","","10","126","30","20","","","","","","","","","","","","","","","","","","","","","","","","","","","","","","","","","","","","","","","","","","","","","","","","","","","","","","","","","","","","","","","","","","","","","","","","","","","","","","","","","","","","","","","","","","","SYN004BUFR","","","","","","","","","",""
"01007099999","2021-04-06T04:00:00","78.9166666","11.9333333","7.7","NY ALESUND, SV","FM-12","4","","0","12","","","-0.00","0","59","","30.00","29.97","","10","123","30","23","","","","","","","","","","","","","","","","","","","","","","","","","","","","","","","","","","","","","","","","","","","","","","","","","","","","","","","","","","","","","","","","","","","","","","","","","","","","","","","","","","","","","","","","","","","SYN004BUFR","","","","","","","","","",""
"01007099999","2021-04-06T10:00:00","78.9166666","11.9333333","7.7","NY ALESUND, SV","FM-12","4","","0","12","","","+0.02","8","59","","29.96","29.93","","10","124","27","22","","","","","","","","","","","","","","","","","","","","","","","","","","","","","","","","","","","","","","","","","","","","","","","","","","","","","","","","","","","","","","","","","","","","","","","","","","","","","","","","","","","","","","","","","","","SYN004BUFR","","","","","","","","","",""
"01007099999","2021-04-06T12:00:00","78.9166666","11.9333333","7.7","NY ALESUND, SV","FM-12","4","","1","13","","","+0.04","8","58","","29.94","29.91","","10","121","27","20","","","","","","","","","","","","","","","","","","","","","","","","","","","","","","","","","","","","","","","","","","","","","","","","","","","","","","","","","","","","","","","","","","","","","","","","","","","","","","","","","","","","","","","","","","","SYN004BUFR","","","","","","","","","",""
"01007099999","2021-04-06T13:00:00","78.9166666","11.9333333","7.7","NY ALESUND, SV","FM-12","4","","1","11","","","+0.04","7","65","","29.93","29.90","46.60","9","126","34","27","","","","","","","","","","","","","","","","","","","","","","","","","","","","","","","","","","","","","","","","","","","","","","","","","","","","","","","","","","","","","","","","","","","","","","","","","","","","","","","","","","","","","","","","","","","SYN004BUFR","","","","","","","","","",""
"01007099999","2021-04-06T14:00:00","78.9166666","11.9333333","7.7","NY ALESUND, SV","FM-12","4","","0","11","","","+0.03","6","62","","29.92","29.89","","9","125","30","26","","","","","","","","","","","","","","","","","","","","","","","","","","","","","","","","","","","","","","","","","","","","","","","","","","","","","","","","","","","","","","","","","","","","","","","","","","","","","","","","","","","","","","","","","","","SYN004BUFR","","","","","","","","","",""
"01007099999","2021-04-06T15:00:00","78.9166666","11.9333333","7.7","NY ALESUND, SV","FM-12","4","","0","11","","","+0.03","8","60","","29.91","29.88","","9","126","30","23","","","","","","","","","","","","","","","","","","","","","","","","","","","","","","","","","","","","","","","","","","","","","","","","","","","","","","","","","","","","","","","","","","","","","","","","","","","","","","","","","","","","","","","","","","","SYN004BUFR","","","","","","","","","",""
"01007099999","2021-04-06T16:00:00","78.9166666","11.9333333","7.7","NY ALESUND, SV","FM-12","4","","-1","11","","","+0.03","8","58","","29.89","29.86","","9","124","31","25","","","","","","","","","","","","","","","","","","","","","","","","","","","","","","","","","","","","","","","","","","","","","","","","","","","","","","","","","","","","","","","","","","","","","","","","","","","","","","","","","","","","","","","","","","","SYN004BUFR","","","","","","","","","",""
"01007099999","2021-04-06T17:00:00","78.9166666","11.9333333","7.7","NY ALESUND, SV","FM-12","4","","-1","11","","","+0.03","7","57","","29.89","29.86","","9","125","30","23","","","","","","","","","","","","","","","","","","","","","","","","","","","","","","","","","","","","","","","","","","","","","","","","","","","","","","","","","","","","","","","","","","","","","","","","","","","","","","","","","","","","","","","","","","","SYN004BUFR","","","","","","","","","",""
"01007099999","2021-04-06T22:00:00","78.9166666","11.9333333","7.7","NY ALESUND, SV","FM-12","4","","-1","12","","","+0.05","7","55","","29.82","29.78","","9","118","30","21","","","","","","","","","","","","","","","","","","","","","","","","","","","","","","","","","","","","","","","","","","","","","","","","","","","","","","","","","","","","","","","","","","","","","","","","","","","","","","","","","","","","","","","","","","","SYN004BUFR","","","","","","","","","",""
"01007099999","2021-04-07T01:00:00","78.9166666","11.9333333","7.7","NY ALESUND, SV","FM-12","4","","0","11","","","+0.06","8","62","","29.75","29.72","","9","122","33","24","","","","","","","","","","","","","","","","","","","","","","","","","","","","","","","","","","","","","","","","","","","","","","","","","","","","","","","","","","","","","","","","","","","","","","","","","","","","","","","","","","","","","","","","","","","SYN004BUFR","","","","","","","","","",""
"01007099999","2021-04-07T04:00:00","78.9166666","11.9333333","7.7","NY ALESUND, SV","FM-12","4","","6","17","","","+0.08","8","62","","29.67","29.64","","14","116","26","19","","","","","","","","","","","","","","","","","","","","","","","","","","","","","","","","","","","","","","","","","","","","","","","","","","","","","","","","","","","","","","","","","","","","","","","","","","","","","","","","","","","","","","","","","","","SYN004BUFR","","","","","","","","","",""
"01007099999","2021-04-07T07:00:00","78.9166666","11.9333333","7.7","NY ALESUND, SV","FM-12","4","","7","18","","","+0.10","8","60","FEW:01 20","29.57","29.54","24.85","15","118","31","22","","","","","","","","","","","","","","","","","","","","","","","","","","","","","","","","","","","","","","","","","","","","","","","","","","","","","","","","","","","","","","","","","","","","","","","","","","","","","","","","","","","","","","","","","","","SYN004BUFR","","","","","","","","","",""
"01007099999","2021-04-07T08:00:00","78.9166666","11.9333333","7.7","NY ALESUND, SV","FM-12","4","","7","19","","","+0.10","8","59","","29.54","29.51","","16","116","26","8","","","","","","","","","","","","","","","","","","","","","","","","","","","","","","","","","","","","","","","","","","","","","","","","","","","","","","","","","","","","","","","","","","","","","","","","","","","","","","","","","","","","","","","","","","","SYN004BUFR","","","","","","","","","",""
"01007099999","2021-04-07T10:00:00","78.9166666","11.9333333","7.7","NY ALESUND, SV","FM-12","4","","11","18","","","+0.15","8","74","","29.42","29.39","","16","135","40","33","","","","","","","","","","","","","","","","","","","","","","","","","","","","","","","","","","","","","","","","","","","","","","","","","","","","","","","","","","","","","","","","","","","","","","","","","","","","","","","","","","","","","","","","","","","SYN004BUFR","","","","","","","","","",""
"01007099999","2021-04-07T16:00:00","78.9166666","11.9333333","7.7","NY ALESUND, SV","FM-12","4","","10","23","","","+0.03","6","57","","29.32","29.29","","19","109","26","19","","","","","","","","","","","","","","","","","","","","","","","","","","","","","","","","","","","","","","","","","","","","","","","","","","","","","","","","","","","","","","","","","","","","","","","","","","","","","","","","","","","","","","","","","","","SYN004BUFR","","","","","","","","","",""
"01007099999","2021-04-07T22:00:00","78.9166666","11.9333333","7.7","NY ALESUND, SV","FM-12","4","","14","25","","","+0.03","6","64","","29.26","29.23","","22","116","21","17","","","","","","","","","","","","","","","","","","","","","","","","","","","","","","","","","","","","","","","","","","","","","","","","","","","","","","","","","","","","","","","","","","","","","","","","","","","","","","","","","","","","","","","","","","","SYN004BUFR","","","","","","","","","",""
"01007099999","2021-04-08T04:00:00","78.9166666","11.9333333","7.7","NY ALESUND, SV","FM-12","4","","16","23","","","+0.01","6","74","","29.24","29.21","","21","164","","5","","","","","","","","","","","","","","","","","","","","","","","","","","","","","","","","","","","","","","","","","","","","","","","","","","","","","","","","","","","","","","","","","","","","","","","","","","","","","","","","","","","","","","","","","","","SYN004BUFR","","","","","","","","","",""
"01007099999","2021-04-08T10:00:00","78.9166666","11.9333333","7.7","NY ALESUND, SV","FM-12","4","","20","32","","","-0.07","2","62","","29.33","29.30","","28","149","20","10","","","","","","","","","","","","","","","","","","","","","","","","","","","","","","","","","","","","","","","","","","","","","","","","","","","","","","","","","","","","","","","","","","","","","","","","","","","","","","","","","","","","","","","","","","","SYN004BUFR","","","","","","","","","",""
"01007099999","2021-04-08T16:00:00","78.9166666","11.9333333","7.7","NY ALESUND, SV","FM-12","4","","21","33","","","-0.03","2","62","","29.39","29.37","","29","360","","0","","","","","","","","","","","","","","","","","","","","","","","","","","","","","","","","","","","","","","","","","","","","","","","","","","","","","","","","","","","","","","","","","","","","","","","","","","","","","","","","","","","","","","","","","","","SYN004BUFR","","","","","","","","","",""
"01007099999","2021-04-08T22:00:00","78.9166666","11.9333333","7.7","NY ALESUND, SV","FM-12","4","","21","27","","","-0.06","2","81","","29.54","29.51","","25","123","20","17","","","","","","","","","","","","","","","","","","","","","","","","","","","","","","","","","","","","","","","","","","","","","","","","","","","","","","","","","","","","","","","","","","","","","","","","","","","","","","","","","","","","","","","","","","","SYN004BUFR","","","","","","","","","",""
"01007099999","2021-04-08T23:00:00","78.9166666","11.9333333","7.7","NY ALESUND, SV","FM-12","4","","20","26","","","-0.06","2","77","","29.56","29.53","","24","143","19","13","","","","","","","","","","","","","","","","","","","","","","","","","","","","","","","","","","","","","","","","","","","","","","","","","","","","","","","","","","","","","","","","","","","","","","","","","","","","","","","","","","","","","","","","","","","SYN004BUFR","","","","","","","","","",""
"01007099999","2021-04-09T00:00:00","78.9166666","11.9333333","7.7","NY ALESUND, SV","FM-12","4","","18","27","","","-0.05","2","70","","29.58","29.55","","24","142","15","9","","","","","","","","","","","","","","","","","","","","","","","","","","","","","","","","","","","","","","","","","","","","","","","","","","","","","","","","","","","","","","","","","","","","","","","","","","","","","","","","","","","","","","","","","","","SYN004BUFR","","","","","","","","","",""
"01007099999","2021-04-09T01:00:00","78.9166666","11.9333333","7.7","NY ALESUND, SV","FM-12","4","","18","25","","","-0.05","0","74","","29.59","29.56","","23","134","17","10","","","","","","","","","","","","","","","","","","","","","","","","","","","","","","","","","","","","","","","","","","","","","","","","","","","","","","","","","","","","","","","","","","","","","","","","","","","","","","","","","","","","","","","","","","","SYN004BUFR","","","","","","","","","",""
"01007099999","2021-04-09T04:00:00","78.9166666","11.9333333","7.7","NY ALESUND, SV","FM-12","4","","15","22","","","-0.02","2","75","","29.61","29.58","","20","138","11","6","","","","","","","","","","","","","","","","","","","","","","","","","","","","","","","","","","","","","","","","","","","","","","","","","","","","","","","","","","","","","","","","","","","","","","","","","","","","","","","","","","","","","","","","","","","SYN004BUFR","","","","","","","","","",""
"01007099999","2021-04-09T07:00:00","78.9166666","11.9333333","7.7","NY ALESUND, SV","FM-12","4","","17","27","","","+0.01","7","64","","29.60","29.57","46.60","24","360","16","0","","","","","","","","","","","","","","","","","","","","","","","","","","","","","","","","","","","","","","","","","","","","","","","","","","","","","","","","","","","","","","","","","","","","","","","","","","","","","","","","","","","","","","","","","","","SYN004BUFR","","","","","","","","","",""
"01007099999","2021-04-09T08:00:00","78.9166666","11.9333333","7.7","NY ALESUND, SV","FM-12","4","","12","21","","","+0.01","7","69","","29.59","29.57","","18","302","","1","","","","","","","","","","","","","","","","","","","","","","","","","","","","","","","","","","","","","","","","","","","","","","","","","","","","","","","","","","","","","","","","","","","","","","","","","","","","","","","","","","","","","","","","","","","SYN004BUFR","","","","","","","","","",""
"01007099999","2021-04-09T10:00:00","78.9166666","11.9333333","7.7","NY ALESUND, SV","FM-12","4","","15","24","","","+0.04","7","66","","29.57","29.54","","21","135","","5","","","","","","","","","","","","","","","","","","","","","","","","","","","","","","","","","","","","","","","","","","","","","","","","","","","","","","","","","","","","","","","","","","","","","","","","","","","","","","","","","","","","","","","","","","","SYN004BUFR","","","","","","","","","",""
"01007099999","2021-04-09T16:00:00","78.9166666","11.9333333","7.7","NY ALESUND, SV","FM-12","4","","21","34","","","+0.11","7","60","","29.39","29.36","","29","336","17","12","","","","","","","","","","","","","","","","","","","","","","","","","","","","","","","","","","","","","","","","","","","","","","","","","","","","","","","","","","","","","","","","","","","","","","","","","","","","","","","","","","","","","","","","","","","SYN004BUFR","","","","","","","","","",""
"01007099999","2021-04-09T18:00:00","78.9166666","11.9333333","7.7","NY ALESUND, SV","FM-12","4","","23","33","","","+0.08","7","68","","29.34","29.31","","29","341","20","14","","","","","","","","","","","","","","","","","","","","","","","","","","","","","","","","","","","","","","","","","","","","","","","","","","","","","","","","","","","","","","","","","","","","","","","","","","","","","","","","","","","","","","","","","","","SYN004BUFR","","","","","","","","","",""
"01007099999","2021-04-09T22:00:00","78.9166666","11.9333333","7.7","NY ALESUND, SV","FM-12","4","","26","31","","","+0.09","7","83","","29.23","29.20","","29","328","27","21","","","","","","","","","","","","","","","","","","","","","","","","","","","","","","","","","","","","","","","","","","","","","","","","","","","","","","","","","","","","","","","","","","","","","","","","","","","","","","","","","","","","","","","","","","","SYN004BUFR","","","","","","","","","",""
"01007099999","2021-04-10T01:00:00","78.9166666","11.9333333","7.7","NY ALESUND, SV","FM-12","4","","27","30","","","+0.06","7","88","","29.17","29.14","","29","331","34","21","","","","","","","","","","","","","","","","","","","","","","","","","","","","","","","","","","","","","","","","","","","","","","","","","","","","","","","","","","","","","","","","","","","","","","","","","","","","","","","","","","","","","","","","","","","SYN004BUFR","","","","","","","","","",""
"01007099999","2021-04-10T04:00:00","78.9166666","11.9333333","7.7","NY ALESUND, SV","FM-12","4","","26","28","","","+0.05","6","90","","29.12","29.09","","27","331","29","20","","","","","","","","","","","","","","","","","","","","","","","","","","","","","","","","","","","","","","","","","","","","","","","","","","","","","","","","","","","","","","","","","","","","","","","","","","","","","","","","","","","","","","","","","","","SYN004BUFR","","","","","","","","","",""
"01007099999","2021-04-10T10:00:00","78.9166666","11.9333333","7.7","NY ALESUND, SV","FM-12","4","","19","27","","","+0.00","8","71","","29.09","29.06","","24","339","24","17","","","","","","","","","","","","","","","","","","","","","","","","","","","","","","","","","","","","","","","","","","","","","","","","","","","","","","","","","","","","","","","","","","","","","","","","","","","","","","","","","","","","","","","","","","","SYN004BUFR","","","","","","","","","",""
"01007099999","2021-04-10T16:00:00","78.9166666","11.9333333","7.7","NY ALESUND, SV","FM-12","4","","15","24","","","-0.06","2","69","","29.14","29.11","","21","341","27","17","","","","","","","","","","","","","","","","","","","","","","","","","","","","","","","","","","","","","","","","","","","","","","","","","","","","","","","","","","","","","","","","","","","","","","","","","","","","","","","","","","","","","","","","","","","SYN004BUFR","","","","","","","","","",""
"01007099999","2021-04-10T22:00:00","78.9166666","11.9333333","7.7","NY ALESUND, SV","FM-12","4","","12","19","","","-0.02","1","72","","29.21","29.18","","17","329","31","25","","","","","","","","","","","","","","","","","","","","","","","","","","","","","","","","","","","","","","","","","","","","","","","","","","","","","","","","","","","","","","","","","","","","","","","","","","","","","","","","","","","","","","","","","","","SYN004BUFR","","","","","","","","","",""
"01007099999","2021-04-11T01:00:00","78.9166666","11.9333333","7.7","NY ALESUND, SV","FM-12","4","","10","18","","","-0.08","1","69","","29.29","29.26","","16","337","28","16","","","","","","","","","","","","","","","","","","","","","","","","","","","","","","","","","","","","","","","","","","","","","","","","","","","","","","","","","","","","","","","","","","","","","","","","","","","","","","","","","","","","","","","","","","","SYN004BUFR","","","","","","","","","",""
"01007099999","2021-04-11T04:00:00","78.9166666","11.9333333","7.7","NY ALESUND, SV","FM-12","4","","11","18","","","-0.04","1","73","","29.34","29.31","","16","328","28","20","","","","","","","","","","","","","","","","","","","","","","","","","","","","","","","","","","","","","","","","","","","","","","","","","","","","","","","","","","","","","","","","","","","","","","","","","","","","","","","","","","","","","","","","","","","SYN004BUFR","","","","","","","","","",""
"01007099999","2021-04-11T10:00:00","78.9166666","11.9333333","7.7","NY ALESUND, SV","FM-12","4","","12","17","","","-0.04","0","79","","29.42","29.39","","16","317","33","26","","","","","","","","","","","","","","","","","","","","","","","","","","","","","","","","","","","","","","","","","","","","","","","","","","","","","","","","","","","","","","","","","","","","","","","","","","","","","","","","","","","","","","","","","","","SYN004BUFR","","","","","","","","","",""
"01007099999","2021-04-11T16:00:00","78.9166666","11.9333333","7.7","NY ALESUND, SV","FM-12","4","","8","17","","","-0.07","3","69","","29.55","29.52","","15","331","29","20","","","","","","","","","","","","","","","","","","","","","","","","","","","","","","","","","","","","","","","","","","","","","","","","","","","","","","","","","","","","","","","","","","","","","","","","","","","","","","","","","","","","","","","","","","","SYN004BUFR","","","","","","","","","",""
"01007099999","2021-04-11T22:00:00","78.9166666","11.9333333","7.7","NY ALESUND, SV","FM-12","4","","9","18","","","-0.08","2","66","","29.71","29.68","","16","334","25","20","","","","","","","","","","","","","","","","","","","","","","","","","","","","","","","","","","","","","","","","","","","","","","","","","","","","","","","","","","","","","","","","","","","","","","","","","","","","","","","","","","","","","","","","","","","SYN004BUFR","","","","","","","","","",""
"01007099999","2021-04-12T01:00:00","78.9166666","11.9333333","7.7","NY ALESUND, SV","FM-12","4","","9","17","","","-0.07","2","69","","29.78","29.75","","15","324","24","17","","","","","","","","","","","","","","","","","","","","","","","","","","","","","","","","","","","","","","","","","","","","","","","","","","","","","","","","","","","","","","","","","","","","","","","","","","","","","","","","","","","","","","","","","","","SYN004BUFR","","","","","","","","","",""
"01007099999","2021-04-12T04:00:00","78.9166666","11.9333333","7.7","NY ALESUND, SV","FM-12","4","","6","16","","","-0.05","1","66","","29.83","29.80","","14","334","20","16","","","","","","","","","","","","","","","","","","","","","","","","","","","","","","","","","","","","","","","","","","","","","","","","","","","","","","","","","","","","","","","","","","","","","","","","","","","","","","","","","","","","","","","","","","","SYN004BUFR","","","","","","","","","",""
"01007099999","2021-04-12T10:00:00","78.9166666","11.9333333","7.7","NY ALESUND, SV","FM-12","4","","4","16","","","-0.03","1","59","","29.90","29.87","","13","327","17","12","","","","","","","","","","","","","","","","","","","","","","","","","","","","","","","","","","","","","","","","","","","","","","","","","","","","","","","","","","","","","","","","","","","","","","","","","","","","","","","","","","","","","","","","","","","SYN004BUFR","","","","","","","","","",""
"01007099999","2021-04-12T16:00:00","78.9166666","11.9333333","7.7","NY ALESUND, SV","FM-12","4","","2","15","","","-0.01","2","58","","29.94","29.91","","12","192","","1","","","","","","","","","","","","","","","","","","","","","","","","","","","","","","","","","","","","","","","","","","","","","","","","","","","","","","","","","","","","","","","","","","","","","","","","","","","","","","","","","","","","","","","","","","","SYN004BUFR","","","","","","","","","",""
"01007099999","2021-04-12T22:00:00","78.9166666","11.9333333","7.7","NY ALESUND, SV","FM-12","4","","-2","9","","","-0.01","2","63","","29.96","29.93","","7","145","12","9","","","","","","","","","","","","","","","","","","","","","","","","","","","","","","","","","","","","","","","","","","","","","","","","","","","","","","","","","","","","","","","","","","","","","","","","","","","","","","","","","","","","","","","","","","","SYN004BUFR","","","","","","","","","",""
"01007099999","2021-04-13T01:00:00","78.9166666","11.9333333","7.7","NY ALESUND, SV","FM-12","4","","0","10","","","-0.01","2","63","","29.96","29.93","","8","141","16","8","","","","","","","","","","","","","","","","","","","","","","","","","","","","","","","","","","","","","","","","","","","","","","","","","","","","","","","","","","","","","","","","","","","","","","","","","","","","","","","","","","","","","","","","","","","SYN004BUFR","","","","","","","","","",""
"01007099999","2021-04-13T04:00:00","78.9166666","11.9333333","7.7","NY ALESUND, SV","FM-12","4","","1","11","","","+0.02","7","62","","29.95","29.92","","9","137","11","8","","","","","","","","","","","","","","","","","","","","","","","","","","","","","","","","","","","","","","","","","","","","","","","","","","","","","","","","","","","","","","","","","","","","","","","","","","","","","","","","","","","","","","","","","","","SYN004BUFR","","","","","","","","","",""
"01007099999","2021-04-13T10:00:00","78.9166666","11.9333333","7.7","NY ALESUND, SV","FM-12","4","","5","15","","","-0.01","3","64","","29.95","29.92","","13","103","18","14","","","","","","","","","","","","","","","","","","","","","","","","","","","","","","","","","","","","","","","","","","","","","","","","","","","","","","","","","","","","","","","","","","","","","","","","","","","","","","","","","","","","","","","","","","","SYN004BUFR","","","","","","","","","",""
"01007099999","2021-04-13T11:00:00","78.9166666","11.9333333","7.7","NY ALESUND, SV","FM-12","4","","5","15","","","-0.01","2","65","","29.95","29.92","","13","123","22","13","","","","","","","","","","","","","","","","","","","","","","","","","","","","","","","","","","","","","","","","","","","","","","","","","","","","","","","","","","","","","","","","","","","","","","","","","","","","","","","","","","","","","","","","","","","SYN004BUFR","","","","","","","","","",""
"01007099999","2021-04-13T13:00:00","78.9166666","11.9333333","7.7","NY ALESUND, SV","FM-12","4","","5","15","","","+0.00","7","65","SCT:04 82","29.95","29.92","46.60","13","118","24","14","","","","","","","","","","","","","","","","","","","","","","","","","","","","","","","","","","","","","","","","","","","","","","","","","","","","","","","","","","","","","","","","","","","","","","","","","","","","","","","","","","","","","","","","","","","SYN004BUFR","","","","","","","","","",""
"01007099999","2021-04-13T14:00:00","78.9166666","11.9333333","7.7","NY ALESUND, SV","FM-12","4","","3","15","","","+0.00","6","59","","29.95","29.92","","12","109","21","16","","","","","","","","","","","","","","","","","","","","","","","","","","","","","","","","","","","","","","","","","","","","","","","","","","","","","","","","","","","","","","","","","","","","","","","","","","","","","","","","","","","","","","","","","","","SYN004BUFR","","","","","","","","","",""
"01007099999","2021-04-13T15:00:00","78.9166666","11.9333333","7.7","NY ALESUND, SV","FM-12","4","","3","13","","","+0.01","6","64","","29.94","29.91","","11","136","16","13","","","","","","","","","","","","","","","","","","","","","","","","","","","","","","","","","","","","","","","","","","","","","","","","","","","","","","","","","","","","","","","","","","","","","","","","","","","","","","","","","","","","","","","","","","","SYN004BUFR","","","","","","","","","",""
"01007099999","2021-04-13T16:00:00","78.9166666","11.9333333","7.7","NY ALESUND, SV","FM-12","4","","2","12","","","+0.00","7","64","","29.94","29.91","","10","142","18","14","","","","","","","","","","","","","","","","","","","","","","","","","","","","","","","","","","","","","","","","","","","","","","","","","","","","","","","","","","","","","","","","","","","","","","","","","","","","","","","","","","","","","","","","","","","SYN004BUFR","","","","","","","","","",""
"01007099999","2021-04-13T22:00:00","78.9166666","11.9333333","7.7","NY ALESUND, SV","FM-12","4","","-2","9","","","-0.01","1","61","","29.96","29.93","","7","155","12","8","","","","","","","","","","","","","","","","","","","","","","","","","","","","","","","","","","","","","","","","","","","","","","","","","","","","","","","","","","","","","","","","","","","","","","","","","","","","","","","","","","","","","","","","","","","SYN004BUFR","","","","","","","","","",""
"01007099999","2021-04-14T01:00:00","78.9166666","11.9333333","7.7","NY ALESUND, SV","FM-12","4","","-5","7","","","-0.01","2","57","","29.97","29.94","","5","144","16","4","","","","","","","","","","","","","","","","","","","","","","","","","","","","","","","","","","","","","","","","","","","","","","","","","","","","","","","","","","","","","","","","","","","","","","","","","","","","","","","","","","","","","","","","","","","SYN004BUFR","","","","","","","","","",""
"01007099999","2021-04-14T04:00:00","78.9166666","11.9333333","7.7","NY ALESUND, SV","FM-12","4","","-5","6","","","-0.01","2","59","","29.98","29.96","","4","268","","3","","","","","","","","","","","","","","","","","","","","","","","","","","","","","","","","","","","","","","","","","","","","","","","","","","","","","","","","","","","","","","","","","","","","","","","","","","","","","","","","","","","","","","","","","","","SYN004BUFR","","","","","","","","","",""
"01007099999","2021-04-14T13:00:00","78.9166666","11.9333333","7.7","NY ALESUND, SV","FM-12","4","","-4","11","","","-0.01","2","52","BKN:06 82","30.04","30.01","46.60","8","138","13","10","","","","","","","","","","","","","","","","","","","","","","","","","","","","","","","","","","","","","","","","","","","","","","","","","","","","","","","","","","","","","","","","","","","","","","","","","","","","","","","","","","","","","","","","","","","SYN004BUFR","","","","","","","","","",""
"01007099999","2021-04-15T01:00:00","78.9166666","11.9333333","7.7","NY ALESUND, SV","FM-12","4","","-4","8","","","+0.02","8","56","","30.06","30.03","","6","138","21","16","","","","","","","","","","","","","","","","","","","","","","","","","","","","","","","","","","","","","","","","","","","","","","","","","","","","","","","","","","","","","","","","","","","","","","","","","","","","","","","","","","","","","","","","","","","SYN004BUFR","","","","","","","","","",""
"01007099999","2021-04-15T04:00:00","78.9166666","11.9333333","7.7","NY ALESUND, SV","FM-12","4","","-3","11","","","+0.01","6","54","","30.05","30.01","","8","110","13","4","","","","","","","","","","","","","","","","","","","","","","","","","","","","","","","","","","","","","","","","","","","","","","","","","","","","","","","","","","","","","","","","","","","","","","","","","","","","","","","","","","","","","","","","","","","SYN004BUFR","","","","","","","","","",""
"01007099999","2021-04-15T09:00:00","78.9166666","11.9333333","7.7","NY ALESUND, SV","FM-12","4","","4","10","","","+0.07","8","76","","29.95","29.92","","9","129","35","27","","","","","","","","","","","","","","","","","","","","","","","","","","","","","","","","","","","","","","","","","","","","","","","","","","","","","","","","","","","","","","","","","","","","","","","","","","","","","","","","","","","","","","","","","","","SYN004BUFR","","","","","","","","","",""
"01007099999","2021-04-15T10:00:00","78.9166666","11.9333333","7.7","NY ALESUND, SV","FM-12","4","","6","12","","","+0.06","6","75","","29.95","29.92","","11","121","36","29","","","","","","","","","","","","","","","","","","","","","","","","","","","","","","","","","","","","","","","","","","","","","","","","","","","","","","","","","","","","","","","","","","","","","","","","","","","","","","","","","","","","","","","","","","","SYN004BUFR","","","","","","","","","",""
"01007099999","2021-04-15T18:00:00","78.9166666","11.9333333","7.7","NY ALESUND, SV","FM-12","4","","11","20","","","+0.05","8","68","","29.72","29.69","","18","109","43","34","","","","","","","","","","","","","","","","","","","","","","","","","","","","","","","","","","","","","","","","","","","","","","","","","","","","","","","","","","","","","","","","","","","","","","","","","","","","","","","","","","","","","","","","","","","SYN004BUFR","","","","","","","","","",""
"01007099999","2021-04-15T19:00:00","78.9166666","11.9333333","7.7","NY ALESUND, SV","FM-12","4","","12","21","","","+0.04","6","69","BKN:07 20","29.72","29.69","24.85","18","111","41","27","","","","","","","","","","","","","","","","","","","","","","","","","","","","","","","","","","","","","","","","","","","","","","","","","","","","","","","","","","","","","","","","","","","","","","","","","","","","","","","","","","","","","","","","","","","SYN004BUFR","","","","","","","","","",""
"01007099999","2021-04-15T22:00:00","78.9166666","11.9333333","7.7","NY ALESUND, SV","FM-12","4","","14","21","","","-0.03","3","73","","29.75","29.72","","19","117","23","19","","","","","","","","","","","","","","","","","","","","","","","","","","","","","","","","","","","","","","","","","","","","","","","","","","","","","","","","","","","","","","","","","","","","","","","","","","","","","","","","","","","","","","","","","","","SYN004BUFR","","","","","","","","","",""
"01007099999","2021-04-16T01:00:00","78.9166666","11.9333333","7.7","NY ALESUND, SV","FM-12","4","","13","20","","","-0.09","3","72","","29.83","29.80","","18","174","32","4","","","","","","","","","","","","","","","","","","","","","","","","","","","","","","","","","","","","","","","","","","","","","","","","","","","","","","","","","","","","","","","","","","","","","","","","","","","","","","","","","","","","","","","","","","","SYN004BUFR","","","","","","","","","",""
"01007099999","2021-04-16T02:00:00","78.9166666","11.9333333","7.7","NY ALESUND, SV","FM-12","4","","11","19","","","-0.09","3","72","","29.86","29.83","","17","247","","6","","","","","","","","","","","","","","","","","","","","","","","","","","","","","","","","","","","","","","","","","","","","","","","","","","","","","","","","","","","","","","","","","","","","","","","","","","","","","","","","","","","","","","","","","","","SYN004BUFR","","","","","","","","","",""
"01007099999","2021-04-16T03:00:00","78.9166666","11.9333333","7.7","NY ALESUND, SV","FM-12","4","","15","19","","","-0.10","1","83","","29.89","29.86","","18","255","","6","","","","","","","","","","","","","","","","","","","","","","","","","","","","","","","","","","","","","","","","","","","","","","","","","","","","","","","","","","","","","","","","","","","","","","","","","","","","","","","","","","","","","","","","","","","SYN004BUFR","","","","","","","","","",""
"01007099999","2021-04-16T04:00:00","78.9166666","11.9333333","7.7","NY ALESUND, SV","FM-12","4","","16","22","","","-0.09","2","78","","29.93","29.90","","20","326","","6","","","","","","","","","","","","","","","","","","","","","","","","","","","","","","","","","","","","","","","","","","","","","","","","","","","","","","","","","","","","","","","","","","","","","","","","","","","","","","","","","","","","","","","","","","","SYN004BUFR","","","","","","","","","",""
"01007099999","2021-04-16T05:00:00","78.9166666","11.9333333","7.7","NY ALESUND, SV","FM-12","4","","15","21","","","-0.09","2","77","","29.95","29.92","","19","130","","4","","","","","","","","","","","","","","","","","","","","","","","","","","","","","","","","","","","","","","","","","","","","","","","","","","","","","","","","","","","","","","","","","","","","","","","","","","","","","","","","","","","","","","","","","","","SYN004BUFR","","","","","","","","","",""
"01007099999","2021-04-16T06:00:00","78.9166666","11.9333333","7.7","NY ALESUND, SV","FM-12","4","","15","22","","","-0.09","2","73","","29.98","29.96","","20","166","","3","","","","","","","","","","","","","","","","","","","","","","","","","","","","","","","","","","","","","","","","","","","","","","","","","","","","","","","","","","","","","","","","","","","","","","","","","","","","","","","","","","","","","","","","","","","SYN004BUFR","","","","","","","","","",""
"01007099999","2021-04-16T07:00:00","78.9166666","11.9333333","7.7","NY ALESUND, SV","FM-12","4","","11","18","","","-0.10","2","75","FEW:01 49","30.02","29.99","21.75","16","254","","6","","","","","","","","","","","","","","","","","","","","","","","","","","","","","","","","","","","","","","","","","","","","","","","","","","","","","","","","","","","","","","","","","","","","","","","","","","","","","","","","","","","","","","","","","","","SYN004BUFR","","","","","","","","","",""
"01007099999","2021-04-16T08:00:00","78.9166666","11.9333333","7.7","NY ALESUND, SV","FM-12","4","","12","20","","","-0.11","2","70","","30.06","30.03","","18","309","18","15","","","","","","","","","","","","","","","","","","","","","","","","","","","","","","","","","","","","","","","","","","","","","","","","","","","","","","","","","","","","","","","","","","","","","","","","","","","","","","","","","","","","","","","","","","","SYN004BUFR","","","","","","","","","",""
"01007099999","2021-04-16T09:00:00","78.9166666","11.9333333","7.7","NY ALESUND, SV","FM-12","4","","11","20","","","-0.11","1","68","","30.09","30.06","","18","322","24","20","","","","","","","","","","","","","","","","","","","","","","","","","","","","","","","","","","","","","","","","","","","","","","","","","","","","","","","","","","","","","","","","","","","","","","","","","","","","","","","","","","","","","","","","","","","SYN004BUFR","","","","","","","","","",""
"01007099999","2021-04-16T10:00:00","78.9166666","11.9333333","7.7","NY ALESUND, SV","FM-12","4","","9","20","","","-0.10","1","65","","30.12","30.09","","17","315","22","15","","","","","","","","","","","","","","","","","","","","","","","","","","","","","","","","","","","","","","","","","","","","","","","","","","","","","","","","","","","","","","","","","","","","","","","","","","","","","","","","","","","","","","","","","","","SYN004BUFR","","","","","","","","","",""
"01007099999","2021-04-16T16:00:00","78.9166666","11.9333333","7.7","NY ALESUND, SV","FM-12","4","","4","15","","","-0.08","1","60","","30.29","30.26","","13","152","18","6","","","","","","","","","","","","","","","","","","","","","","","","","","","","","","","","","","","","","","","","","","","","","","","","","","","","","","","","","","","","","","","","","","","","","","","","","","","","","","","","","","","","","","","","","","","SYN004BUFR","","","","","","","","","",""
"01007099999","2021-04-16T22:00:00","78.9166666","11.9333333","7.7","NY ALESUND, SV","FM-12","4","","-1","11","","","-0.06","3","58","","30.38","30.35","","9","144","19","12","","","","","","","","","","","","","","","","","","","","","","","","","","","","","","","","","","","","","","","","","","","","","","","","","","","","","","","","","","","","","","","","","","","","","","","","","","","","","","","","","","","","","","","","","","","SYN004BUFR","","","","","","","","","",""
"01007099999","2021-04-17T01:00:00","78.9166666","11.9333333","7.7","NY ALESUND, SV","FM-12","4","","-2","10","","","-0.05","1","58","","30.43","30.40","","8","143","26","3","","","","","","","","","","","","","","","","","","","","","","","","","","","","","","","","","","","","","","","","","","","","","","","","","","","","","","","","","","","","","","","","","","","","","","","","","","","","","","","","","","","","","","","","","","","SYN004BUFR","","","","","","","","","",""
"01007099999","2021-04-17T04:00:00","78.9166666","11.9333333","7.7","NY ALESUND, SV","FM-12","4","","1","12","","","-0.02","0","61","","30.45","30.42","","10","209","","4","","","","","","","","","","","","","","","","","","","","","","","","","","","","","","","","","","","","","","","","","","","","","","","","","","","","","","","","","","","","","","","","","","","","","","","","","","","","","","","","","","","","","","","","","","","SYN004BUFR","","","","","","","","","",""
"01007099999","2021-04-17T22:00:00","78.9166666","11.9333333","7.7","NY ALESUND, SV","FM-12","4","","20","25","","","+0.14","7","81","","29.92","29.89","","23","112","44","34","","","","","","","","","","","","","","","","","","","","","","","","","","","","","","","","","","","","","","","","","","","","","","","","","","","","","","","","","","","","","","","","","","","","","","","","","","","","","","","","","","","","","","","","","","","SYN004BUFR","","","","","","","","","",""
"01007099999","2021-04-18T01:00:00","78.9166666","11.9333333","7.7","NY ALESUND, SV","FM-12","4","","24","29","","","+0.07","6","83","","29.84","29.81","","27","116","40","27","","","","","","","","","","","","","","","","","","","","","","","","","","","","","","","","","","","","","","","","","","","","","","","","","","","","","","","","","","","","","","","","","","","","","","","","","","","","","","","","","","","","","","","","","","","SYN004BUFR","","","","","","","","","",""
"01007099999","2021-04-18T04:00:00","78.9166666","11.9333333","7.7","NY ALESUND, SV","FM-12","4","","26","36","","","+0.06","7","69","","29.78","29.75","","32","172","29","16","","","","","","","","","","","","","","","","","","","","","","","","","","","","","","","","","","","","","","","","","","","","","","","","","","","","","","","","","","","","","","","","","","","","","","","","","","","","","","","","","","","","","","","","","","","SYN004BUFR","","","","","","","","","",""
"01007099999","2021-04-18T10:00:00","78.9166666","11.9333333","7.7","NY ALESUND, SV","FM-12","4","","25","29","","","-0.06","3","84","","29.80","29.77","","28","234","27","13","","","","","","","","","","","","","","","","","","","","","","","","","","","","","","","","","","","","","","","","","","","","","","","","","","","","","","","","","","","","","","","","","","","","","","","","","","","","","","","","","","","","","","","","","","","SYN004BUFR","","","","","","","","","",""
"01007099999","2021-04-18T16:00:00","78.9166666","11.9333333","7.7","NY ALESUND, SV","FM-12","4","","24","29","","","-0.02","3","79","","29.84","29.81","","27","212","21","8","","","","","","","","","","","","","","","","","","","","","","","","","","","","","","","","","","","","","","","","","","","","","","","","","","","","","","","","","","","","","","","","","","","","","","","","","","","","","","","","","","","","","","","","","","","SYN004BUFR","","","","","","","","","",""
"01007099999","2021-04-18T22:00:00","78.9166666","11.9333333","7.7","NY ALESUND, SV","FM-12","4","","22","27","","","+0.03","8","80","","29.79","29.76","","25","150","","7","","","","","","","","","","","","","","","","","","","","","","","","","","","","","","","","","","","","","","","","","","","","","","","","","","","","","","","","","","","","","","","","","","","","","","","","","","","","","","","","","","","","","","","","","","","SYN004BUFR","","","","","","","","","",""
"01007099999","2021-04-19T01:00:00","78.9166666","11.9333333","7.7","NY ALESUND, SV","FM-12","4","","25","27","","","+0.09","7","92","","29.70","29.67","","26","141","14","11","","","","","","","","","","","","","","","","","","","","","","","","","","","","","","","","","","","","","","","","","","","","","","","","","","","","","","","","","","","","","","","","","","","","","","","","","","","","","","","","","","","","","","","","","","","SYN004BUFR","","","","","","","","","",""
"01007099999","2021-04-19T04:00:00","78.9166666","11.9333333","7.7","NY ALESUND, SV","FM-12","4","","28","30","","","+0.12","7","92","","29.58","29.55","","29","144","12","2","","","","","","","","","","","","","","","","","","","","","","","","","","","","","","","","","","","","","","","","","","","","","","","","","","","","","","","","","","","","","","","","","","","","","","","","","","","","","","","","","","","","","","","","","","","SYN004BUFR","","","","","","","","","",""
"01007099999","2021-04-19T10:00:00","78.9166666","11.9333333","7.7","NY ALESUND, SV","FM-12","4","","30","35","","","-0.04","3","81","","29.51","29.48","","33","232","39","16","","","","","","","","","","","","","","","","","","","","","","","","","","","","","","","","","","","","","","","","","","","","","","","","","","","","","","","","","","","","","","","","","","","","","","","","","","","","","","","","","","","","","","","","","","","SYN004BUFR","","","","","","","","","",""
"01007099999","2021-04-19T16:00:00","78.9166666","11.9333333","7.7","NY ALESUND, SV","FM-12","4","","24","35","","","+0.00","8","63","","29.57","29.54","","31","124","14","6","","","","","","","","","","","","","","","","","","","","","","","","","","","","","","","","","","","","","","","","","","","","","","","","","","","","","","","","","","","","","","","","","","","","","","","","","","","","","","","","","","","","","","","","","","","SYN004BUFR","","","","","","","","","",""
"01007099999","2021-04-19T22:00:00","78.9166666","11.9333333","7.7","NY ALESUND, SV","FM-12","4","","28","33","","","+0.07","8","84","","29.41","29.38","","31","127","17","8","","","","","","","","","","","","","","","","","","","","","","","","","","","","","","","","","","","","","","","","","","","","","","","","","","","","","","","","","","","","","","","","","","","","","","","","","","","","","","","","","","","","","","","","","","","SYN004BUFR","","","","","","","","","",""
"01007099999","2021-04-20T01:00:00","78.9166666","11.9333333","7.7","NY ALESUND, SV","FM-12","4","","26","32","","","+0.05","8","78","","29.36","29.33","","30","179","30","16","","","","","","","","","","","","","","","","","","","","","","","","","","","","","","","","","","","","","","","","","","","","","","","","","","","","","","","","","","","","","","","","","","","","","","","","","","","","","","","","","","","","","","","","","","","SYN004BUFR","","","","","","","","","",""
"01007099999","2021-04-20T04:00:00","78.9166666","11.9333333","7.7","NY ALESUND, SV","FM-12","4","","23","28","","","+0.01","6","79","","29.36","29.33","","26","117","13","8","","","","","","","","","","","","","","","","","","","","","","","","","","","","","","","","","","","","","","","","","","","","","","","","","","","","","","","","","","","","","","","","","","","","","","","","","","","","","","","","","","","","","","","","","","","SYN004BUFR","","","","","","","","","",""
"01007099999","2021-04-20T10:00:00","78.9166666","11.9333333","7.7","NY ALESUND, SV","FM-12","4","","23","26","","","-0.04","1","89","","29.39","29.36","","25","131","14","6","","","","","","","","","","","","","","","","","","","","","","","","","","","","","","","","","","","","","","","","","","","","","","","","","","","","","","","","","","","","","","","","","","","","","","","","","","","","","","","","","","","","","","","","","","","SYN004BUFR","","","","","","","","","",""
"01007099999","2021-04-20T16:00:00","78.9166666","11.9333333","7.7","NY ALESUND, SV","FM-12","4","","19","26","","","-0.01","2","75","","29.42","29.39","","24","246","","3","","","","","","","","","","","","","","","","","","","","","","","","","","","","","","","","","","","","","","","","","","","","","","","","","","","","","","","","","","","","","","","","","","","","","","","","","","","","","","","","","","","","","","","","","","","SYN004BUFR","","","","","","","","","",""
"01007099999","2021-04-20T22:00:00","78.9166666","11.9333333","7.7","NY ALESUND, SV","FM-12","4","","18","24","","","-0.04","2","76","","29.47","29.44","","22","147","13","10","","","","","","","","","","","","","","","","","","","","","","","","","","","","","","","","","","","","","","","","","","","","","","","","","","","","","","","","","","","","","","","","","","","","","","","","","","","","","","","","","","","","","","","","","","","SYN004BUFR","","","","","","","","","",""
"01007099999","2021-04-21T10:00:00","78.9166666","11.9333333","7.7","NY ALESUND, SV","FM-12","4","","14","24","","","-0.04","2","65","","29.58","29.55","","21","123","13","11","","","","","","","","","","","","","","","","","","","","","","","","","","","","","","","","","","","","","","","","","","","","","","","","","","","","","","","","","","","","","","","","","","","","","","","","","","","","","","","","","","","","","","","","","","","SYN004BUFR","","","","","","","","","",""
"01007099999","2021-04-21T16:00:00","78.9166666","11.9333333","7.7","NY ALESUND, SV","FM-12","4","","13","22","","","-0.03","2","68","","29.64","29.61","","19","127","18","15","","","","","","","","","","","","","","","","","","","","","","","","","","","","","","","","","","","","","","","","","","","","","","","","","","","","","","","","","","","","","","","","","","","","","","","","","","","","","","","","","","","","","","","","","","","SYN004BUFR","","","","","","","","","",""
"01007099999","2021-04-21T22:00:00","78.9166666","11.9333333","7.7","NY ALESUND, SV","FM-12","4","","6","17","","","-0.05","2","62","","29.74","29.71","","14","133","","6","","","","","","","","","","","","","","","","","","","","","","","","","","","","","","","","","","","","","","","","","","","","","","","","","","","","","","","","","","","","","","","","","","","","","","","","","","","","","","","","","","","","","","","","","","","SYN004BUFR","","","","","","","","","",""
"01007099999","2021-04-22T01:00:00","78.9166666","11.9333333","7.7","NY ALESUND, SV","FM-12","4","","2","15","","","-0.04","2","56","","29.79","29.76","","12","205","16","2","","","","","","","","","","","","","","","","","","","","","","","","","","","","","","","","","","","","","","","","","","","","","","","","","","","","","","","","","","","","","","","","","","","","","","","","","","","","","","","","","","","","","","","","","","","SYN004BUFR","","","","","","","","","",""
"01007099999","2021-04-22T10:00:00","78.9166666","11.9333333","7.7","NY ALESUND, SV","FM-12","4","","4","18","","","-0.03","2","55","","29.87","29.84","","15","249","","5","","","","","","","","","","","","","","","","","","","","","","","","","","","","","","","","","","","","","","","","","","","","","","","","","","","","","","","","","","","","","","","","","","","","","","","","","","","","","","","","","","","","","","","","","","","SYN004BUFR","","","","","","","","","",""
"01007099999","2021-04-22T16:00:00","78.9166666","11.9333333","7.7","NY ALESUND, SV","FM-12","4","","8","18","","","-0.01","2","63","","29.91","29.88","","15","256","12","9","","","","","","","","","","","","","","","","","","","","","","","","","","","","","","","","","","","","","","","","","","","","","","","","","","","","","","","","","","","","","","","","","","","","","","","","","","","","","","","","","","","","","","","","","","","SYN004BUFR","","","","","","","","","",""
"01007099999","2021-04-22T22:00:00","78.9166666","11.9333333","7.7","NY ALESUND, SV","FM-12","4","","0","11","","","-0.03","2","62","","29.98","29.94","","9","143","12","8","","","","","","","","","","","","","","","","","","","","","","","","","","","","","","","","","","","","","","","","","","","","","","","","","","","","","","","","","","","","","","","","","","","","","","","","","","","","","","","","","","","","","","","","","","","SYN004BUFR","","","","","","","","","",""
"01007099999","2021-04-23T01:00:00","78.9166666","11.9333333","7.7","NY ALESUND, SV","FM-12","4","","1","11","","","-0.03","2","63","","30.00","29.97","","9","135","13","3","","","","","","","","","","","","","","","","","","","","","","","","","","","","","","","","","","","","","","","","","","","","","","","","","","","","","","","","","","","","","","","","","","","","","","","","","","","","","","","","","","","","","","","","","","","SYN004BUFR","","","","","","","","","",""
"01007099999","2021-04-23T04:00:00","78.9166666","11.9333333","7.7","NY ALESUND, SV","FM-12","4","","1","10","","","-0.04","2","67","","30.04","30.01","","8","260","","5","","","","","","","","","","","","","","","","","","","","","","","","","","","","","","","","","","","","","","","","","","","","","","","","","","","","","","","","","","","","","","","","","","","","","","","","","","","","","","","","","","","","","","","","","","","SYN004BUFR","","","","","","","","","",""
"01007099999","2021-04-23T10:00:00","78.9166666","11.9333333","7.7","NY ALESUND, SV","FM-12","4","","4","14","","","-0.04","2","63","","30.14","30.11","","12","255","","3","","","","","","","","","","","","","","","","","","","","","","","","","","","","","","","","","","","","","","","","","","","","","","","","","","","","","","","","","","","","","","","","","","","","","","","","","","","","","","","","","","","","","","","","","","","SYN004BUFR","","","","","","","","","",""
"01007099999","2021-04-23T14:00:00","78.9166666","11.9333333","7.7","NY ALESUND, SV","FM-12","4","","5","18","","","-0.03","3","56","","30.18","30.15","","15","185","","2","","","","","","","","","","","","","","","","","","","","","","","","","","","","","","","","","","","","","","","","","","","","","","","","","","","","","","","","","","","","","","","","","","","","","","","","","","","","","","","","","","","","","","","","","","","SYN004BUFR","","","","","","","","","",""
"01007099999","2021-04-23T16:00:00","78.9166666","11.9333333","7.7","NY ALESUND, SV","FM-12","4","","5","14","","","-0.03","2","67","","30.20","30.17","","12","238","","3","","","","","","","","","","","","","","","","","","","","","","","","","","","","","","","","","","","","","","","","","","","","","","","","","","","","","","","","","","","","","","","","","","","","","","","","","","","","","","","","","","","","","","","","","","","SYN004BUFR","","","","","","","","","",""
"01007099999","2021-04-23T22:00:00","78.9166666","11.9333333","7.7","NY ALESUND, SV","FM-12","4","","14","18","","","+0.01","7","83","","30.19","30.16","","17","360","","0","","","","","","","","","","","","","","","","","","","","","","","","","","","","","","","","","","","","","","","","","","","","","","","","","","","","","","","","","","","","","","","","","","","","","","","","","","","","","","","","","","","","","","","","","","","SYN004BUFR","","","","","","","","","",""
"01007099999","2021-04-24T01:00:00","78.9166666","11.9333333","7.7","NY ALESUND, SV","FM-12","4","","17","19","","","+0.01","7","91","","30.17","30.14","","18","136","","4","","","","","","","","","","","","","","","","","","","","","","","","","","","","","","","","","","","","","","","","","","","","","","","","","","","","","","","","","","","","","","","","","","","","","","","","","","","","","","","","","","","","","","","","","","","SYN004BUFR","","","","","","","","","",""
"01007099999","2021-04-24T04:00:00","78.9166666","11.9333333","7.7","NY ALESUND, SV","FM-12","4","","16","24","","","+0.02","7","74","","30.16","30.13","","22","214","17","6","","","","","","","","","","","","","","","","","","","","","","","","","","","","","","","","","","","","","","","","","","","","","","","","","","","","","","","","","","","","","","","","","","","","","","","","","","","","","","","","","","","","","","","","","","","SYN004BUFR","","","","","","","","","",""
"01007099999","2021-04-24T10:00:00","78.9166666","11.9333333","7.7","NY ALESUND, SV","FM-12","4","","17","25","","","+0.02","6","73","","30.12","30.09","","23","152","","5","","","","","","","","","","","","","","","","","","","","","","","","","","","","","","","","","","","","","","","","","","","","","","","","","","","","","","","","","","","","","","","","","","","","","","","","","","","","","","","","","","","","","","","","","","","SYN004BUFR","","","","","","","","","",""
"01007099999","2021-04-24T16:00:00","78.9166666","11.9333333","7.7","NY ALESUND, SV","FM-12","4","","21","27","","","-0.00","2","80","","30.12","30.09","","25","136","","5","","","","","","","","","","","","","","","","","","","","","","","","","","","","","","","","","","","","","","","","","","","","","","","","","","","","","","","","","","","","","","","","","","","","","","","","","","","","","","","","","","","","","","","","","","","SYN004BUFR","","","","","","","","","",""
"01007099999","2021-04-24T22:00:00","78.9166666","11.9333333","7.7","NY ALESUND, SV","FM-12","4","","21","24","","","-0.04","2","89","","30.18","30.15","","23","154","","4","","","","","","","","","","","","","","","","","","","","","","","","","","","","","","","","","","","","","","","","","","","","","","","","","","","","","","","","","","","","","","","","","","","","","","","","","","","","","","","","","","","","","","","","","","","SYN004BUFR","","","","","","","","","",""
"01007099999","2021-04-25T01:00:00","78.9166666","11.9333333","7.7","NY ALESUND, SV","FM-12","4","","18","24","","","-0.04","2","76","","30.22","30.19","","22","353","13","6","","","","","","","","","","","","","","","","","","","","","","","","","","","","","","","","","","","","","","","","","","","","","","","","","","","","","","","","","","","","","","","","","","","","","","","","","","","","","","","","","","","","","","","","","","","SYN004BUFR","","","","","","","","","",""
"01007099999","2021-04-25T10:00:00","78.9166666","11.9333333","7.7","NY ALESUND, SV","FM-12","4","","9","18","","","-0.01","2","68","","30.29","30.25","","16","300","17","13","","","","","","","","","","","","","","","","","","","","","","","","","","","","","","","","","","","","","","","","","","","","","","","","","","","","","","","","","","","","","","","","","","","","","","","","","","","","","","","","","","","","","","","","","","","SYN004BUFR","","","","","","","","","",""
"01007099999","2021-04-25T16:00:00","78.9166666","11.9333333","7.7","NY ALESUND, SV","FM-12","4","","8","19","","","-0.01","2","63","","30.31","30.28","","16","236","","3","","","","","","","","","","","","","","","","","","","","","","","","","","","","","","","","","","","","","","","","","","","","","","","","","","","","","","","","","","","","","","","","","","","","","","","","","","","","","","","","","","","","","","","","","","","SYN004BUFR","","","","","","","","","",""
"01007099999","2021-04-26T01:00:00","78.9166666","11.9333333","7.7","NY ALESUND, SV","FM-12","4","","0","11","","","-0.01","2","59","","30.35","30.32","","9","276","","3","","","","","","","","","","","","","","","","","","","","","","","","","","","","","","","","","","","","","","","","","","","","","","","","","","","","","","","","","","","","","","","","","","","","","","","","","","","","","","","","","","","","","","","","","","","SYN004BUFR","","","","","","","","","",""
"01007099999","2021-04-26T04:00:00","78.9166666","11.9333333","7.7","NY ALESUND, SV","FM-12","4","","6","15","","","+0.01","7","66","","30.35","30.32","","13","125","","5","","","","","","","","","","","","","","","","","","","","","","","","","","","","","","","","","","","","","","","","","","","","","","","","","","","","","","","","","","","","","","","","","","","","","","","","","","","","","","","","","","","","","","","","","","","SYN004BUFR","","","","","","","","","",""
"01007099999","2021-04-26T10:00:00","78.9166666","11.9333333","7.7","NY ALESUND, SV","FM-12","4","","13","21","","","+0.02","7","70","","30.30","30.27","","19","287","","7","","","","","","","","","","","","","","","","","","","","","","","","","","","","","","","","","","","","","","","","","","","","","","","","","","","","","","","","","","","","","","","","","","","","","","","","","","","","","","","","","","","","","","","","","","","SYN004BUFR","","","","","","","","","",""
"01007099999","2021-04-26T16:00:00","78.9166666","11.9333333","7.7","NY ALESUND, SV","FM-12","4","","16","21","","","+0.04","7","81","","30.22","30.19","","20","305","23","18","","","","","","","","","","","","","","","","","","","","","","","","","","","","","","","","","","","","","","","","","","","","","","","","","","","","","","","","","","","","","","","","","","","","","","","","","","","","","","","","","","","","","","","","","","","SYN004BUFR","","","","","","","","","",""
"01007099999","2021-04-26T22:00:00","78.9166666","11.9333333","7.7","NY ALESUND, SV","FM-12","4","","","21","","","+0.01","8","","","30.19","30.16","","","002","","5","","","","","","","","","","","","","","","","","","","","","","","","","","","","","","","","","","","","","","","","","","","","","","","","","","","","","","","","","","","","","","","","","","","","","","","","","","","","","","","","","","","","","","","","","","","SYN004BUFR","","","","","","","","","",""
"01007099999","2021-04-27T01:00:00","78.9166666","11.9333333","7.7","NY ALESUND, SV","FM-12","4","","","15","","","-0.00","3","","","30.19","30.16","","","132","18","11","","","","","","","","","","","","","","","","","","","","","","","","","","","","","","","","","","","","","","","","","","","","","","","","","","","","","","","","","","","","","","","","","","","","","","","","","","","","","","","","","","","","","","","","","","","SYN004BUFR","","","","","","","","","",""
"01007099999","2021-04-27T04:00:00","78.9166666","11.9333333","7.7","NY ALESUND, SV","FM-12","4","","","14","","","-0.01","2","","","30.21","30.18","","","133","17","12","","","","","","","","","","","","","","","","","","","","","","","","","","","","","","","","","","","","","","","","","","","","","","","","","","","","","","","","","","","","","","","","","","","","","","","","","","","","","","","","","","","","","","","","","","","SYN004BUFR","","","","","","","","","",""
"01007099999","2021-04-27T16:00:00","78.9166666","11.9333333","7.7","NY ALESUND, SV","FM-12","4","","9","18","","","+0.02","7","68","","30.19","30.16","","16","294","12","10","","","","","","","","","","","","","","","","","","","","","","","","","","","","","","","","","","","","","","","","","","","","","","","","","","","","","","","","","","","","","","","","","","","","","","","","","","","","","","","","","","","","","","","","","","","SYN004BUFR","","","","","","","","","",""
"01007099999","2021-04-27T22:00:00","78.9166666","11.9333333","7.7","NY ALESUND, SV","FM-12","4","","9","18","","","+0.01","7","67","","30.16","30.14","","16","346","15","5","","","","","","","","","","","","","","","","","","","","","","","","","","","","","","","","","","","","","","","","","","","","","","","","","","","","","","","","","","","","","","","","","","","","","","","","","","","","","","","","","","","","","","","","","","","SYN004BUFR","","","","","","","","","",""
"01007099999","2021-04-28T01:00:00","78.9166666","11.9333333","7.7","NY ALESUND, SV","FM-12","4","","10","18","","","+0.02","7","72","","30.14","30.11","","16","321","15","9","","","","","","","","","","","","","","","","","","","","","","","","","","","","","","","","","","","","","","","","","","","","","","","","","","","","","","","","","","","","","","","","","","","","","","","","","","","","","","","","","","","","","","","","","","","SYN004BUFR","","","","","","","","","",""
"01007099999","2021-04-28T04:00:00","78.9166666","11.9333333","7.7","NY ALESUND, SV","FM-12","4","","10","18","","","+0.03","8","71","","30.11","30.09","","16","314","16","10","","","","","","","","","","","","","","","","","","","","","","","","","","","","","","","","","","","","","","","","","","","","","","","","","","","","","","","","","","","","","","","","","","","","","","","","","","","","","","","","","","","","","","","","","","","SYN004BUFR","","","","","","","","","",""
"01007099999","2021-04-28T10:00:00","78.9166666","11.9333333","7.7","NY ALESUND, SV","FM-12","4","","11","21","","","+0.02","8","67","","30.06","30.03","","18","321","19","14","","","","","","","","","","","","","","","","","","","","","","","","","","","","","","","","","","","","","","","","","","","","","","","","","","","","","","","","","","","","","","","","","","","","","","","","","","","","","","","","","","","","","","","","","","","SYN004BUFR","","","","","","","","","",""
"01007099999","2021-04-28T16:00:00","78.9166666","11.9333333","7.7","NY ALESUND, SV","FM-12","4","","16","21","","","+0.04","8","80","","30.00","29.97","","20","304","22","19","","","","","","","","","","","","","","","","","","","","","","","","","","","","","","","","","","","","","","","","","","","","","","","","","","","","","","","","","","","","","","","","","","","","","","","","","","","","","","","","","","","","","","","","","","","SYN004BUFR","","","","","","","","","",""
"01007099999","2021-04-28T22:00:00","78.9166666","11.9333333","7.7","NY ALESUND, SV","FM-12","4","","14","18","","","+0.04","7","84","","29.91","29.88","","17","299","23","19","","","","","","","","","","","","","","","","","","","","","","","","","","","","","","","","","","","","","","","","","","","","","","","","","","","","","","","","","","","","","","","","","","","","","","","","","","","","","","","","","","","","","","","","","","","SYN004BUFR","","","","","","","","","",""
"01007099999","2021-04-29T01:00:00","78.9166666","11.9333333","7.7","NY ALESUND, SV","FM-12","4","","15","19","","","+0.05","7","83","","29.87","29.84","","18","309","24","16","","","","","","","","","","","","","","","","","","","","","","","","","","","","","","","","","","","","","","","","","","","","","","","","","","","","","","","","","","","","","","","","","","","","","","","","","","","","","","","","","","","","","","","","","","","SYN004BUFR","","","","","","","","","",""
"01007099999","2021-04-29T04:00:00","78.9166666","11.9333333","7.7","NY ALESUND, SV","FM-12","4","","7","18","","","-0.01","3","64","","29.88","29.85","","15","133","24","17","","","","","","","","","","","","","","","","","","","","","","","","","","","","","","","","","","","","","","","","","","","","","","","","","","","","","","","","","","","","","","","","","","","","","","","","","","","","","","","","","","","","","","","","","","","SYN004BUFR","","","","","","","","","",""
"01007099999","2021-04-29T10:00:00","78.9166666","11.9333333","7.7","NY ALESUND, SV","FM-12","4","","6","21","","","-0.06","2","52","","30.01","29.98","","17","170","11","4","","","","","","","","","","","","","","","","","","","","","","","","","","","","","","","","","","","","","","","","","","","","","","","","","","","","","","","","","","","","","","","","","","","","","","","","","","","","","","","","","","","","","","","","","","","SYN004BUFR","","","","","","","","","",""
"01007099999","2021-04-29T16:00:00","78.9166666","11.9333333","7.7","NY ALESUND, SV","FM-12","4","","9","21","","","-0.02","2","60","","30.06","30.03","","18","340","15","10","","","","","","","","","","","","","","","","","","","","","","","","","","","","","","","","","","","","","","","","","","","","","","","","","","","","","","","","","","","","","","","","","","","","","","","","","","","","","","","","","","","","","","","","","","","SYN004BUFR","","","","","","","","","",""
"01007099999","2021-04-29T21:00:00","78.9166666","11.9333333","7.7","NY ALESUND, SV","FM-12","4","","8","20","","","-0.04","2","59","","30.11","30.08","","17","356","13","8","","","","","","","","","","","","","","","","","","","","","","","","","","","","","","","","","","","","","","","","","","","","","","","","","","","","","","","","","","","","","","","","","","","","","","","","","","","","","","","","","","","","","","","","","","","SYN004BUFR","","","","","","","","","",""
"01007099999","2021-04-30T04:00:00","78.9166666","11.9333333","7.7","NY ALESUND, SV","FM-12","4","","10","21","","","+0.02","8","63","","30.09","30.06","","18","328","19","15","","","","","","","","","","","","","","","","","","","","","","","","","","","","","","","","","","","","","","","","","","","","","","","","","","","","","","","","","","","","","","","","","","","","","","","","","","","","","","","","","","","","","","","","","","","SYN004BUFR","","","","","","","","","",""
"01007099999","2021-04-30T10:00:00","78.9166666","11.9333333","7.7","NY ALESUND, SV","FM-12","4","","14","22","","","+0.02","7","73","","30.04","30.01","","20","299","17","14","","","","","","","","","","","","","","","","","","","","","","","","","","","","","","","","","","","","","","","","","","","","","","","","","","","","","","","","","","","","","","","","","","","","","","","","","","","","","","","","","","","","","","","","","","","SYN004BUFR","","","","","","","","","",""
"01007099999","2021-04-30T22:00:00","78.9166666","11.9333333","7.7","NY ALESUND, SV","FM-12","4","","2","14","","","-0.04","1","58","","30.05","30.02","","11","149","11","8","","","","","","","","","","","","","","","","","","","","","","","","","","","","","","","","","","","","","","","","","","","","","","","","","","","","","","","","","","","","","","","","","","","","","","","","","","","","","","","","","","","","","","","","","","","SYN004BUFR","","","","","","","","","",""
"01007099999","2021-05-01T01:00:00","78.9166666","11.9333333","7.7","NY ALESUND, SV","FM-12","4","","2","13","","","-0.05","2","62","","30.11","30.08","","11","151","11","7","","","","","","","","","","","","","","","","","","","","","","","","","","","","","","","","","","","","","","","","","","","","","","","","","","","","","","","","","","","","","","","","","","","","","","","","","","","","","","","","","","","","","","","","","","","SYN004BUFR","","","","","","","","","",""
"01007099999","2021-05-01T04:00:00","78.9166666","11.9333333","7.7","NY ALESUND, SV","FM-12","4","","4","15","","","-0.04","1","63","","30.15","30.12","","13","142","","6","","","","","","","","","","","","","","","","","","","","","","","","","","","","","","","","","","","","","","","","","","","","","","","","","","","","","","","","","","","","","","","","","","","","","","","","","","","","","","","","","","","","","","","","","","","SYN004BUFR","","","","","","","","","",""
"01007099999","2021-05-01T10:00:00","78.9166666","11.9333333","7.7","NY ALESUND, SV","FM-12","4","","7","19","","","-0.02","2","61","","30.19","30.16","","16","133","14","10","","","","","","","","","","","","","","","","","","","","","","","","","","","","","","","","","","","","","","","","","","","","","","","","","","","","","","","","","","","","","","","","","","","","","","","","","","","","","","","","","","","","","","","","","","","SYN004BUFR","","","","","","","","","",""
"01007099999","2021-05-01T22:00:00","78.9166666","11.9333333","7.7","NY ALESUND, SV","FM-12","4","","3","15","","","-0.02","2","59","","30.28","30.24","","12","278","","3","","","","","","","","","","","","","","","","","","","","","","","","","","","","","","","","","","","","","","","","","","","","","","","","","","","","","","","","","","","","","","","","","","","","","","","","","","","","","","","","","","","","","","","","","","","SYN004BUFR","","","","","","","","","",""
"01007099999","2021-05-02T01:00:00","78.9166666","11.9333333","7.7","NY ALESUND, SV","FM-12","4","","5","18","","","-0.01","2","58","","30.29","30.26","","15","120","12","3","","","","","","","","","","","","","","","","","","","","","","","","","","","","","","","","","","","","","","","","","","","","","","","","","","","","","","","","","","","","","","","","","","","","","","","","","","","","","","","","","","","","","","","","","","","SYN004BUFR","","","","","","","","","",""
"01007099999","2021-05-02T04:00:00","78.9166666","11.9333333","7.7","NY ALESUND, SV","FM-12","4","","8","19","","","-0.01","2","60","","30.29","30.26","","16","185","","3","","","","","","","","","","","","","","","","","","","","","","","","","","","","","","","","","","","","","","","","","","","","","","","","","","","","","","","","","","","","","","","","","","","","","","","","","","","","","","","","","","","","","","","","","","","SYN004BUFR","","","","","","","","","",""
"01007099999","2021-05-02T10:00:00","78.9166666","11.9333333","7.7","NY ALESUND, SV","FM-12","4","","9","23","","","-0.01","2","57","","30.31","30.28","","19","191","","2","","","","","","","","","","","","","","","","","","","","","","","","","","","","","","","","","","","","","","","","","","","","","","","","","","","","","","","","","","","","","","","","","","","","","","","","","","","","","","","","","","","","","","","","","","","SYN004BUFR","","","","","","","","","",""
"01007099999","2021-05-02T22:00:00","78.9166666","11.9333333","7.7","NY ALESUND, SV","FM-12","4","","9","20","","","-0.01","2","64","","30.33","30.30","","17","163","","2","","","","","","","","","","","","","","","","","","","","","","","","","","","","","","","","","","","","","","","","","","","","","","","","","","","","","","","","","","","","","","","","","","","","","","","","","","","","","","","","","","","","","","","","","","","SYN004BUFR","","","","","","","","","",""
"01007099999","2021-05-03T04:00:00","78.9166666","11.9333333","7.7","NY ALESUND, SV","FM-12","4","","7","17","","","-0.01","2","65","","30.35","30.32","","15","171","","2","","","","","","","","","","","","","","","","","","","","","","","","","","","","","","","","","","","","","","","","","","","","","","","","","","","","","","","","","","","","","","","","","","","","","","","","","","","","","","","","","","","","","","","","","","","SYN004BUFR","","","","","","","","","",""
"01007099999","2021-05-03T08:00:00","78.9166666","11.9333333","7.7","NY ALESUND, SV","FM-12","4","","11","21","","","-0.01","2","64","","30.35","30.32","","18","131","","6","","","","","","","","","","","","","","","","","","","","","","","","","","","","","","","","","","","","","","","","","","","","","","","","","","","","","","","","","","","","","","","","","","","","","","","","","","","","","","","","","","","","","","","","","","","SYN004BUFR","","","","","","","","","",""
"01007099999","2021-05-03T09:00:00","78.9166666","11.9333333","7.7","NY ALESUND, SV","FM-12","4","","","23","","","-0.01","2","","","30.35","30.32","","","159","","6","","","","","","","","","","","","","","","","","","","","","","","","","","","","","","","","","","","","","","","","","","","","","","","","","","","","","","","","","","","","","","","","","","","","","","","","","","","","","","","","","","","","","","","","","","","SYN004BUFR","","","","","","","","","",""
"01007099999","2021-05-03T10:00:00","78.9166666","11.9333333","7.7","NY ALESUND, SV","FM-12","4","","","23","","","-0.00","2","","","30.36","30.33","","","153","","5","","","","","","","","","","","","","","","","","","","","","","","","","","","","","","","","","","","","","","","","","","","","","","","","","","","","","","","","","","","","","","","","","","","","","","","","","","","","","","","","","","","","","","","","","","","SYN004BUFR","","","","","","","","","",""
"01007099999","2021-05-03T16:00:00","78.9166666","11.9333333","7.7","NY ALESUND, SV","FM-12","4","","","27","","","+0.01","7","","","30.35","30.32","","","360","","0","","","","","","","","","","","","","","","","","","","","","","","","","","","","","","","","","","","","","","","","","","","","","","","","","","","","","","","","","","","","","","","","","","","","","","","","","","","","","","","","","","","","","","","","","","","SYN004BUFR","","","","","","","","","",""
"01007099999","2021-05-03T22:00:00","78.9166666","11.9333333","7.7","NY ALESUND, SV","FM-12","4","","","25","","","+0.00","7","","","30.34","30.31","","","360","","0","","","","","","","","","","","","","","","","","","","","","","","","","","","","","","","","","","","","","","","","","","","","","","","","","","","","","","","","","","","","","","","","","","","","","","","","","","","","","","","","","","","","","","","","","","","SYN004BUFR","","","","","","","","","",""
"01007099999","2021-05-04T01:00:00","78.9166666","11.9333333","7.7","NY ALESUND, SV","FM-12","4","","","25","","","+0.01","7","","","30.33","30.30","","","167","","1","","","","","","","","","","","","","","","","","","","","","","","","","","","","","","","","","","","","","","","","","","","","","","","","","","","","","","","","","","","","","","","","","","","","","","","","","","","","","","","","","","","","","","","","","","","SYN004BUFR","","","","","","","","","",""
"01007099999","2021-05-04T10:00:00","78.9166666","11.9333333","7.7","NY ALESUND, SV","FM-12","4","","","27","","","+0.01","7","","","30.27","30.25","","","141","","3","","","","","","","","","","","","","","","","","","","","","","","","","","","","","","","","","","","","","","","","","","","","","","","","","","","","","","","","","","","","","","","","","","","","","","","","","","","","","","","","","","","","","","","","","","","SYN004BUFR","","","","","","","","","",""
"01007099999","2021-05-05T01:00:00","78.9166666","11.9333333","7.7","NY ALESUND, SV","FM-12","4","","","24","","","+0.01","7","","","30.20","30.17","","","128","13","11","","","","","","","","","","","","","","","","","","","","","","","","","","","","","","","","","","","","","","","","","","","","","","","","","","","","","","","","","","","","","","","","","","","","","","","","","","","","","","","","","","","","","","","","","","","SYN004BUFR","","","","","","","","","",""
"01007099999","2021-05-05T04:00:00","78.9166666","11.9333333","7.7","NY ALESUND, SV","FM-12","4","","","23","","","+0.01","7","","","30.19","30.16","","","136","11","9","","","","","","","","","","","","","","","","","","","","","","","","","","","","","","","","","","","","","","","","","","","","","","","","","","","","","","","","","","","","","","","","","","","","","","","","","","","","","","","","","","","","","","","","","","","SYN004BUFR","","","","","","","","","",""
"01007099999","2021-05-05T10:00:00","78.9166666","11.9333333","7.7","NY ALESUND, SV","FM-12","4","","","23","","","-0.01","2","","","30.19","30.16","","","126","13","11","","","","","","","","","","","","","","","","","","","","","","","","","","","","","","","","","","","","","","","","","","","","","","","","","","","","","","","","","","","","","","","","","","","","","","","","","","","","","","","","","","","","","","","","","","","SYN004BUFR","","","","","","","","","",""
"01007099999","2021-05-05T16:00:00","78.9166666","11.9333333","7.7","NY ALESUND, SV","FM-12","4","","","25","","","+0.01","7","","","30.19","30.16","","","154","","3","","","","","","","","","","","","","","","","","","","","","","","","","","","","","","","","","","","","","","","","","","","","","","","","","","","","","","","","","","","","","","","","","","","","","","","","","","","","","","","","","","","","","","","","","","","SYN004BUFR","","","","","","","","","",""
"01007099999","2021-05-05T22:00:00","78.9166666","11.9333333","7.7","NY ALESUND, SV","FM-12","4","","","22","","","+0.00","7","","","30.18","30.15","","","136","","5","","","","","","","","","","","","","","","","","","","","","","","","","","","","","","","","","","","","","","","","","","","","","","","","","","","","","","","","","","","","","","","","","","","","","","","","","","","","","","","","","","","","","","","","","","","SYN004BUFR","","","","","","","","","",""
"01007099999","2021-05-06T01:00:00","78.9166666","11.9333333","7.7","NY ALESUND, SV","FM-12","4","","","22","","","+0.01","7","","","30.17","30.14","","","153","12","4","","","","","","","","","","","","","","","","","","","","","","","","","","","","","","","","","","","","","","","","","","","","","","","","","","","","","","","","","","","","","","","","","","","","","","","","","","","","","","","","","","","","","","","","","","","SYN004BUFR","","","","","","","","","",""
"01007099999","2021-05-06T07:00:00","78.9166666","11.9333333","7.7","NY ALESUND, SV","FM-12","4","","","","","","0.00","4","","OVC:08 20","30.16","30.13","18.64","","143","","4","","","","","","","","","","","","","","","","","","","","","","","","","","","","","","","","","","","","","","","","","","","","","","","","","","","","","","","","","","","","","","","","","","","","","","","","","","","","","","","","","","","","","","","","","","","SYN004BUFR","","","","","","","","","",""
"01007099999","2021-05-06T10:00:00","78.9166666","11.9333333","7.7","NY ALESUND, SV","FM-12","4","","","25","","","-0.01","2","","","30.17","30.14","","","132","","3","","","","","","","","","","","","","","","","","","","","","","","","","","","","","","","","","","","","","","","","","","","","","","","","","","","","","","","","","","","","","","","","","","","","","","","","","","","","","","","","","","","","","","","","","","","SYN004BUFR","","","","","","","","","",""
"01007099999","2021-05-06T16:00:00","78.9166666","11.9333333","7.7","NY ALESUND, SV","FM-12","4","","","","","","-0.00","2","","","","30.16","","","263","11","9","","","","","","","","","","","","","","","","","","","","","","","","","","","","","","","","","","","","","","","","","","","","","","","","","","","","","","","","","","","","","","","","","","","","","","","","","","","","","","","","","","","","","","","","","","","SYN004BUFR","","","","","","","","","",""
"01007099999","2021-05-06T22:00:00","78.9166666","11.9333333","7.7","NY ALESUND, SV","FM-12","4","","","24","","","-0.01","2","","","30.20","30.17","","","161","","5","","","","","","","","","","","","","","","","","","","","","","","","","","","","","","","","","","","","","","","","","","","","","","","","","","","","","","","","","","","","","","","","","","","","","","","","","","","","","","","","","","","","","","","","","","","SYN004BUFR","","","","","","","","","",""
"01007099999","2021-05-07T01:00:00","78.9166666","11.9333333","7.7","NY ALESUND, SV","FM-12","4","","","24","","","+0.00","7","","","30.20","30.17","","","159","","4","","","","","","","","","","","","","","","","","","","","","","","","","","","","","","","","","","","","","","","","","","","","","","","","","","","","","","","","","","","","","","","","","","","","","","","","","","","","","","","","","","","","","","","","","","","SYN004BUFR","","","","","","","","","",""
"01007099999","2021-05-07T04:00:00","78.9166666","11.9333333","7.7","NY ALESUND, SV","FM-12","4","","","","","","0.00","4","","","","30.17","","","148","","4","","","","","","","","","","","","","","","","","","","","","","","","","","","","","","","","","","","","","","","","","","","","","","","","","","","","","","","","","","","","","","","","","","","","","","","","","","","","","","","","","","","","","","","","","","","SYN004BUFR","","","","","","","","","",""
"01007099999","2021-05-07T07:00:00","78.9166666","11.9333333","7.7","NY ALESUND, SV","FM-12","4","","","23","","","-0.01","2","","OVC:08 20","30.20","30.17","15.53","","147","","7","","","","","","","","","","","","","","","","","","","","","","","","","","","","","","","","","","","","","","","","","","","","","","","","","","","","","","","","","","","","","","","","","","","","","","","","","","","","","","","","","","","","","","","","","","","SYN004BUFR","","","","","","","","","",""
"01007099999","2021-05-07T08:00:00","78.9166666","11.9333333","7.7","NY ALESUND, SV","FM-12","4","","","23","","","-0.01","2","","","30.21","30.18","","","149","","7","","","","","","","","","","","","","","","","","","","","","","","","","","","","","","","","","","","","","","","","","","","","","","","","","","","","","","","","","","","","","","","","","","","","","","","","","","","","","","","","","","","","","","","","","","","SYN004BUFR","","","","","","","","","",""
"01007099999","2021-05-07T10:00:00","78.9166666","11.9333333","7.7","NY ALESUND, SV","FM-12","4","","","24","","","-0.01","2","","","30.21","30.18","","","140","","7","","","","","","","","","","","","","","","","","","","","","","","","","","","","","","","","","","","","","","","","","","","","","","","","","","","","","","","","","","","","","","","","","","","","","","","","","","","","","","","","","","","","","","","","","","","SYN004BUFR","","","","","","","","","",""
"01007099999","2021-05-07T16:00:00","78.9166666","11.9333333","7.7","NY ALESUND, SV","FM-12","4","","","","","","+0.01","7","","","","30.19","","","158","","5","","","","","","","","","","","","","","","","","","","","","","","","","","","","","","","","","","","","","","","","","","","","","","","","","","","","","","","","","","","","","","","","","","","","","","","","","","","","","","","","","","","","","","","","","","","SYN004BUFR","","","","","","","","","",""
"01007099999","2021-05-07T22:00:00","78.9166666","11.9333333","7.7","NY ALESUND, SV","FM-12","4","","","","","","0.00","4","","","","30.18","","","141","","4","","","","","","","","","","","","","","","","","","","","","","","","","","","","","","","","","","","","","","","","","","","","","","","","","","","","","","","","","","","","","","","","","","","","","","","","","","","","","","","","","","","","","","","","","","","SYN004BUFR","","","","","","","","","",""
"01007099999","2021-05-08T01:00:00","78.9166666","11.9333333","7.7","NY ALESUND, SV","FM-12","4","","","","","","+0.01","7","","","","30.17","","","151","","2","","","","","","","","","","","","","","","","","","","","","","","","","","","","","","","","","","","","","","","","","","","","","","","","","","","","","","","","","","","","","","","","","","","","","","","","","","","","","","","","","","","","","","","","","","","SYN004BUFR","","","","","","","","","",""
"01007099999","2021-05-08T04:00:00","78.9166666","11.9333333","7.7","NY ALESUND, SV","FM-12","4","","","","","","+0.01","7","","","","30.15","","","165","","3","","","","","","","","","","","","","","","","","","","","","","","","","","","","","","","","","","","","","","","","","","","","","","","","","","","","","","","","","","","","","","","","","","","","","","","","","","","","","","","","","","","","","","","","","","","SYN004BUFR","","","","","","","","","",""
"01007099999","2021-05-08T10:00:00","78.9166666","11.9333333","7.7","NY ALESUND, SV","FM-12","4","","","","","","+0.01","7","","","30.16","30.13","","","166","","2","","","","","","","","","","","","","","","","","","","","","","","","","","","","","","","","","","","","","","","","","","","","","","","","","","","","","","","","","","","","","","","","","","","","","","","","","","","","","","","","","","","","","","","","","","","SYN004BUFR","","","","","","","","","",""
"01007099999","2021-05-08T16:00:00","78.9166666","11.9333333","7.7","NY ALESUND, SV","FM-12","4","","","","","","+0.02","7","","","","30.10","","","248","","3","","","","","","","","","","","","","","","","","","","","","","","","","","","","","","","","","","","","","","","","","","","","","","","","","","","","","","","","","","","","","","","","","","","","","","","","","","","","","","","","","","","","","","","","","","","SYN004BUFR","","","","","","","","","",""
"01007099999","2021-05-08T22:00:00","78.9166666","11.9333333","7.7","NY ALESUND, SV","FM-12","4","","","","","","+0.02","7","","","30.09","30.06","","","360","","0","","","","","","","","","","","","","","","","","","","","","","","","","","","","","","","","","","","","","","","","","","","","","","","","","","","","","","","","","","","","","","","","","","","","","","","","","","","","","","","","","","","","","","","","","","","SYN004BUFR","","","","","","","","","",""
"01007099999","2021-05-09T01:00:00","78.9166666","11.9333333","7.7","NY ALESUND, SV","FM-12","4","","","23","","","+0.02","7","","","30.07","30.04","","","360","","0","","","","","","","","","","","","","","","","","","","","","","","","","","","","","","","","","","","","","","","","","","","","","","","","","","","","","","","","","","","","","","","","","","","","","","","","","","","","","","","","","","","","","","","","","","","SYN004BUFR","","","","","","","","","",""
"01007099999","2021-05-09T04:00:00","78.9166666","11.9333333","7.7","NY ALESUND, SV","FM-12","4","","","21","","","+0.02","7","","","30.05","30.02","","","135","","5","","","","","","","","","","","","","","","","","","","","","","","","","","","","","","","","","","","","","","","","","","","","","","","","","","","","","","","","","","","","","","","","","","","","","","","","","","","","","","","","","","","","","","","","","","","SYN004BUFR","","","","","","","","","",""
"01007099999","2021-05-09T10:00:00","78.9166666","11.9333333","7.7","NY ALESUND, SV","FM-12","4","","","","","","+0.02","7","","","","29.98","","","162","","4","","","","","","","","","","","","","","","","","","","","","","","","","","","","","","","","","","","","","","","","","","","","","","","","","","","","","","","","","","","","","","","","","","","","","","","","","","","","","","","","","","","","","","","","","","","SYN004BUFR","","","","","","","","","",""
"01007099999","2021-05-09T16:00:00","78.9166666","11.9333333","7.7","NY ALESUND, SV","FM-12","4","","","27","","","+0.03","7","","","29.96","29.93","","","234","","3","","","","","","","","","","","","","","","","","","","","","","","","","","","","","","","","","","","","","","","","","","","","","","","","","","","","","","","","","","","","","","","","","","","","","","","","","","","","","","","","","","","","","","","","","","","SYN004BUFR","","","","","","","","","",""
"01007099999","2021-05-09T22:00:00","78.9166666","11.9333333","7.7","NY ALESUND, SV","FM-12","4","","","","","","+0.03","7","","","29.91","29.88","","","244","","4","","","","","","","","","","","","","","","","","","","","","","","","","","","","","","","","","","","","","","","","","","","","","","","","","","","","","","","","","","","","","","","","","","","","","","","","","","","","","","","","","","","","","","","","","","","SYN004BUFR","","","","","","","","","",""
"01007099999","2021-05-10T04:00:00","78.9166666","11.9333333","7.7","NY ALESUND, SV","FM-12","4","","","","","","+0.05","7","","","29.83","29.80","","","266","","7","","","","","","","","","","","","","","","","","","","","","","","","","","","","","","","","","","","","","","","","","","","","","","","","","","","","","","","","","","","","","","","","","","","","","","","","","","","","","","","","","","","","","","","","","","","SYN004BUFR","","","","","","","","","",""
"01007099999","2021-05-10T10:00:00","78.9166666","11.9333333","7.7","NY ALESUND, SV","FM-12","4","","","","","","+0.05","7","","","29.73","29.71","","","243","","1","","","","","","","","","","","","","","","","","","","","","","","","","","","","","","","","","","","","","","","","","","","","","","","","","","","","","","","","","","","","","","","","","","","","","","","","","","","","","","","","","","","","","","","","","","","SYN004BUFR","","","","","","","","","",""
"01007099999","2021-05-10T16:00:00","78.9166666","11.9333333","7.7","NY ALESUND, SV","FM-12","4","","","","","","+0.02","7","","","","29.64","","","121","12","8","","","","","","","","","","","","","","","","","","","","","","","","","","","","","","","","","","","","","","","","","","","","","","","","","","","","","","","","","","","","","","","","","","","","","","","","","","","","","","","","","","","","","","","","","","","SYN004BUFR","","","","","","","","","",""
"01007099999","2021-05-11T01:00:00","78.9166666","11.9333333","7.7","NY ALESUND, SV","FM-12","4","","","","","","0.00","4","","","","29.62","","","360","","0","","","","","","","","","","","","","","","","","","","","","","","","","","","","","","","","","","","","","","","","","","","","","","","","","","","","","","","","","","","","","","","","","","","","","","","","","","","","","","","","","","","","","","","","","","","SYN004BUFR","","","","","","","","","",""
"01007099999","2021-05-11T04:00:00","78.9166666","11.9333333","7.7","NY ALESUND, SV","FM-12","4","","","","","","-0.01","2","","","","29.62","","","115","","5","","","","","","","","","","","","","","","","","","","","","","","","","","","","","","","","","","","","","","","","","","","","","","","","","","","","","","","","","","","","","","","","","","","","","","","","","","","","","","","","","","","","","","","","","","","SYN004BUFR","","","","","","","","","",""
"01007099999","2021-05-11T05:00:00","78.9166666","11.9333333","7.7","NY ALESUND, SV","FM-12","4","","","","","","0.00","4","","","","29.62","","","","","5","","","","","","","","","","","","","","","","","","","","","","","","","","","","","","","","","","","","","","","","","","","","","","","","","","","","","","","","","","","","","","","","","","","","","","","","","","","","","","","","","","","","","","","","","","","SYN004BUFR","","","","","","","","","",""
"01007099999","2021-05-11T10:00:00","78.9166666","11.9333333","7.7","NY ALESUND, SV","FM-12","4","","","","","","-0.02","2","","","","29.65","","","127","14","10","","","","","","","","","","","","","","","","","","","","","","","","","","","","","","","","","","","","","","","","","","","","","","","","","","","","","","","","","","","","","","","","","","","","","","","","","","","","","","","","","","","","","","","","","","","SYN004BUFR","","","","","","","","","",""
"01007099999","2021-05-11T16:00:00","78.9166666","11.9333333","7.7","NY ALESUND, SV","FM-12","4","","","","","","-0.03","2","","","","29.70","","","315","15","13","","","","","","","","","","","","","","","","","","","","","","","","","","","","","","","","","","","","","","","","","","","","","","","","","","","","","","","","","","","","","","","","","","","","","","","","","","","","","","","","","","","","","","","","","","","SYN004BUFR","","","","","","","","","",""
"01007099999","2021-05-12T01:00:00","78.9166666","11.9333333","7.7","NY ALESUND, SV","FM-12","4","","","","","","-0.05","2","","","","29.85","","","324","22","16","","","","","","","","","","","","","","","","","","","","","","","","","","","","","","","","","","","","","","","","","","","","","","","","","","","","","","","","","","","","","","","","","","","","","","","","","","","","","","","","","","","","","","","","","","","SYN004BUFR","","","","","","","","","",""
"01007099999","2021-05-12T04:00:00","78.9166666","11.9333333","7.7","NY ALESUND, SV","FM-12","4","","","","","","-0.04","2","","","","29.89","","","295","17","16","","","","","","","","","","","","","","","","","","","","","","","","","","","","","","","","","","","","","","","","","","","","","","","","","","","","","","","","","","","","","","","","","","","","","","","","","","","","","","","","","","","","","","","","","","","SYN004BUFR","","","","","","","","","",""
"01007099999","2021-05-12T07:00:00","78.9166666","11.9333333","7.7","NY ALESUND, SV","FM-12","4","","","","","","-0.04","2","","SCT:03 49","","29.93","46.60","","300","19","14","","","","","","","","","","","","","","","","","","","","","","","","","","","","","","","","","","","","","","","","","","","","","","","","","","","","","","","","","","","","","","","","","","","","","","","","","","","","","","","","","","","","","","","","","","","SYN004BUFR","","","","","","","","","",""
"01007099999","2021-05-12T10:00:00","78.9166666","11.9333333","7.7","NY ALESUND, SV","FM-12","4","","","","","","-0.05","2","","","","29.98","","","305","17","15","","","","","","","","","","","","","","","","","","","","","","","","","","","","","","","","","","","","","","","","","","","","","","","","","","","","","","","","","","","","","","","","","","","","","","","","","","","","","","","","","","","","","","","","","","","SYN004BUFR","","","","","","","","","",""
"01007099999","2021-05-12T16:00:00","78.9166666","11.9333333","7.7","NY ALESUND, SV","FM-12","4","","","","","","-0.03","2","","","","30.06","","","298","18","15","","","","","","","","","","","","","","","","","","","","","","","","","","","","","","","","","","","","","","","","","","","","","","","","","","","","","","","","","","","","","","","","","","","","","","","","","","","","","","","","","","","","","","","","","","","SYN004BUFR","","","","","","","","","",""
"01007099999","2021-05-12T22:00:00","78.9166666","11.9333333","7.7","NY ALESUND, SV","FM-12","4","","","","","","-0.04","3","","","","30.14","","","304","16","13","","","","","","","","","","","","","","","","","","","","","","","","","","","","","","","","","","","","","","","","","","","","","","","","","","","","","","","","","","","","","","","","","","","","","","","","","","","","","","","","","","","","","","","","","","","SYN004BUFR","","","","","","","","","",""
"01007099999","2021-05-13T01:00:00","78.9166666","11.9333333","7.7","NY ALESUND, SV","FM-12","4","","","","","","-0.03","2","","","","30.17","","","263","15","6","","","","","","","","","","","","","","","","","","","","","","","","","","","","","","","","","","","","","","","","","","","","","","","","","","","","","","","","","","","","","","","","","","","","","","","","","","","","","","","","","","","","","","","","","","","SYN004BUFR","","","","","","","","","",""
"01007099999","2021-05-13T16:00:00","78.9166666","11.9333333","7.7","NY ALESUND, SV","FM-12","4","","","","","","+0.02","7","","","","30.17","","","154","","5","","","","","","","","","","","","","","","","","","","","","","","","","","","","","","","","","","","","","","","","","","","","","","","","","","","","","","","","","","","","","","","","","","","","","","","","","","","","","","","","","","","","","","","","","","","SYN004BUFR","","","","","","","","","",""
"01007099999","2021-05-13T22:00:00","78.9166666","11.9333333","7.7","NY ALESUND, SV","FM-12","4","","","","","","+0.01","7","","","","30.13","","","227","","7","","","","","","","","","","","","","","","","","","","","","","","","","","","","","","","","","","","","","","","","","","","","","","","","","","","","","","","","","","","","","","","","","","","","","","","","","","","","","","","","","","","","","","","","","","","SYN004BUFR","","","","","","","","","",""
"01007099999","2021-05-14T01:00:00","78.9166666","11.9333333","7.7","NY ALESUND, SV","FM-12","4","","","","","","+0.02","8","","","","30.11","","","143","","3","","","","","","","","","","","","","","","","","","","","","","","","","","","","","","","","","","","","","","","","","","","","","","","","","","","","","","","","","","","","","","","","","","","","","","","","","","","","","","","","","","","","","","","","","","","SYN004BUFR","","","","","","","","","",""
"01007099999","2021-05-14T04:00:00","78.9166666","11.9333333","7.7","NY ALESUND, SV","FM-12","4","","","","","","+0.03","7","","","","30.08","","","140","","3","","","","","","","","","","","","","","","","","","","","","","","","","","","","","","","","","","","","","","","","","","","","","","","","","","","","","","","","","","","","","","","","","","","","","","","","","","","","","","","","","","","","","","","","","","","SYN004BUFR","","","","","","","","","",""
"01007099999","2021-05-14T16:00:00","78.9166666","11.9333333","7.7","NY ALESUND, SV","FM-12","4","","","","","","-0.02","2","","","","30.14","","","303","14","6","","","","","","","","","","","","","","","","","","","","","","","","","","","","","","","","","","","","","","","","","","","","","","","","","","","","","","","","","","","","","","","","","","","","","","","","","","","","","","","","","","","","","","","","","","","SYN004BUFR","","","","","","","","","",""
"01007099999","2021-05-14T22:00:00","78.9166666","11.9333333","7.7","NY ALESUND, SV","FM-12","4","","","","","","-0.01","2","","","","30.16","","","273","11","9","","","","","","","","","","","","","","","","","","","","","","","","","","","","","","","","","","","","","","","","","","","","","","","","","","","","","","","","","","","","","","","","","","","","","","","","","","","","","","","","","","","","","","","","","","","SYN004BUFR","","","","","","","","","",""
"01007099999","2021-05-15T01:00:00","78.9166666","11.9333333","7.7","NY ALESUND, SV","FM-12","4","","","","","","-0.01","2","","","","30.18","","","293","13","10","","","","","","","","","","","","","","","","","","","","","","","","","","","","","","","","","","","","","","","","","","","","","","","","","","","","","","","","","","","","","","","","","","","","","","","","","","","","","","","","","","","","","","","","","","","SYN004BUFR","","","","","","","","","",""
"01007099999","2021-05-15T04:00:00","78.9166666","11.9333333","7.7","NY ALESUND, SV","FM-12","4","","","","","","+0.00","8","","","","30.17","","","266","","4","","","","","","","","","","","","","","","","","","","","","","","","","","","","","","","","","","","","","","","","","","","","","","","","","","","","","","","","","","","","","","","","","","","","","","","","","","","","","","","","","","","","","","","","","","","SYN004BUFR","","","","","","","","","",""
"01007099999","2021-05-15T10:00:00","78.9166666","11.9333333","7.7","NY ALESUND, SV","FM-12","4","","","","","","-0.02","2","","","","30.20","","","318","16","12","","","","","","","","","","","","","","","","","","","","","","","","","","","","","","","","","","","","","","","","","","","","","","","","","","","","","","","","","","","","","","","","","","","","","","","","","","","","","","","","","","","","","","","","","","","SYN004BUFR","","","","","","","","","",""
"01007099999","2021-05-15T16:00:00","78.9166666","11.9333333","7.7","NY ALESUND, SV","FM-12","4","","","","","","+0.00","8","","","","30.22","","","310","12","7","","","","","","","","","","","","","","","","","","","","","","","","","","","","","","","","","","","","","","","","","","","","","","","","","","","","","","","","","","","","","","","","","","","","","","","","","","","","","","","","","","","","","","","","","","","SYN004BUFR","","","","","","","","","",""
"01007099999","2021-05-15T22:00:00","78.9166666","11.9333333","7.7","NY ALESUND, SV","FM-12","4","","","","","","0.00","4","","","","30.20","","","300","16","14","","","","","","","","","","","","","","","","","","","","","","","","","","","","","","","","","","","","","","","","","","","","","","","","","","","","","","","","","","","","","","","","","","","","","","","","","","","","","","","","","","","","","","","","","","","SYN004BUFR","","","","","","","","","",""
"01007099999","2021-05-16T01:00:00","78.9166666","11.9333333","7.7","NY ALESUND, SV","FM-12","4","","","","","","+0.01","7","","","","30.19","","","316","17","13","","","","","","","","","","","","","","","","","","","","","","","","","","","","","","","","","","","","","","","","","","","","","","","","","","","","","","","","","","","","","","","","","","","","","","","","","","","","","","","","","","","","","","","","","","","SYN004BUFR","","","","","","","","","",""
"01007099999","2021-05-16T04:00:00","78.9166666","11.9333333","7.7","NY ALESUND, SV","FM-12","4","","","","","","+0.00","5","","","","30.19","","","328","14","7","","","","","","","","","","","","","","","","","","","","","","","","","","","","","","","","","","","","","","","","","","","","","","","","","","","","","","","","","","","","","","","","","","","","","","","","","","","","","","","","","","","","","","","","","","","SYN004BUFR","","","","","","","","","",""
"01007099999","2021-05-16T10:00:00","78.9166666","11.9333333","7.7","NY ALESUND, SV","FM-12","4","","","","","","-0.01","2","","","","30.20","","","306","","8","","","","","","","","","","","","","","","","","","","","","","","","","","","","","","","","","","","","","","","","","","","","","","","","","","","","","","","","","","","","","","","","","","","","","","","","","","","","","","","","","","","","","","","","","","","SYN004BUFR","","","","","","","","","",""
"01007099999","2021-05-16T16:00:00","78.9166666","11.9333333","7.7","NY ALESUND, SV","FM-12","4","","","","","","+0.01","8","","","","30.20","","","360","","0","","","","","","","","","","","","","","","","","","","","","","","","","","","","","","","","","","","","","","","","","","","","","","","","","","","","","","","","","","","","","","","","","","","","","","","","","","","","","","","","","","","","","","","","","","","SYN004BUFR","","","","","","","","","",""
"01007099999","2021-05-16T22:00:00","78.9166666","11.9333333","7.7","NY ALESUND, SV","FM-12","4","","","","","","-0.00","2","","","","30.19","","","293","12","8","","","","","","","","","","","","","","","","","","","","","","","","","","","","","","","","","","","","","","","","","","","","","","","","","","","","","","","","","","","","","","","","","","","","","","","","","","","","","","","","","","","","","","","","","","","SYN004BUFR","","","","","","","","","",""
"01007099999","2021-05-17T10:00:00","78.9166666","11.9333333","7.7","NY ALESUND, SV","FM-12","4","","","","","","-0.00","0","","","","30.19","","","309","16","13","","","","","","","","","","","","","","","","","","","","","","","","","","","","","","","","","","","","","","","","","","","","","","","","","","","","","","","","","","","","","","","","","","","","","","","","","","","","","","","","","","","","","","","","","","","SYN004BUFR","","","","","","","","","",""
"01007099999","2021-05-18T01:00:00","78.9166666","11.9333333","7.7","NY ALESUND, SV","FM-12","4","","","","","","-0.01","2","","","","30.21","","","278","14","4","","","","","","","","","","","","","","","","","","","","","","","","","","","","","","","","","","","","","","","","","","","","","","","","","","","","","","","","","","","","","","","","","","","","","","","","","","","","","","","","","","","","","","","","","","","SYN004BUFR","","","","","","","","","",""
"01007099999","2021-05-18T10:00:00","78.9166666","11.9333333","7.7","NY ALESUND, SV","FM-12","4","","","","","","-0.01","2","","","","30.23","","","242","","2","","","","","","","","","","","","","","","","","","","","","","","","","","","","","","","","","","","","","","","","","","","","","","","","","","","","","","","","","","","","","","","","","","","","","","","","","","","","","","","","","","","","","","","","","","","SYN004BUFR","","","","","","","","","",""
"01007099999","2021-05-18T16:00:00","78.9166666","11.9333333","7.7","NY ALESUND, SV","FM-12","4","","","","","","+0.00","8","","","","30.23","","","305","","5","","","","","","","","","","","","","","","","","","","","","","","","","","","","","","","","","","","","","","","","","","","","","","","","","","","","","","","","","","","","","","","","","","","","","","","","","","","","","","","","","","","","","","","","","","","SYN004BUFR","","","","","","","","","",""
"01007099999","2021-05-18T22:00:00","78.9166666","11.9333333","7.7","NY ALESUND, SV","FM-12","4","","","","","","-0.00","0","","","","30.24","","","144","","7","","","","","","","","","","","","","","","","","","","","","","","","","","","","","","","","","","","","","","","","","","","","","","","","","","","","","","","","","","","","","","","","","","","","","","","","","","","","","","","","","","","","","","","","","","","SYN004BUFR","","","","","","","","","",""
"01007099999","2021-05-19T04:00:00","78.9166666","11.9333333","7.7","NY ALESUND, SV","FM-12","4","","","","","","+0.01","7","","","","30.21","","","360","","0","","","","","","","","","","","","","","","","","","","","","","","","","","","","","","","","","","","","","","","","","","","","","","","","","","","","","","","","","","","","","","","","","","","","","","","","","","","","","","","","","","","","","","","","","","","SYN004BUFR","","","","","","","","","",""
"01007099999","2021-05-19T10:00:00","78.9166666","11.9333333","7.7","NY ALESUND, SV","FM-12","4","","","","","","+0.01","7","","","","30.19","","","360","","0","","","","","","","","","","","","","","","","","","","","","","","","","","","","","","","","","","","","","","","","","","","","","","","","","","","","","","","","","","","","","","","","","","","","","","","","","","","","","","","","","","","","","","","","","","","SYN004BUFR","","","","","","","","","",""
"01007099999","2021-05-19T16:00:00","78.9166666","11.9333333","7.7","NY ALESUND, SV","FM-12","4","","","","","","+0.01","7","","","","30.16","","","307","","7","","","","","","","","","","","","","","","","","","","","","","","","","","","","","","","","","","","","","","","","","","","","","","","","","","","","","","","","","","","","","","","","","","","","","","","","","","","","","","","","","","","","","","","","","","","SYN004BUFR","","","","","","","","","",""
"01007099999","2021-05-19T19:00:00","78.9166666","11.9333333","7.7","NY ALESUND, SV","FM-12","4","","","","","","+0.02","7","","OVC:08 20","","30.14","21.75","","266","","3","","","","","","","","","","","","","","","","","","","","","","","","","","","","","","","","","","","","","","","","","","","","","","","","","","","","","","","","","","","","","","","","","","","","","","","","","","","","","","","","","","","","","","","","","","","SYN004BUFR","","","","","","","","","",""
"01007099999","2021-05-20T04:00:00","78.9166666","11.9333333","7.7","NY ALESUND, SV","FM-12","4","","","","","","+0.03","7","","","","30.07","","","206","","2","","","","","","","","","","","","","","","","","","","","","","","","","","","","","","","","","","","","","","","","","","","","","","","","","","","","","","","","","","","","","","","","","","","","","","","","","","","","","","","","","","","","","","","","","","","SYN004BUFR","","","","","","","","","",""
"01007099999","2021-05-20T10:00:00","78.9166666","11.9333333","7.7","NY ALESUND, SV","FM-12","4","","","","","","+0.01","7","","","","30.03","","","360","","0","","","","","","","","","","","","","","","","","","","","","","","","","","","","","","","","","","","","","","","","","","","","","","","","","","","","","","","","","","","","","","","","","","","","","","","","","","","","","","","","","","","","","","","","","","","SYN004BUFR","","","","","","","","","",""
"01007099999","2021-05-20T11:00:00","78.9166666","11.9333333","7.7","NY ALESUND, SV","FM-12","4","","","","","","+0.01","7","","","","30.03","","","247","","1","","","","","","","","","","","","","","","","","","","","","","","","","","","","","","","","","","","","","","","","","","","","","","","","","","","","","","","","","","","","","","","","","","","","","","","","","","","","","","","","","","","","","","","","","","","SYN004BUFR","","","","","","","","","",""
"01007099999","2021-05-20T13:00:00","78.9166666","11.9333333","7.7","NY ALESUND, SV","FM-12","4","","","","","","+0.02","7","","OVC:08 10","","30.01","3.11","","360","","0","","","","","","","","","","","","","","","","","","","","","","","","","","","","","","","","","","","","","","","","","","","","","","","","","","","","","","","","","","","","","","","","","","","","","","","","","","","","","","","","","","","","","","","","","","","SYN004BUFR","","","","","","","","","",""
"01007099999","2021-05-20T14:00:00","78.9166666","11.9333333","7.7","NY ALESUND, SV","FM-12","4","","","","","","+0.02","7","","","","30.01","","","360","","0","","","","","","","","","","","","","","","","","","","","","","","","","","","","","","","","","","","","","","","","","","","","","","","","","","","","","","","","","","","","","","","","","","","","","","","","","","","","","","","","","","","","","","","","","","","SYN004BUFR","","","","","","","","","",""
"01007099999","2021-05-20T16:00:00","78.9166666","11.9333333","7.7","NY ALESUND, SV","FM-12","4","","","","","","+0.01","7","","","","30.00","","","170","","3","","","","","","","","","","","","","","","","","","","","","","","","","","","","","","","","","","","","","","","","","","","","","","","","","","","","","","","","","","","","","","","","","","","","","","","","","","","","","","","","","","","","","","","","","","","SYN004BUFR","","","","","","","","","",""
"01007099999","2021-05-20T22:00:00","78.9166666","11.9333333","7.7","NY ALESUND, SV","FM-12","4","","","","","","-0.00","2","","","","29.99","","","138","","7","","","","","","","","","","","","","","","","","","","","","","","","","","","","","","","","","","","","","","","","","","","","","","","","","","","","","","","","","","","","","","","","","","","","","","","","","","","","","","","","","","","","","","","","","","","SYN004BUFR","","","","","","","","","",""
"01007099999","2021-05-21T01:00:00","78.9166666","11.9333333","7.7","NY ALESUND, SV","FM-12","4","","","","","","+0.01","7","","","","29.98","","","149","","5","","","","","","","","","","","","","","","","","","","","","","","","","","","","","","","","","","","","","","","","","","","","","","","","","","","","","","","","","","","","","","","","","","","","","","","","","","","","","","","","","","","","","","","","","","","SYN004BUFR","","","","","","","","","",""
"01007099999","2021-05-21T04:00:00","78.9166666","11.9333333","7.7","NY ALESUND, SV","FM-12","4","","","","","","+0.01","7","","","","29.97","","","142","","6","","","","","","","","","","","","","","","","","","","","","","","","","","","","","","","","","","","","","","","","","","","","","","","","","","","","","","","","","","","","","","","","","","","","","","","","","","","","","","","","","","","","","","","","","","","SYN004BUFR","","","","","","","","","",""
"01007099999","2021-05-21T10:00:00","78.9166666","11.9333333","7.7","NY ALESUND, SV","FM-12","4","","","","","","-0.01","2","","","","29.98","","","137","13","11","","","","","","","","","","","","","","","","","","","","","","","","","","","","","","","","","","","","","","","","","","","","","","","","","","","","","","","","","","","","","","","","","","","","","","","","","","","","","","","","","","","","","","","","","","","SYN004BUFR","","","","","","","","","",""
"01007099999","2021-05-21T16:00:00","78.9166666","11.9333333","7.7","NY ALESUND, SV","FM-12","4","","","","","","-0.00","2","","","","29.98","","","160","","3","","","","","","","","","","","","","","","","","","","","","","","","","","","","","","","","","","","","","","","","","","","","","","","","","","","","","","","","","","","","","","","","","","","","","","","","","","","","","","","","","","","","","","","","","","","SYN004BUFR","","","","","","","","","",""
"01007099999","2021-05-21T22:00:00","78.9166666","11.9333333","7.7","NY ALESUND, SV","FM-12","4","","","","","","0.00","4","","","","29.97","","","130","","9","","","","","","","","","","","","","","","","","","","","","","","","","","","","","","","","","","","","","","","","","","","","","","","","","","","","","","","","","","","","","","","","","","","","","","","","","","","","","","","","","","","","","","","","","","","SYN004BUFR","","","","","","","","","",""
"01007099999","2021-05-22T01:00:00","78.9166666","11.9333333","7.7","NY ALESUND, SV","FM-12","4","","","","","","+0.01","7","","","","29.96","","","130","17","12","","","","","","","","","","","","","","","","","","","","","","","","","","","","","","","","","","","","","","","","","","","","","","","","","","","","","","","","","","","","","","","","","","","","","","","","","","","","","","","","","","","","","","","","","","","SYN004BUFR","","","","","","","","","",""
"01007099999","2021-05-22T04:00:00","78.9166666","11.9333333","7.7","NY ALESUND, SV","FM-12","4","","","","","","+0.00","7","","","","29.96","","","137","15","11","","","","","","","","","","","","","","","","","","","","","","","","","","","","","","","","","","","","","","","","","","","","","","","","","","","","","","","","","","","","","","","","","","","","","","","","","","","","","","","","","","","","","","","","","","","SYN004BUFR","","","","","","","","","",""
"01007099999","2021-05-22T16:00:00","78.9166666","11.9333333","7.7","NY ALESUND, SV","FM-12","4","","","","","","+0.00","7","","","","29.97","","","356","13","9","","","","","","","","","","","","","","","","","","","","","","","","","","","","","","","","","","","","","","","","","","","","","","","","","","","","","","","","","","","","","","","","","","","","","","","","","","","","","","","","","","","","","","","","","","","SYN004BUFR","","","","","","","","","",""
"01007099999","2021-05-23T01:00:00","78.9166666","11.9333333","7.7","NY ALESUND, SV","FM-12","4","","","","","","+0.00","7","","","","29.95","","","310","17","11","","","","","","","","","","","","","","","","","","","","","","","","","","","","","","","","","","","","","","","","","","","","","","","","","","","","","","","","","","","","","","","","","","","","","","","","","","","","","","","","","","","","","","","","","","","SYN004BUFR","","","","","","","","","",""
"01007099999","2021-05-23T04:00:00","78.9166666","11.9333333","7.7","NY ALESUND, SV","FM-12","4","","","","","","+0.00","7","","","","29.95","","","292","13","11","","","","","","","","","","","","","","","","","","","","","","","","","","","","","","","","","","","","","","","","","","","","","","","","","","","","","","","","","","","","","","","","","","","","","","","","","","","","","","","","","","","","","","","","","","","SYN004BUFR","","","","","","","","","",""
"01007099999","2021-05-23T10:00:00","78.9166666","11.9333333","7.7","NY ALESUND, SV","FM-12","4","","","","","","-0.03","1","","","","29.97","","","256","","4","","","","","","","","","","","","","","","","","","","","","","","","","","","","","","","","","","","","","","","","","","","","","","","","","","","","","","","","","","","","","","","","","","","","","","","","","","","","","","","","","","","","","","","","","","","SYN004BUFR","","","","","","","","","",""
"01007099999","2021-05-23T13:00:00","78.9166666","11.9333333","7.7","NY ALESUND, SV","FM-12","4","","","","","","-0.02","2","","SCT:04 20","","29.99","46.60","","274","","5","","","","","","","","","","","","","","","","","","","","","","","","","","","","","","","","","","","","","","","","","","","","","","","","","","","","","","","","","","","","","","","","","","","","","","","","","","","","","","","","","","","","","","","","","","","SYN004BUFR","","","","","","","","","",""
"01007099999","2021-05-23T16:00:00","78.9166666","11.9333333","7.7","NY ALESUND, SV","FM-12","4","","","","","","-0.01","2","","","","30.01","","","303","16","12","","","","","","","","","","","","","","","","","","","","","","","","","","","","","","","","","","","","","","","","","","","","","","","","","","","","","","","","","","","","","","","","","","","","","","","","","","","","","","","","","","","","","","","","","","","SYN004BUFR","","","","","","","","","",""
"01007099999","2021-05-23T22:00:00","78.9166666","11.9333333","7.7","NY ALESUND, SV","FM-12","4","","","","","","-0.02","2","","","","30.03","","","284","15","11","","","","","","","","","","","","","","","","","","","","","","","","","","","","","","","","","","","","","","","","","","","","","","","","","","","","","","","","","","","","","","","","","","","","","","","","","","","","","","","","","","","","","","","","","","","SYN004BUFR","","","","","","","","","",""
"01007099999","2021-05-24T04:00:00","78.9166666","11.9333333","7.7","NY ALESUND, SV","FM-12","4","","","","","","-0.01","0","","","","30.06","","","273","","5","","","","","","","","","","","","","","","","","","","","","","","","","","","","","","","","","","","","","","","","","","","","","","","","","","","","","","","","","","","","","","","","","","","","","","","","","","","","","","","","","","","","","","","","","","","SYN004BUFR","","","","","","","","","",""
"01007099999","2021-05-24T12:00:00","78.9166666","11.9333333","7.7","NY ALESUND, SV","FM-12","4","","","","","","-0.03","2","","","","30.11","","","301","16","14","","","","","","","","","","","","","","","","","","","","","","","","","","","","","","","","","","","","","","","","","","","","","","","","","","","","","","","","","","","","","","","","","","","","","","","","","","","","","","","","","","","","","","","","","","","SYN004BUFR","","","","","","","","","",""
"01007099999","2021-05-24T16:00:00","78.9166666","11.9333333","7.7","NY ALESUND, SV","FM-12","4","","","","","","-0.01","2","","","","30.13","","","284","20","16","","","","","","","","","","","","","","","","","","","","","","","","","","","","","","","","","","","","","","","","","","","","","","","","","","","","","","","","","","","","","","","","","","","","","","","","","","","","","","","","","","","","","","","","","","","SYN004BUFR","","","","","","","","","",""
"01007099999","2021-05-24T22:00:00","78.9166666","11.9333333","7.7","NY ALESUND, SV","FM-12","4","","","","","","-0.03","2","","","","30.17","","","300","17","14","","","","","","","","","","","","","","","","","","","","","","","","","","","","","","","","","","","","","","","","","","","","","","","","","","","","","","","","","","","","","","","","","","","","","","","","","","","","","","","","","","","","","","","","","","","SYN004BUFR","","","","","","","","","",""
"01007099999","2021-05-25T01:00:00","78.9166666","11.9333333","7.7","NY ALESUND, SV","FM-12","4","","","","","","-0.03","2","","","","30.20","","","304","18","12","","","","","","","","","","","","","","","","","","","","","","","","","","","","","","","","","","","","","","","","","","","","","","","","","","","","","","","","","","","","","","","","","","","","","","","","","","","","","","","","","","","","","","","","","","","SYN004BUFR","","","","","","","","","",""
"01007099999","2021-05-25T04:00:00","78.9166666","11.9333333","7.7","NY ALESUND, SV","FM-12","4","","","","","","-0.01","2","","","","30.21","","","307","15","12","","","","","","","","","","","","","","","","","","","","","","","","","","","","","","","","","","","","","","","","","","","","","","","","","","","","","","","","","","","","","","","","","","","","","","","","","","","","","","","","","","","","","","","","","","","SYN004BUFR","","","","","","","","","",""
"01007099999","2021-05-25T10:00:00","78.9166666","11.9333333","7.7","NY ALESUND, SV","FM-12","4","","","","","","-0.02","2","","","","30.25","","","302","13","10","","","","","","","","","","","","","","","","","","","","","","","","","","","","","","","","","","","","","","","","","","","","","","","","","","","","","","","","","","","","","","","","","","","","","","","","","","","","","","","","","","","","","","","","","","","SYN004BUFR","","","","","","","","","",""
"01007099999","2021-05-25T16:00:00","78.9166666","11.9333333","7.7","NY ALESUND, SV","FM-12","4","","","","","","-0.00","0","","","","30.27","","","271","","7","","","","","","","","","","","","","","","","","","","","","","","","","","","","","","","","","","","","","","","","","","","","","","","","","","","","","","","","","","","","","","","","","","","","","","","","","","","","","","","","","","","","","","","","","","","SYN004BUFR","","","","","","","","","",""
"01007099999","2021-05-26T04:00:00","78.9166666","11.9333333","7.7","NY ALESUND, SV","FM-12","4","","","","","","+0.04","8","","","","30.16","","","154","","7","","","","","","","","","","","","","","","","","","","","","","","","","","","","","","","","","","","","","","","","","","","","","","","","","","","","","","","","","","","","","","","","","","","","","","","","","","","","","","","","","","","","","","","","","","","SYN004BUFR","","","","","","","","","",""
"01007099999","2021-05-26T13:00:00","78.9166666","11.9333333","7.7","NY ALESUND, SV","FM-12","4","","","","","","+0.11","8","","OVC:08 20","","29.93","21.75","","151","19","6","","","","","","","","","","","","","","","","","","","","","","","","","","","","","","","","","","","","","","","","","","","","","","","","","","","","","","","","","","","","","","","","","","","","","","","","","","","","","","","","","","","","","","","","","","","SYN004BUFR","","","","","","","","","",""
"01007099999","2021-05-26T16:00:00","78.9166666","11.9333333","7.7","NY ALESUND, SV","FM-12","4","","","","","","+0.14","8","","","","29.80","","","163","28","14","","","","","","","","","","","","","","","","","","","","","","","","","","","","","","","","","","","","","","","","","","","","","","","","","","","","","","","","","","","","","","","","","","","","","","","","","","","","","","","","","","","","","","","","","","","SYN004BUFR","","","","","","","","","",""
"01007099999","2021-05-27T01:00:00","78.9166666","11.9333333","7.7","NY ALESUND, SV","FM-12","4","","","","","","+0.02","6","","","","29.57","","","254","11","10","","","","","","","","","","","","","","","","","","","","","","","","","","","","","","","","","","","","","","","","","","","","","","","","","","","","","","","","","","","","","","","","","","","","","","","","","","","","","","","","","","","","","","","","","","","SYN004BUFR","","","","","","","","","",""
"01007099999","2021-05-27T04:00:00","78.9166666","11.9333333","7.7","NY ALESUND, SV","FM-12","4","","","","","","-0.02","3","","","","29.59","","","310","17","15","","","","","","","","","","","","","","","","","","","","","","","","","","","","","","","","","","","","","","","","","","","","","","","","","","","","","","","","","","","","","","","","","","","","","","","","","","","","","","","","","","","","","","","","","","","SYN004BUFR","","","","","","","","","",""
"01007099999","2021-05-27T10:00:00","78.9166666","11.9333333","7.7","NY ALESUND, SV","FM-12","4","","","","","","-0.06","2","","","","29.69","","","299","23","19","","","","","","","","","","","","","","","","","","","","","","","","","","","","","","","","","","","","","","","","","","","","","","","","","","","","","","","","","","","","","","","","","","","","","","","","","","","","","","","","","","","","","","","","","","","SYN004BUFR","","","","","","","","","",""
"01007099999","2021-05-27T16:00:00","78.9166666","11.9333333","7.7","NY ALESUND, SV","FM-12","4","","","","","","-0.05","2","","","","29.78","","","314","28","23","","","","","","","","","","","","","","","","","","","","","","","","","","","","","","","","","","","","","","","","","","","","","","","","","","","","","","","","","","","","","","","","","","","","","","","","","","","","","","","","","","","","","","","","","","","SYN004BUFR","","","","","","","","","",""
"01007099999","2021-05-27T22:00:00","78.9166666","11.9333333","7.7","NY ALESUND, SV","FM-12","4","","","","","","-0.05","1","","","","29.87","","","315","18","12","","","","","","","","","","","","","","","","","","","","","","","","","","","","","","","","","","","","","","","","","","","","","","","","","","","","","","","","","","","","","","","","","","","","","","","","","","","","","","","","","","","","","","","","","","","SYN004BUFR","","","","","","","","","",""
"01007099999","2021-05-28T01:00:00","78.9166666","11.9333333","7.7","NY ALESUND, SV","FM-12","4","","","","","","-0.03","1","","","","29.90","","","344","21","13","","","","","","","","","","","","","","","","","","","","","","","","","","","","","","","","","","","","","","","","","","","","","","","","","","","","","","","","","","","","","","","","","","","","","","","","","","","","","","","","","","","","","","","","","","","SYN004BUFR","","","","","","","","","",""
"01007099999","2021-05-28T04:00:00","78.9166666","11.9333333","7.7","NY ALESUND, SV","FM-12","4","","","","","","-0.06","2","","","","29.96","","","329","18","13","","","","","","","","","","","","","","","","","","","","","","","","","","","","","","","","","","","","","","","","","","","","","","","","","","","","","","","","","","","","","","","","","","","","","","","","","","","","","","","","","","","","","","","","","","","SYN004BUFR","","","","","","","","","",""
"01007099999","2021-05-28T10:00:00","78.9166666","11.9333333","7.7","NY ALESUND, SV","FM-12","4","","","","","","-0.03","2","","","","30.03","","","306","12","9","","","","","","","","","","","","","","","","","","","","","","","","","","","","","","","","","","","","","","","","","","","","","","","","","","","","","","","","","","","","","","","","","","","","","","","","","","","","","","","","","","","","","","","","","","","SYN004BUFR","","","","","","","","","",""
"01007099999","2021-05-28T16:00:00","78.9166666","11.9333333","7.7","NY ALESUND, SV","FM-12","4","","","","","","-0.00","0","","","","30.06","","","315","13","10","","","","","","","","","","","","","","","","","","","","","","","","","","","","","","","","","","","","","","","","","","","","","","","","","","","","","","","","","","","","","","","","","","","","","","","","","","","","","","","","","","","","","","","","","","","SYN004BUFR","","","","","","","","","",""
"01007099999","2021-05-29T04:00:00","78.9166666","11.9333333","7.7","NY ALESUND, SV","FM-12","4","","","","","","+0.04","7","","","","29.97","","","127","","2","","","","","","","","","","","","","","","","","","","","","","","","","","","","","","","","","","","","","","","","","","","","","","","","","","","","","","","","","","","","","","","","","","","","","","","","","","","","","","","","","","","","","","","","","","","SYN004BUFR","","","","","","","","","",""
"01007099999","2021-05-29T10:00:00","78.9166666","11.9333333","7.7","NY ALESUND, SV","FM-12","4","","","","","","+0.02","7","","","","29.91","","","144","","5","","","","","","","","","","","","","","","","","","","","","","","","","","","","","","","","","","","","","","","","","","","","","","","","","","","","","","","","","","","","","","","","","","","","","","","","","","","","","","","","","","","","","","","","","","","SYN004BUFR","","","","","","","","","",""
"01007099999","2021-05-29T12:00:00","78.9166666","11.9333333","7.7","NY ALESUND, SV","FM-12","4","","","","","","+0.02","7","","","","29.89","","","126","","3","","","","","","","","","","","","","","","","","","","","","","","","","","","","","","","","","","","","","","","","","","","","","","","","","","","","","","","","","","","","","","","","","","","","","","","","","","","","","","","","","","","","","","","","","","","SYN004BUFR","","","","","","","","","",""
"01007099999","2021-05-29T22:00:00","78.9166666","11.9333333","7.7","NY ALESUND, SV","FM-12","4","","","","","","+0.03","7","","","","29.79","","","257","","1","","","","","","","","","","","","","","","","","","","","","","","","","","","","","","","","","","","","","","","","","","","","","","","","","","","","","","","","","","","","","","","","","","","","","","","","","","","","","","","","","","","","","","","","","","","SYN004BUFR","","","","","","","","","",""
"01007099999","2021-05-30T04:00:00","78.9166666","11.9333333","7.7","NY ALESUND, SV","FM-12","4","","","","","","+0.04","7","","","","29.72","","","214","","3","","","","","","","","","","","","","","","","","","","","","","","","","","","","","","","","","","","","","","","","","","","","","","","","","","","","","","","","","","","","","","","","","","","","","","","","","","","","","","","","","","","","","","","","","","","SYN004BUFR","","","","","","","","","",""
"01007099999","2021-05-30T10:00:00","78.9166666","11.9333333","7.7","NY ALESUND, SV","FM-12","4","","","","","","+0.01","6","","","","29.68","","","112","","9","","","","","","","","","","","","","","","","","","","","","","","","","","","","","","","","","","","","","","","","","","","","","","","","","","","","","","","","","","","","","","","","","","","","","","","","","","","","","","","","","","","","","","","","","","","SYN004BUFR","","","","","","","","","",""
"01007099999","2021-05-30T16:00:00","78.9166666","11.9333333","7.7","NY ALESUND, SV","FM-12","4","","","","","","-0.00","0","","","","29.69","","","154","","2","","","","","","","","","","","","","","","","","","","","","","","","","","","","","","","","","","","","","","","","","","","","","","","","","","","","","","","","","","","","","","","","","","","","","","","","","","","","","","","","","","","","","","","","","","","SYN004BUFR","","","","","","","","","",""
"01007099999","2021-05-30T22:00:00","78.9166666","11.9333333","7.7","NY ALESUND, SV","FM-12","4","","","","","","-0.02","2","","","","29.71","","","129","","4","","","","","","","","","","","","","","","","","","","","","","","","","","","","","","","","","","","","","","","","","","","","","","","","","","","","","","","","","","","","","","","","","","","","","","","","","","","","","","","","","","","","","","","","","","","SYN004BUFR","","","","","","","","","",""
"01007099999","2021-05-31T04:00:00","78.9166666","11.9333333","7.7","NY ALESUND, SV","FM-12","4","","","","","","-0.04","0","","","","29.79","","","128","12","10","","","","","","","","","","","","","","","","","","","","","","","","","","","","","","","","","","","","","","","","","","","","","","","","","","","","","","","","","","","","","","","","","","","","","","","","","","","","","","","","","","","","","","","","","","","SYN004BUFR","","","","","","","","","",""
"01007099999","2021-05-31T10:00:00","78.9166666","11.9333333","7.7","NY ALESUND, SV","FM-12","4","","","","","","-0.04","1","","","","29.88","","","157","","4","","","","","","","","","","","","","","","","","","","","","","","","","","","","","","","","","","","","","","","","","","","","","","","","","","","","","","","","","","","","","","","","","","","","","","","","","","","","","","","","","","","","","","","","","","","SYN004BUFR","","","","","","","","","",""
"01007099999","2021-05-31T13:00:00","78.9166666","11.9333333","7.7","NY ALESUND, SV","FM-12","4","","","","","","-0.03","2","","FEW:02 33","","29.91","43.50","","128","","4","","","","","","","","","","","","","","","","","","","","","","","","","","","","","","","","","","","","","","","","","","","","","","","","","","","","","","","","","","","","","","","","","","","","","","","","","","","","","","","","","","","","","","","","","","","SYN004BUFR","","","","","","","","","",""
"01007099999","2021-05-31T16:00:00","78.9166666","11.9333333","7.7","NY ALESUND, SV","FM-12","4","","","","","","+0.00","8","","","","29.91","","","121","17","13","","","","","","","","","","","","","","","","","","","","","","","","","","","","","","","","","","","","","","","","","","","","","","","","","","","","","","","","","","","","","","","","","","","","","","","","","","","","","","","","","","","","","","","","","","","SYN004BUFR","","","","","","","","","",""
"01007099999","2021-05-31T22:00:00","78.9166666","11.9333333","7.7","NY ALESUND, SV","FM-12","4","","","","","","+0.03","7","","","","29.88","","","122","21","16","","","","","","","","","","","","","","","","","","","","","","","","","","","","","","","","","","","","","","","","","","","","","","","","","","","","","","","","","","","","","","","","","","","","","","","","","","","","","","","","","","","","","","","","","","","SYN004BUFR","","","","","","","","","",""
"01007099999","2021-06-02T22:00:00","78.9166666","11.9333333","7.7","NY ALESUND, SV","FM-12","4","","","","","","-0.02","3","","","","29.54","","","104","22","6","","","","","","","","","","","","","","","","","","","","","","","","","","","","","","","","","","","","","","","","","","","","","","","","","","","","","","","","","","","","","","","","","","","","","","","","","","","","","","","","","","","","","","","","","","","SYN004BUFR","","","","","","","","","",""
"01007099999","2021-06-03T01:00:00","78.9166666","11.9333333","7.7","NY ALESUND, SV","FM-12","4","","","","","","-0.06","1","","","","29.60","","","243","22","13","","","","","","","","","","","","","","","","","","","","","","","","","","","","","","","","","","","","","","","","","","","","","","","","","","","","","","","","","","","","","","","","","","","","","","","","","","","","","","","","","","","","","","","","","","","SYN004BUFR","","","","","","","","","",""
"01007099999","2021-06-03T10:00:00","78.9166666","11.9333333","7.7","NY ALESUND, SV","FM-12","4","","","","","","-0.05","1","","","","29.85","","","240","18","16","","","","","","","","","","","","","","","","","","","","","","","","","","","","","","","","","","","","","","","","","","","","","","","","","","","","","","","","","","","","","","","","","","","","","","","","","","","","","","","","","","","","","","","","","","","SYN004BUFR","","","","","","","","","",""
"01007099999","2021-06-03T16:00:00","78.9166666","11.9333333","7.7","NY ALESUND, SV","FM-12","4","","","","","","+0.02","8","","","","29.85","","","191","13","8","","","","","","","","","","","","","","","","","","","","","","","","","","","","","","","","","","","","","","","","","","","","","","","","","","","","","","","","","","","","","","","","","","","","","","","","","","","","","","","","","","","","","","","","","","","SYN004BUFR","","","","","","","","","",""
"01007099999","2021-06-04T01:00:00","78.9166666","11.9333333","7.7","NY ALESUND, SV","FM-12","4","","","","","","+0.08","7","","","","29.68","","","118","28","22","","","","","","","","","","","","","","","","","","","","","","","","","","","","","","","","","","","","","","","","","","","","","","","","","","","","","","","","","","","","","","","","","","","","","","","","","","","","","","","","","","","","","","","","","","","SYN004BUFR","","","","","","","","","",""
"01007099999","2021-06-04T08:00:00","78.9166666","11.9333333","7.7","NY ALESUND, SV","FM-12","4","","","","","","-0.01","3","","","","29.62","","","214","12","8","","","","","","","","","","","","","","","","","","","","","","","","","","","","","","","","","","","","","","","","","","","","","","","","","","","","","","","","","","","","","","","","","","","","","","","","","","","","","","","","","","","","","","","","","","","SYN004BUFR","","","","","","","","","",""
"01007099999","2021-06-04T09:00:00","78.9166666","11.9333333","7.7","NY ALESUND, SV","FM-12","4","","","","","","-0.01","2","","","","29.62","","","158","14","1","","","","","","","","","","","","","","","","","","","","","","","","","","","","","","","","","","","","","","","","","","","","","","","","","","","","","","","","","","","","","","","","","","","","","","","","","","","","","","","","","","","","","","","","","","","SYN004BUFR","","","","","","","","","",""
"01007099999","2021-06-04T10:00:00","78.9166666","11.9333333","7.7","NY ALESUND, SV","FM-12","4","","","","","","-0.03","3","","","","29.64","","","220","13","9","","","","","","","","","","","","","","","","","","","","","","","","","","","","","","","","","","","","","","","","","","","","","","","","","","","","","","","","","","","","","","","","","","","","","","","","","","","","","","","","","","","","","","","","","","","SYN004BUFR","","","","","","","","","",""
"01007099999","2021-06-05T01:00:00","78.9166666","11.9333333","7.7","NY ALESUND, SV","FM-12","4","","","","","","-0.05","1","","","","29.88","","","304","16","12","","","","","","","","","","","","","","","","","","","","","","","","","","","","","","","","","","","","","","","","","","","","","","","","","","","","","","","","","","","","","","","","","","","","","","","","","","","","","","","","","","","","","","","","","","","SYN004BUFR","","","","","","","","","",""
"01007099999","2021-06-05T16:00:00","78.9166666","11.9333333","7.7","NY ALESUND, SV","FM-12","4","","","","","","-0.03","1","","","","30.02","","","314","16","10","","","","","","","","","","","","","","","","","","","","","","","","","","","","","","","","","","","","","","","","","","","","","","","","","","","","","","","","","","","","","","","","","","","","","","","","","","","","","","","","","","","","","","","","","","","SYN004BUFR","","","","","","","","","",""
"01007099999","2021-06-05T22:00:00","78.9166666","11.9333333","7.7","NY ALESUND, SV","FM-12","4","","","","","","-0.04","2","","","","30.08","","","306","13","10","","","","","","","","","","","","","","","","","","","","","","","","","","","","","","","","","","","","","","","","","","","","","","","","","","","","","","","","","","","","","","","","","","","","","","","","","","","","","","","","","","","","","","","","","","","SYN004BUFR","","","","","","","","","",""
"01007099999","2021-06-06T01:00:00","78.9166666","11.9333333","7.7","NY ALESUND, SV","FM-12","4","","","","","","-0.04","2","","","","30.11","","","301","15","11","","","","","","","","","","","","","","","","","","","","","","","","","","","","","","","","","","","","","","","","","","","","","","","","","","","","","","","","","","","","","","","","","","","","","","","","","","","","","","","","","","","","","","","","","","","SYN004BUFR","","","","","","","","","",""
"01007099999","2021-06-06T10:00:00","78.9166666","11.9333333","7.7","NY ALESUND, SV","FM-12","4","","","","","","-0.01","2","","","","30.16","","","348","","4","","","","","","","","","","","","","","","","","","","","","","","","","","","","","","","","","","","","","","","","","","","","","","","","","","","","","","","","","","","","","","","","","","","","","","","","","","","","","","","","","","","","","","","","","","","SYN004BUFR","","","","","","","","","",""
"01007099999","2021-06-06T22:00:00","78.9166666","11.9333333","7.7","NY ALESUND, SV","FM-12","4","","","","","","+0.04","7","","","","30.05","","","120","","5","","","","","","","","","","","","","","","","","","","","","","","","","","","","","","","","","","","","","","","","","","","","","","","","","","","","","","","","","","","","","","","","","","","","","","","","","","","","","","","","","","","","","","","","","","","SYN004BUFR","","","","","","","","","",""
"01007099999","2021-06-07T01:00:00","78.9166666","11.9333333","7.7","NY ALESUND, SV","FM-12","4","","","","","","+0.03","7","","","","30.02","","","288","","1","","","","","","","","","","","","","","","","","","","","","","","","","","","","","","","","","","","","","","","","","","","","","","","","","","","","","","","","","","","","","","","","","","","","","","","","","","","","","","","","","","","","","","","","","","","SYN004BUFR","","","","","","","","","",""
"01007099999","2021-06-07T04:00:00","78.9166666","11.9333333","7.7","NY ALESUND, SV","FM-12","4","","","","","","+0.04","7","","","","29.97","","","162","14","4","","","","","","","","","","","","","","","","","","","","","","","","","","","","","","","","","","","","","","","","","","","","","","","","","","","","","","","","","","","","","","","","","","","","","","","","","","","","","","","","","","","","","","","","","","","SYN004BUFR","","","","","","","","","",""
"01007099999","2021-06-07T22:00:00","78.9166666","11.9333333","7.7","NY ALESUND, SV","FM-12","4","","","","","","-0.01","3","","","","29.70","","","300","11","7","","","","","","","","","","","","","","","","","","","","","","","","","","","","","","","","","","","","","","","","","","","","","","","","","","","","","","","","","","","","","","","","","","","","","","","","","","","","","","","","","","","","","","","","","","","SYN004BUFR","","","","","","","","","",""
"01007099999","2021-06-08T07:00:00","78.9166666","11.9333333","7.7","NY ALESUND, SV","FM-12","4","","","","","","-0.01","3","","OVC:08 10","","29.75","46.60","","344","17","4","","","","","","","","","","","","","","","","","","","","","","","","","","","","","","","","","","","","","","","","","","","","","","","","","","","","","","","","","","","","","","","","","","","","","","","","","","","","","","","","","","","","","","","","","","","SYN004BUFR","","","","","","","","","",""
"01007099999","2021-06-08T11:00:00","78.9166666","11.9333333","7.7","NY ALESUND, SV","FM-12","4","","","","","","-0.01","2","","","","29.78","","","360","","0","","","","","","","","","","","","","","","","","","","","","","","","","","","","","","","","","","","","","","","","","","","","","","","","","","","","","","","","","","","","","","","","","","","","","","","","","","","","","","","","","","","","","","","","","","","SYN004BUFR","","","","","","","","","",""
"01007099999","2021-06-08T16:00:00","78.9166666","11.9333333","7.7","NY ALESUND, SV","FM-12","4","","","","","","0.00","4","","","","29.78","","","309","","5","","","","","","","","","","","","","","","","","","","","","","","","","","","","","","","","","","","","","","","","","","","","","","","","","","","","","","","","","","","","","","","","","","","","","","","","","","","","","","","","","","","","","","","","","","","SYN004BUFR","","","","","","","","","",""
"01007099999","2021-06-08T20:00:00","78.9166666","11.9333333","7.7","NY ALESUND, SV","FM-12","4","","","","","","+0.00","7","","","","29.77","","","327","","4","","","","","","","","","","","","","","","","","","","","","","","","","","","","","","","","","","","","","","","","","","","","","","","","","","","","","","","","","","","","","","","","","","","","","","","","","","","","","","","","","","","","","","","","","","","SYN004BUFR","","","","","","","","","",""
"01007099999","2021-06-09T04:00:00","78.9166666","11.9333333","7.7","NY ALESUND, SV","FM-12","4","","","","","","+0.04","8","","","","29.69","","","324","","4","","","","","","","","","","","","","","","","","","","","","","","","","","","","","","","","","","","","","","","","","","","","","","","","","","","","","","","","","","","","","","","","","","","","","","","","","","","","","","","","","","","","","","","","","","","SYN004BUFR","","","","","","","","","",""
"01007099999","2021-06-09T16:00:00","78.9166666","11.9333333","7.7","NY ALESUND, SV","FM-12","4","","","","","","+0.04","7","","","","29.49","","","304","","7","","","","","","","","","","","","","","","","","","","","","","","","","","","","","","","","","","","","","","","","","","","","","","","","","","","","","","","","","","","","","","","","","","","","","","","","","","","","","","","","","","","","","","","","","","","SYN004BUFR","","","","","","","","","",""
"01007099999","2021-06-09T22:00:00","78.9166666","11.9333333","7.7","NY ALESUND, SV","FM-12","4","","","","","","0.00","4","","","","29.47","","","287","13","11","","","","","","","","","","","","","","","","","","","","","","","","","","","","","","","","","","","","","","","","","","","","","","","","","","","","","","","","","","","","","","","","","","","","","","","","","","","","","","","","","","","","","","","","","","","SYN004BUFR","","","","","","","","","",""
"01007099999","2021-06-10T16:00:00","78.9166666","11.9333333","7.7","NY ALESUND, SV","FM-12","4","","","","","","-0.02","1","","","","29.55","","","301","16","14","","","","","","","","","","","","","","","","","","","","","","","","","","","","","","","","","","","","","","","","","","","","","","","","","","","","","","","","","","","","","","","","","","","","","","","","","","","","","","","","","","","","","","","","","","","SYN004BUFR","","","","","","","","","",""
"01007099999","2021-06-11T04:00:00","78.9166666","11.9333333","7.7","NY ALESUND, SV","FM-12","4","","","","","","+0.02","6","","","","29.52","","","262","","6","","","","","","","","","","","","","","","","","","","","","","","","","","","","","","","","","","","","","","","","","","","","","","","","","","","","","","","","","","","","","","","","","","","","","","","","","","","","","","","","","","","","","","","","","","","SYN004BUFR","","","","","","","","","",""
"01007099999","2021-06-12T01:00:00","78.9166666","11.9333333","7.7","NY ALESUND, SV","FM-12","4","","","","","","-0.00","2","","","","29.54","","","360","16","0","","","","","","","","","","","","","","","","","","","","","","","","","","","","","","","","","","","","","","","","","","","","","","","","","","","","","","","","","","","","","","","","","","","","","","","","","","","","","","","","","","","","","","","","","","","SYN004BUFR","","","","","","","","","",""
"01007099999","2021-06-13T01:00:00","78.9166666","11.9333333","7.7","NY ALESUND, SV","FM-12","4","","","","","","-0.01","2","","","","29.66","","","131","12","7","","","","","","","","","","","","","","","","","","","","","","","","","","","","","","","","","","","","","","","","","","","","","","","","","","","","","","","","","","","","","","","","","","","","","","","","","","","","","","","","","","","","","","","","","","","SYN004BUFR","","","","","","","","","",""
"01007099999","2021-06-13T04:00:00","78.9166666","11.9333333","7.7","NY ALESUND, SV","FM-12","4","","","","","","-0.01","2","","","","29.67","","","119","17","14","","","","","","","","","","","","","","","","","","","","","","","","","","","","","","","","","","","","","","","","","","","","","","","","","","","","","","","","","","","","","","","","","","","","","","","","","","","","","","","","","","","","","","","","","","","SYN004BUFR","","","","","","","","","",""
"01007099999","2021-06-13T10:00:00","78.9166666","11.9333333","7.7","NY ALESUND, SV","FM-12","4","","","","","","-0.01","2","","","","29.67","","","110","19","16","","","","","","","","","","","","","","","","","","","","","","","","","","","","","","","","","","","","","","","","","","","","","","","","","","","","","","","","","","","","","","","","","","","","","","","","","","","","","","","","","","","","","","","","","","","SYN004BUFR","","","","","","","","","",""
"01007099999","2021-06-13T22:00:00","78.9166666","11.9333333","7.7","NY ALESUND, SV","FM-12","4","","","","","","+0.02","7","","","","29.63","","","131","15","11","","","","","","","","","","","","","","","","","","","","","","","","","","","","","","","","","","","","","","","","","","","","","","","","","","","","","","","","","","","","","","","","","","","","","","","","","","","","","","","","","","","","","","","","","","","SYN004BUFR","","","","","","","","","",""
"01007099999","2021-06-14T01:00:00","78.9166666","11.9333333","7.7","NY ALESUND, SV","FM-12","4","","","","","","+0.03","6","","","","29.61","","","126","16","13","","","","","","","","","","","","","","","","","","","","","","","","","","","","","","","","","","","","","","","","","","","","","","","","","","","","","","","","","","","","","","","","","","","","","","","","","","","","","","","","","","","","","","","","","","","SYN004BUFR","","","","","","","","","",""
"01007099999","2021-06-14T10:00:00","78.9166666","11.9333333","7.7","NY ALESUND, SV","FM-12","4","","","","","","+0.02","7","","","","29.51","","","125","12","8","","","","","","","","","","","","","","","","","","","","","","","","","","","","","","","","","","","","","","","","","","","","","","","","","","","","","","","","","","","","","","","","","","","","","","","","","","","","","","","","","","","","","","","","","","","SYN004BUFR","","","","","","","","","",""
"01007099999","2021-06-16T07:00:00","78.9166666","11.9333333","7.7","NY ALESUND, SV","FM-12","4","","","","","","+0.00","5","","FEW:01 20","","29.44","40.39","","315","23","19","","","","","","","","","","","","","","","","","","","","","","","","","","","","","","","","","","","","","","","","","","","","","","","","","","","","","","","","","","","","","","","","","","","","","","","","","","","","","","","","","","","","","","","","","","","SYN004BUFR","","","","","","","","","",""
"01007099999","2021-06-16T10:00:00","78.9166666","11.9333333","7.7","NY ALESUND, SV","FM-12","4","","","","","","-0.01","2","","","","29.45","","","312","23","19","","","","","","","","","","","","","","","","","","","","","","","","","","","","","","","","","","","","","","","","","","","","","","","","","","","","","","","","","","","","","","","","","","","","","","","","","","","","","","","","","","","","","","","","","","","SYN004BUFR","","","","","","","","","",""
"01007099999","2021-06-17T01:00:00","78.9166666","11.9333333","7.7","NY ALESUND, SV","FM-12","4","","","","","","-0.01","0","","","","29.53","","","311","28","21","","","","","","","","","","","","","","","","","","","","","","","","","","","","","","","","","","","","","","","","","","","","","","","","","","","","","","","","","","","","","","","","","","","","","","","","","","","","","","","","","","","","","","","","","","","SYN004BUFR","","","","","","","","","",""
"01007099999","2021-06-17T07:00:00","78.9166666","11.9333333","7.7","NY ALESUND, SV","FM-12","4","","","","","","-0.03","2","","SCT:04 10","","29.57","24.85","","311","24","20","","","","","","","","","","","","","","","","","","","","","","","","","","","","","","","","","","","","","","","","","","","","","","","","","","","","","","","","","","","","","","","","","","","","","","","","","","","","","","","","","","","","","","","","","","","SYN004BUFR","","","","","","","","","",""
"01007099999","2021-06-17T10:00:00","78.9166666","11.9333333","7.7","NY ALESUND, SV","FM-12","4","","","","","","-0.02","2","","","","29.59","","","303","20","17","","","","","","","","","","","","","","","","","","","","","","","","","","","","","","","","","","","","","","","","","","","","","","","","","","","","","","","","","","","","","","","","","","","","","","","","","","","","","","","","","","","","","","","","","","","SYN004BUFR","","","","","","","","","",""
"01007099999","2021-06-18T07:00:00","78.9166666","11.9333333","7.7","NY ALESUND, SV","FM-12","4","","","","","","0.00","4","","BKN:06 10","","29.65","31.07","","307","19","13","","","","","","","","","","","","","","","","","","","","","","","","","","","","","","","","","","","","","","","","","","","","","","","","","","","","","","","","","","","","","","","","","","","","","","","","","","","","","","","","","","","","","","","","","","","SYN004BUFR","","","","","","","","","",""
"01007099999","2021-06-18T10:00:00","78.9166666","11.9333333","7.7","NY ALESUND, SV","FM-12","4","","","","","","+0.01","6","","","","29.64","","","313","16","13","","","","","","","","","","","","","","","","","","","","","","","","","","","","","","","","","","","","","","","","","","","","","","","","","","","","","","","","","","","","","","","","","","","","","","","","","","","","","","","","","","","","","","","","","","","SYN004BUFR","","","","","","","","","",""
"01007099999","2021-06-18T16:00:00","78.9166666","11.9333333","7.7","NY ALESUND, SV","FM-12","4","","","","","","+0.01","7","","","","29.62","","","308","19","15","","","","","","","","","","","","","","","","","","","","","","","","","","","","","","","","","","","","","","","","","","","","","","","","","","","","","","","","","","","","","","","","","","","","","","","","","","","","","","","","","","","","","","","","","","","SYN004BUFR","","","","","","","","","",""
"01007099999","2021-06-19T10:00:00","78.9166666","11.9333333","7.7","NY ALESUND, SV","FM-12","4","","","","","","-0.02","2","","","","29.61","","","298","19","15","","","","","","","","","","","","","","","","","","","","","","","","","","","","","","","","","","","","","","","","","","","","","","","","","","","","","","","","","","","","","","","","","","","","","","","","","","","","","","","","","","","","","","","","","","","SYN004BUFR","","","","","","","","","",""
"01007099999","2021-06-19T19:00:00","78.9166666","11.9333333","7.7","NY ALESUND, SV","FM-12","4","","","","0.01","","+0.00","6","","OVC:08 10","","29.64","5.59","","278","33","24","","","","","","","","","","","","","","","","","","","","","","","","","","","","","","","","","","","","","","","","","","","","","","","","","","","","","","","","","","","","","","","","","","","","","","","","","","","","","","","","","","","","","","","","","","","SYN004BUFR","","","","","","","","","",""
"01007099999","2021-06-21T01:00:00","78.9166666","11.9333333","7.7","NY ALESUND, SV","FM-12","4","","","","","","","","","","","29.62","","","215","44","20","","","","","","","","","","","","","","","","","","","","","","","","","","","","","","","","","","","","","","","","","","","","","","","","","","","","","","","","","","","","","","","","","","","","","","","","","","","","","","","","","","","","","","","","","","","SYN004BUFR","","","","","","","","","",""
"01007099999","2021-06-22T04:00:00","78.9166666","11.9333333","7.7","NY ALESUND, SV","FM-12","4","","","","","","-0.01","0","","","","29.83","","","082","","4","","","","","","","","","","","","","","","","","","","","","","","","","","","","","","","","","","","","","","","","","","","","","","","","","","","","","","","","","","","","","","","","","","","","","","","","","","","","","","","","","","","","","","","","","","","SYN004BUFR","","","","","","","","","",""
"01007099999","2021-06-22T07:00:00","78.9166666","11.9333333","7.7","NY ALESUND, SV","FM-12","4","","","","","","0.00","4","","OVC:08 10","","29.84","12.43","","264","","2","","","","","","","","","","","","","","","","","","","","","","","","","","","","","","","","","","","","","","","","","","","","","","","","","","","","","","","","","","","","","","","","","","","","","","","","","","","","","","","","","","","","","","","","","","","SYN004BUFR","","","","","","","","","",""
"01007099999","2021-06-23T04:00:00","78.9166666","11.9333333","7.7","NY ALESUND, SV","FM-12","4","","","","","","-0.02","1","","","","29.96","","","146","","3","","","","","","","","","","","","","","","","","","","","","","","","","","","","","","","","","","","","","","","","","","","","","","","","","","","","","","","","","","","","","","","","","","","","","","","","","","","","","","","","","","","","","","","","","","","SYN004BUFR","","","","","","","","","",""
"01007099999","2021-06-24T01:00:00","78.9166666","11.9333333","7.7","NY ALESUND, SV","FM-12","4","","","","","","+0.02","7","","","","30.04","","","237","14","10","","","","","","","","","","","","","","","","","","","","","","","","","","","","","","","","","","","","","","","","","","","","","","","","","","","","","","","","","","","","","","","","","","","","","","","","","","","","","","","","","","","","","","","","","","","SYN004BUFR","","","","","","","","","",""
"01007099999","2021-06-24T07:00:00","78.9166666","11.9333333","7.7","NY ALESUND, SV","FM-12","4","","","","","","+0.02","6","","FEW:02 10","","30.01","31.07","","275","12","3","","","","","","","","","","","","","","","","","","","","","","","","","","","","","","","","","","","","","","","","","","","","","","","","","","","","","","","","","","","","","","","","","","","","","","","","","","","","","","","","","","","","","","","","","","","SYN004BUFR","","","","","","","","","",""
"01007099999","2021-06-24T16:00:00","78.9166666","11.9333333","7.7","NY ALESUND, SV","FM-12","4","","","","","","+0.01","8","","","","29.98","","","249","13","10","","","","","","","","","","","","","","","","","","","","","","","","","","","","","","","","","","","","","","","","","","","","","","","","","","","","","","","","","","","","","","","","","","","","","","","","","","","","","","","","","","","","","","","","","","","SYN004BUFR","","","","","","","","","",""
"01007099999","2021-06-25T10:00:00","78.9166666","11.9333333","7.7","NY ALESUND, SV","FM-12","4","","","","","","+0.01","7","","","","29.89","","","034","","4","","","","","","","","","","","","","","","","","","","","","","","","","","","","","","","","","","","","","","","","","","","","","","","","","","","","","","","","","","","","","","","","","","","","","","","","","","","","","","","","","","","","","","","","","","","SYN004BUFR","","","","","","","","","",""
"01007099999","2021-06-25T16:00:00","78.9166666","11.9333333","7.7","NY ALESUND, SV","FM-12","4","","","","","","-0.01","0","","","","29.89","","","046","","2","","","","","","","","","","","","","","","","","","","","","","","","","","","","","","","","","","","","","","","","","","","","","","","","","","","","","","","","","","","","","","","","","","","","","","","","","","","","","","","","","","","","","","","","","","","SYN004BUFR","","","","","","","","","",""
"01007099999","2021-06-27T04:00:00","78.9166666","11.9333333","7.7","NY ALESUND, SV","FM-12","4","","","","","","+0.03","8","","","","29.83","","","132","","4","","","","","","","","","","","","","","","","","","","","","","","","","","","","","","","","","","","","","","","","","","","","","","","","","","","","","","","","","","","","","","","","","","","","","","","","","","","","","","","","","","","","","","","","","","","SYN004BUFR","","","","","","","","","",""
"01007099999","2021-06-27T16:00:00","78.9166666","11.9333333","7.7","NY ALESUND, SV","FM-12","4","","","","","","+0.01","7","","","","29.78","","","098","","2","","","","","","","","","","","","","","","","","","","","","","","","","","","","","","","","","","","","","","","","","","","","","","","","","","","","","","","","","","","","","","","","","","","","","","","","","","","","","","","","","","","","","","","","","","","SYN004BUFR","","","","","","","","","",""
"01007099999","2021-06-28T10:00:00","78.9166666","11.9333333","7.7","NY ALESUND, SV","FM-12","4","","","","","","+0.00","5","","","","29.66","","","037","","4","","","","","","","","","","","","","","","","","","","","","","","","","","","","","","","","","","","","","","","","","","","","","","","","","","","","","","","","","","","","","","","","","","","","","","","","","","","","","","","","","","","","","","","","","","","SYN004BUFR","","","","","","","","","",""
"01007099999","2021-06-28T13:00:00","78.9166666","11.9333333","7.7","NY ALESUND, SV","FM-12","4","","","","","","+0.01","7","","SCT:03 82","","29.64","34.18","","113","17","15","","","","","","","","","","","","","","","","","","","","","","","","","","","","","","","","","","","","","","","","","","","","","","","","","","","","","","","","","","","","","","","","","","","","","","","","","","","","","","","","","","","","","","","","","","","SYN004BUFR","","","","","","","","","",""
"01007099999","2021-06-29T04:00:00","78.9166666","11.9333333","7.7","NY ALESUND, SV","FM-12","4","","","","","","+0.01","7","","","","29.59","","","322","","4","","","","","","","","","","","","","","","","","","","","","","","","","","","","","","","","","","","","","","","","","","","","","","","","","","","","","","","","","","","","","","","","","","","","","","","","","","","","","","","","","","","","","","","","","","","SYN004BUFR","","","","","","","","","",""
"01007099999","2021-06-30T10:00:00","78.9166666","11.9333333","7.7","NY ALESUND, SV","FM-12","4","","","","","","+0.08","8","","","","29.46","","","122","32","24","","","","","","","","","","","","","","","","","","","","","","","","","","","","","","","","","","","","","","","","","","","","","","","","","","","","","","","","","","","","","","","","","","","","","","","","","","","","","","","","","","","","","","","","","","","SYN004BUFR","","","","","","","","","",""
"01007099999","2021-07-01T10:00:00","78.9166666","11.9333333","7.7","NY ALESUND, SV","FM-12","4","","","","","","+0.01","6","","","","28.95","","","360","","0","","","","","","","","","","","","","","","","","","","","","","","","","","","","","","","","","","","","","","","","","","","","","","","","","","","","","","","","","","","","","","","","","","","","","","","","","","","","","","","","","","","","","","","","","","","SYN004BUFR","","","","","","","","","",""
"01007099999","2021-07-02T11:00:00","78.9166666","11.9333333","7.7","NY ALESUND, SV","FM-12","4","","","","","","-0.07","1","","","","29.69","","","318","15","12","","","","","","","","","","","","","","","","","","","","","","","","","","","","","","","","","","","","","","","","","","","","","","","","","","","","","","","","","","","","","","","","","","","","","","","","","","","","","","","","","","","","","","","","","","","SYN004BUFR","","","","","","","","","",""
"01007099999","2021-07-02T22:00:00","78.9166666","11.9333333","7.7","NY ALESUND, SV","FM-12","4","","","","","","+0.02","7","","","","29.71","","","160","","5","","","","","","","","","","","","","","","","","","","","","","","","","","","","","","","","","","","","","","","","","","","","","","","","","","","","","","","","","","","","","","","","","","","","","","","","","","","","","","","","","","","","","","","","","","","SYN004BUFR","","","","","","","","","",""
"01007099999","2021-07-03T01:00:00","78.9166666","11.9333333","7.7","NY ALESUND, SV","FM-12","4","","","","","","+0.01","7","","","","29.70","","","221","12","3","","","","","","","","","","","","","","","","","","","","","","","","","","","","","","","","","","","","","","","","","","","","","","","","","","","","","","","","","","","","","","","","","","","","","","","","","","","","","","","","","","","","","","","","","","","SYN004BUFR","","","","","","","","","",""
"01007099999","2021-07-03T16:00:00","78.9166666","11.9333333","7.7","NY ALESUND, SV","FM-12","4","","","","","","+0.01","8","","","","29.64","","","220","18","8","","","","","","","","","","","","","","","","","","","","","","","","","","","","","","","","","","","","","","","","","","","","","","","","","","","","","","","","","","","","","","","","","","","","","","","","","","","","","","","","","","","","","","","","","","","SYN004BUFR","","","","","","","","","",""
"01007099999","2021-07-04T22:00:00","78.9166666","11.9333333","7.7","NY ALESUND, SV","FM-12","4","","","","","","+0.01","7","","","","29.78","","","117","","4","","","","","","","","","","","","","","","","","","","","","","","","","","","","","","","","","","","","","","","","","","","","","","","","","","","","","","","","","","","","","","","","","","","","","","","","","","","","","","","","","","","","","","","","","","","SYN004BUFR","","","","","","","","","",""
"01007099999","2021-07-05T22:00:00","78.9166666","11.9333333","7.7","NY ALESUND, SV","FM-12","4","","","","","","-0.01","0","","","","29.76","","","252","16","12","","","","","","","","","","","","","","","","","","","","","","","","","","","","","","","","","","","","","","","","","","","","","","","","","","","","","","","","","","","","","","","","","","","","","","","","","","","","","","","","","","","","","","","","","","","SYN004BUFR","","","","","","","","","",""
"01007099999","2021-07-07T10:00:00","78.9166666","11.9333333","7.7","NY ALESUND, SV","FM-12","4","","","","","","+0.01","7","","","","29.75","","","356","","3","","","","","","","","","","","","","","","","","","","","","","","","","","","","","","","","","","","","","","","","","","","","","","","","","","","","","","","","","","","","","","","","","","","","","","","","","","","","","","","","","","","","","","","","","","","SYN004BUFR","","","","","","","","","",""
"01007099999","2021-07-08T04:00:00","78.9166666","11.9333333","7.7","NY ALESUND, SV","FM-12","4","","","","","","+0.01","6","","","","29.58","","","330","","1","","","","","","","","","","","","","","","","","","","","","","","","","","","","","","","","","","","","","","","","","","","","","","","","","","","","","","","","","","","","","","","","","","","","","","","","","","","","","","","","","","","","","","","","","","","SYN004BUFR","","","","","","","","","",""
"01007099999","2021-07-08T22:00:00","78.9166666","11.9333333","7.7","NY ALESUND, SV","FM-12","4","","","","","","-0.04","2","","","","29.74","","","351","","4","","","","","","","","","","","","","","","","","","","","","","","","","","","","","","","","","","","","","","","","","","","","","","","","","","","","","","","","","","","","","","","","","","","","","","","","","","","","","","","","","","","","","","","","","","","SYN004BUFR","","","","","","","","","",""
"01007099999","2021-07-09T22:00:00","78.9166666","11.9333333","7.7","NY ALESUND, SV","FM-12","4","","","","","","+0.01","8","","","","29.60","","","113","15","8","","","","","","","","","","","","","","","","","","","","","","","","","","","","","","","","","","","","","","","","","","","","","","","","","","","","","","","","","","","","","","","","","","","","","","","","","","","","","","","","","","","","","","","","","","","SYN004BUFR","","","","","","","","","",""
"01007099999","2021-07-10T10:00:00","78.9166666","11.9333333","7.7","NY ALESUND, SV","FM-12","4","","","","","","-0.09","3","","","","29.67","","","305","20","17","","","","","","","","","","","","","","","","","","","","","","","","","","","","","","","","","","","","","","","","","","","","","","","","","","","","","","","","","","","","","","","","","","","","","","","","","","","","","","","","","","","","","","","","","","","SYN004BUFR","","","","","","","","","",""
"01007099999","2021-07-11T04:00:00","78.9166666","11.9333333","7.7","NY ALESUND, SV","FM-12","4","","","","","","-0.01","0","","","","30.05","","","335","","6","","","","","","","","","","","","","","","","","","","","","","","","","","","","","","","","","","","","","","","","","","","","","","","","","","","","","","","","","","","","","","","","","","","","","","","","","","","","","","","","","","","","","","","","","","","SYN004BUFR","","","","","","","","","",""
"01007099999","2021-07-11T11:00:00","78.9166666","11.9333333","7.7","NY ALESUND, SV","FM-12","4","","","","","","-0.01","2","","","","30.05","","","106","","6","","","","","","","","","","","","","","","","","","","","","","","","","","","","","","","","","","","","","","","","","","","","","","","","","","","","","","","","","","","","","","","","","","","","","","","","","","","","","","","","","","","","","","","","","","","SYN004BUFR","","","","","","","","","",""
"01007099999","2021-07-11T12:00:00","78.9166666","11.9333333","7.7","NY ALESUND, SV","FM-12","4","","","","","","+0.01","8","","","","30.04","","","093","","7","","","","","","","","","","","","","","","","","","","","","","","","","","","","","","","","","","","","","","","","","","","","","","","","","","","","","","","","","","","","","","","","","","","","","","","","","","","","","","","","","","","","","","","","","","","SYN004BUFR","","","","","","","","","",""
"01007099999","2021-07-11T13:00:00","78.9166666","11.9333333","7.7","NY ALESUND, SV","FM-12","4","","","","","","+0.02","7","","FEW:02 20","","30.04","46.60","","106","","6","","","","","","","","","","","","","","","","","","","","","","","","","","","","","","","","","","","","","","","","","","","","","","","","","","","","","","","","","","","","","","","","","","","","","","","","","","","","","","","","","","","","","","","","","","","SYN004BUFR","","","","","","","","","",""
"01007099999","2021-07-11T14:00:00","78.9166666","11.9333333","7.7","NY ALESUND, SV","FM-12","4","","","","","","+0.03","7","","","","30.03","","","110","","8","","","","","","","","","","","","","","","","","","","","","","","","","","","","","","","","","","","","","","","","","","","","","","","","","","","","","","","","","","","","","","","","","","","","","","","","","","","","","","","","","","","","","","","","","","","SYN004BUFR","","","","","","","","","",""
"01007099999","2021-07-11T16:00:00","78.9166666","11.9333333","7.7","NY ALESUND, SV","FM-12","4","","","","","","+0.03","7","","","","30.01","","","113","","7","","","","","","","","","","","","","","","","","","","","","","","","","","","","","","","","","","","","","","","","","","","","","","","","","","","","","","","","","","","","","","","","","","","","","","","","","","","","","","","","","","","","","","","","","","","SYN004BUFR","","","","","","","","","",""
"01007099999","2021-07-11T22:00:00","78.9166666","11.9333333","7.7","NY ALESUND, SV","FM-12","4","","","","","","+0.02","7","","","","29.95","","","249","17","12","","","","","","","","","","","","","","","","","","","","","","","","","","","","","","","","","","","","","","","","","","","","","","","","","","","","","","","","","","","","","","","","","","","","","","","","","","","","","","","","","","","","","","","","","","","SYN004BUFR","","","","","","","","","",""
"01007099999","2021-07-12T01:00:00","78.9166666","11.9333333","7.7","NY ALESUND, SV","FM-12","4","","","","","","+0.03","7","","","","29.92","","","253","20","13","","","","","","","","","","","","","","","","","","","","","","","","","","","","","","","","","","","","","","","","","","","","","","","","","","","","","","","","","","","","","","","","","","","","","","","","","","","","","","","","","","","","","","","","","","","SYN004BUFR","","","","","","","","","",""
"01007099999","2021-07-12T16:00:00","78.9166666","11.9333333","7.7","NY ALESUND, SV","FM-12","4","","","","","","+0.03","7","","","","29.80","","","123","15","11","","","","","","","","","","","","","","","","","","","","","","","","","","","","","","","","","","","","","","","","","","","","","","","","","","","","","","","","","","","","","","","","","","","","","","","","","","","","","","","","","","","","","","","","","","","SYN004BUFR","","","","","","","","","",""
"01007099999","2021-07-12T17:00:00","78.9166666","11.9333333","7.7","NY ALESUND, SV","FM-12","4","","","","","","+0.03","8","","","","29.79","","","114","21","17","","","","","","","","","","","","","","","","","","","","","","","","","","","","","","","","","","","","","","","","","","","","","","","","","","","","","","","","","","","","","","","","","","","","","","","","","","","","","","","","","","","","","","","","","","","SYN004BUFR","","","","","","","","","",""
"01007099999","2021-07-12T18:00:00","78.9166666","11.9333333","7.7","NY ALESUND, SV","FM-12","4","","","","","","+0.03","6","","","","29.78","","","120","24","20","","","","","","","","","","","","","","","","","","","","","","","","","","","","","","","","","","","","","","","","","","","","","","","","","","","","","","","","","","","","","","","","","","","","","","","","","","","","","","","","","","","","","","","","","","","SYN004BUFR","","","","","","","","","",""
"01007099999","2021-07-12T22:00:00","78.9166666","11.9333333","7.7","NY ALESUND, SV","FM-12","4","","","","","","+0.03","6","","","","29.74","","","116","14","11","","","","","","","","","","","","","","","","","","","","","","","","","","","","","","","","","","","","","","","","","","","","","","","","","","","","","","","","","","","","","","","","","","","","","","","","","","","","","","","","","","","","","","","","","","","SYN004BUFR","","","","","","","","","",""
"01007099999","2021-07-13T01:00:00","78.9166666","11.9333333","7.7","NY ALESUND, SV","FM-12","4","","","","","","+0.03","8","","","","29.72","","","120","14","5","","","","","","","","","","","","","","","","","","","","","","","","","","","","","","","","","","","","","","","","","","","","","","","","","","","","","","","","","","","","","","","","","","","","","","","","","","","","","","","","","","","","","","","","","","","SYN004BUFR","","","","","","","","","",""
"01007099999","2021-07-13T04:00:00","78.9166666","11.9333333","7.7","NY ALESUND, SV","FM-12","4","","","","","","+0.02","7","","","","29.69","","","242","12","6","","","","","","","","","","","","","","","","","","","","","","","","","","","","","","","","","","","","","","","","","","","","","","","","","","","","","","","","","","","","","","","","","","","","","","","","","","","","","","","","","","","","","","","","","","","SYN004BUFR","","","","","","","","","",""
"01007099999","2021-07-13T22:00:00","78.9166666","11.9333333","7.7","NY ALESUND, SV","FM-12","4","","","","","","-0.01","3","","","","29.67","","","192","17","3","","","","","","","","","","","","","","","","","","","","","","","","","","","","","","","","","","","","","","","","","","","","","","","","","","","","","","","","","","","","","","","","","","","","","","","","","","","","","","","","","","","","","","","","","","","SYN004BUFR","","","","","","","","","",""
"01007099999","2021-07-14T01:00:00","78.9166666","11.9333333","7.7","NY ALESUND, SV","FM-12","4","","","","","","-0.00","0","","","","29.67","","","274","11","5","","","","","","","","","","","","","","","","","","","","","","","","","","","","","","","","","","","","","","","","","","","","","","","","","","","","","","","","","","","","","","","","","","","","","","","","","","","","","","","","","","","","","","","","","","","SYN004BUFR","","","","","","","","","",""
"01007099999","2021-07-14T04:00:00","78.9166666","11.9333333","7.7","NY ALESUND, SV","FM-12","4","","","","","","0.00","4","","","","29.67","","","103","","4","","","","","","","","","","","","","","","","","","","","","","","","","","","","","","","","","","","","","","","","","","","","","","","","","","","","","","","","","","","","","","","","","","","","","","","","","","","","","","","","","","","","","","","","","","","SYN004BUFR","","","","","","","","","",""
"01007099999","2021-07-14T07:00:00","78.9166666","11.9333333","7.7","NY ALESUND, SV","FM-12","4","","","","","","+0.02","7","","FEW:01 10","","29.65","37.28","","057","11","3","","","","","","","","","","","","","","","","","","","","","","","","","","","","","","","","","","","","","","","","","","","","","","","","","","","","","","","","","","","","","","","","","","","","","","","","","","","","","","","","","","","","","","","","","","","SYN004BUFR","","","","","","","","","",""
"01007099999","2021-07-14T13:00:00","78.9166666","11.9333333","7.7","NY ALESUND, SV","FM-12","4","","","","","","-0.01","2","","OVC:08 20","","29.65","31.07","","107","19","11","","","","","","","","","","","","","","","","","","","","","","","","","","","","","","","","","","","","","","","","","","","","","","","","","","","","","","","","","","","","","","","","","","","","","","","","","","","","","","","","","","","","","","","","","","","SYN004BUFR","","","","","","","","","",""
"01007099999","2021-07-14T16:00:00","78.9166666","11.9333333","7.7","NY ALESUND, SV","FM-12","4","","","","","","+0.01","7","","","","29.64","","","130","14","6","","","","","","","","","","","","","","","","","","","","","","","","","","","","","","","","","","","","","","","","","","","","","","","","","","","","","","","","","","","","","","","","","","","","","","","","","","","","","","","","","","","","","","","","","","","SYN004BUFR","","","","","","","","","",""
"01007099999","2021-07-14T22:00:00","78.9166666","11.9333333","7.7","NY ALESUND, SV","FM-12","4","","","","","","+0.01","7","","","","29.61","","","265","","1","","","","","","","","","","","","","","","","","","","","","","","","","","","","","","","","","","","","","","","","","","","","","","","","","","","","","","","","","","","","","","","","","","","","","","","","","","","","","","","","","","","","","","","","","","","SYN004BUFR","","","","","","","","","",""
"01007099999","2021-07-15T22:00:00","78.9166666","11.9333333","7.7","NY ALESUND, SV","FM-12","4","","","","","","+0.00","7","","","","29.62","","","118","","3","","","","","","","","","","","","","","","","","","","","","","","","","","","","","","","","","","","","","","","","","","","","","","","","","","","","","","","","","","","","","","","","","","","","","","","","","","","","","","","","","","","","","","","","","","","SYN004BUFR","","","","","","","","","",""
"01007099999","2021-07-16T04:00:00","78.9166666","11.9333333","7.7","NY ALESUND, SV","FM-12","4","","","","","","+0.01","7","","","","29.60","","","099","","2","","","","","","","","","","","","","","","","","","","","","","","","","","","","","","","","","","","","","","","","","","","","","","","","","","","","","","","","","","","","","","","","","","","","","","","","","","","","","","","","","","","","","","","","","","","SYN004BUFR","","","","","","","","","",""
"01007099999","2021-07-16T22:00:00","78.9166666","11.9333333","7.7","NY ALESUND, SV","FM-12","4","","","","","","+0.02","7","","","","29.50","","","360","","0","","","","","","","","","","","","","","","","","","","","","","","","","","","","","","","","","","","","","","","","","","","","","","","","","","","","","","","","","","","","","","","","","","","","","","","","","","","","","","","","","","","","","","","","","","","SYN004BUFR","","","","","","","","","",""
"01007099999","2021-07-17T04:00:00","78.9166666","11.9333333","7.7","NY ALESUND, SV","FM-12","4","","","","","","+0.06","7","","","","29.40","","","109","","3","","","","","","","","","","","","","","","","","","","","","","","","","","","","","","","","","","","","","","","","","","","","","","","","","","","","","","","","","","","","","","","","","","","","","","","","","","","","","","","","","","","","","","","","","","","SYN004BUFR","","","","","","","","","",""
"01007099999","2021-07-17T13:00:00","78.9166666","11.9333333","7.7","NY ALESUND, SV","FM-12","4","","","","","","+0.03","7","","82","","29.31","12.43","","351","12","8","","","","","","","","","","","","","","","","","","","","","","","","","","","","","","","","","","","","","","","","","","","","","","","","","","","","","","","","","","","","","","","","","","","","","","","","","","","","","","","","","","","","","","","","","","","SYN004BUFR","","","","","","","","","",""
"01007099999","2021-07-18T07:00:00","78.9166666","11.9333333","7.7","NY ALESUND, SV","FM-12","4","","","","","","+0.05","7","","OVC:08 7","","29.19","18.64","","124","","2","","","","","","","","","","","","","","","","","","","","","","","","","","","","","","","","","","","","","","","","","","","","","","","","","","","","","","","","","","","","","","","","","","","","","","","","","","","","","","","","","","","","","","","","","","","SYN004BUFR","","","","","","","","","",""
"01007099999","2021-07-18T16:00:00","78.9166666","11.9333333","7.7","NY ALESUND, SV","FM-12","4","","","","","","-0.01","2","","","","29.18","","","051","","2","","","","","","","","","","","","","","","","","","","","","","","","","","","","","","","","","","","","","","","","","","","","","","","","","","","","","","","","","","","","","","","","","","","","","","","","","","","","","","","","","","","","","","","","","","","SYN004BUFR","","","","","","","","","",""
"01007099999","2021-07-19T22:00:00","78.9166666","11.9333333","7.7","NY ALESUND, SV","FM-12","4","","","","","","-0.02","2","","","","29.34","","","109","11","9","","","","","","","","","","","","","","","","","","","","","","","","","","","","","","","","","","","","","","","","","","","","","","","","","","","","","","","","","","","","","","","","","","","","","","","","","","","","","","","","","","","","","","","","","","","SYN004BUFR","","","","","","","","","",""
"01007099999","2021-07-20T22:00:00","78.9166666","11.9333333","7.7","NY ALESUND, SV","FM-12","4","","","","","","+0.02","7","","","","29.27","","","309","18","15","","","","","","","","","","","","","","","","","","","","","","","","","","","","","","","","","","","","","","","","","","","","","","","","","","","","","","","","","","","","","","","","","","","","","","","","","","","","","","","","","","","","","","","","","","","SYN004BUFR","","","","","","","","","",""
"01007099999","2021-07-21T10:00:00","78.9166666","11.9333333","7.7","NY ALESUND, SV","FM-12","4","","","","","","-0.04","2","","","","29.31","","","103","","3","","","","","","","","","","","","","","","","","","","","","","","","","","","","","","","","","","","","","","","","","","","","","","","","","","","","","","","","","","","","","","","","","","","","","","","","","","","","","","","","","","","","","","","","","","","SYN004BUFR","","","","","","","","","",""
"01007099999","2021-07-21T13:00:00","78.9166666","11.9333333","7.7","NY ALESUND, SV","FM-12","4","","","","","","-0.04","2","","FEW:01 49","","29.36","31.07","","100","14","3","","","","","","","","","","","","","","","","","","","","","","","","","","","","","","","","","","","","","","","","","","","","","","","","","","","","","","","","","","","","","","","","","","","","","","","","","","","","","","","","","","","","","","","","","","","SYN004BUFR","","","","","","","","","",""
"01007099999","2021-07-21T16:00:00","78.9166666","11.9333333","7.7","NY ALESUND, SV","FM-12","4","","","","","","-0.05","2","","","","29.41","","","061","","2","","","","","","","","","","","","","","","","","","","","","","","","","","","","","","","","","","","","","","","","","","","","","","","","","","","","","","","","","","","","","","","","","","","","","","","","","","","","","","","","","","","","","","","","","","","SYN004BUFR","","","","","","","","","",""
"01007099999","2021-07-22T01:00:00","78.9166666","11.9333333","7.7","NY ALESUND, SV","FM-12","4","","","","","","-0.03","2","","","","29.53","","","105","","0","","","","","","","","","","","","","","","","","","","","","","","","","","","","","","","","","","","","","","","","","","","","","","","","","","","","","","","","","","","","","","","","","","","","","","","","","","","","","","","","","","","","","","","","","","","SYN004BUFR","","","","","","","","","",""
"01007099999","2021-07-22T10:00:00","78.9166666","11.9333333","7.7","NY ALESUND, SV","FM-12","4","","","","","","-0.01","2","","","","29.59","","","107","","4","","","","","","","","","","","","","","","","","","","","","","","","","","","","","","","","","","","","","","","","","","","","","","","","","","","","","","","","","","","","","","","","","","","","","","","","","","","","","","","","","","","","","","","","","","","SYN004BUFR","","","","","","","","","",""
"01007099999","2021-07-22T16:00:00","78.9166666","11.9333333","7.7","NY ALESUND, SV","FM-12","4","","","","","","-0.01","2","","","","29.62","","","345","12","8","","","","","","","","","","","","","","","","","","","","","","","","","","","","","","","","","","","","","","","","","","","","","","","","","","","","","","","","","","","","","","","","","","","","","","","","","","","","","","","","","","","","","","","","","","","SYN004BUFR","","","","","","","","","",""
"01007099999","2021-07-22T22:00:00","78.9166666","11.9333333","7.7","NY ALESUND, SV","FM-12","4","","","","","","-0.02","2","","","","29.64","","","005","","4","","","","","","","","","","","","","","","","","","","","","","","","","","","","","","","","","","","","","","","","","","","","","","","","","","","","","","","","","","","","","","","","","","","","","","","","","","","","","","","","","","","","","","","","","","","SYN004BUFR","","","","","","","","","",""
"01007099999","2021-07-23T01:00:00","78.9166666","11.9333333","7.7","NY ALESUND, SV","FM-12","4","","","","","","-0.01","3","","","","29.65","","","347","","2","","","","","","","","","","","","","","","","","","","","","","","","","","","","","","","","","","","","","","","","","","","","","","","","","","","","","","","","","","","","","","","","","","","","","","","","","","","","","","","","","","","","","","","","","","","SYN004BUFR","","","","","","","","","",""
"01007099999","2021-07-23T16:00:00","78.9166666","11.9333333","7.7","NY ALESUND, SV","FM-12","4","","","","","","-0.01","0","","","","29.70","","","350","","6","","","","","","","","","","","","","","","","","","","","","","","","","","","","","","","","","","","","","","","","","","","","","","","","","","","","","","","","","","","","","","","","","","","","","","","","","","","","","","","","","","","","","","","","","","","SYN004BUFR","","","","","","","","","",""
"01007099999","2021-07-24T04:00:00","78.9166666","11.9333333","7.7","NY ALESUND, SV","FM-12","4","","","","","","+0.01","8","","","","29.67","","","045","","2","","","","","","","","","","","","","","","","","","","","","","","","","","","","","","","","","","","","","","","","","","","","","","","","","","","","","","","","","","","","","","","","","","","","","","","","","","","","","","","","","","","","","","","","","","","SYN004BUFR","","","","","","","","","",""
"01007099999","2021-07-24T16:00:00","78.9166666","11.9333333","7.7","NY ALESUND, SV","FM-12","4","","","","","","-0.03","2","","","","29.70","","","324","20","15","","","","","","","","","","","","","","","","","","","","","","","","","","","","","","","","","","","","","","","","","","","","","","","","","","","","","","","","","","","","","","","","","","","","","","","","","","","","","","","","","","","","","","","","","","","SYN004BUFR","","","","","","","","","",""
"01007099999","2021-07-24T22:00:00","78.9166666","11.9333333","7.7","NY ALESUND, SV","FM-12","4","","","","","","-0.02","2","","","","29.74","","","013","","4","","","","","","","","","","","","","","","","","","","","","","","","","","","","","","","","","","","","","","","","","","","","","","","","","","","","","","","","","","","","","","","","","","","","","","","","","","","","","","","","","","","","","","","","","","","SYN004BUFR","","","","","","","","","",""
"01007099999","2021-07-24T23:00:00","78.9166666","11.9333333","7.7","NY ALESUND, SV","FM-12","4","","","","","","-0.02","2","","","","29.75","","","054","","4","","","","","","","","","","","","","","","","","","","","","","","","","","","","","","","","","","","","","","","","","","","","","","","","","","","","","","","","","","","","","","","","","","","","","","","","","","","","","","","","","","","","","","","","","","","SYN004BUFR","","","","","","","","","",""
"01007099999","2021-07-25T01:00:00","78.9166666","11.9333333","7.7","NY ALESUND, SV","FM-12","4","","","","","","-0.02","2","","","","29.76","","","089","","2","","","","","","","","","","","","","","","","","","","","","","","","","","","","","","","","","","","","","","","","","","","","","","","","","","","","","","","","","","","","","","","","","","","","","","","","","","","","","","","","","","","","","","","","","","","SYN004BUFR","","","","","","","","","",""
"01007099999","2021-07-26T01:00:00","78.9166666","11.9333333","7.7","NY ALESUND, SV","FM-12","4","","","","","","-0.04","2","","","","30.06","","","346","","4","","","","","","","","","","","","","","","","","","","","","","","","","","","","","","","","","","","","","","","","","","","","","","","","","","","","","","","","","","","","","","","","","","","","","","","","","","","","","","","","","","","","","","","","","","","SYN004BUFR","","","","","","","","","",""
"01007099999","2021-07-26T10:00:00","78.9166666","11.9333333","7.7","NY ALESUND, SV","FM-12","4","","","","","","-0.01","2","","","","30.09","","","350","","3","","","","","","","","","","","","","","","","","","","","","","","","","","","","","","","","","","","","","","","","","","","","","","","","","","","","","","","","","","","","","","","","","","","","","","","","","","","","","","","","","","","","","","","","","","","SYN004BUFR","","","","","","","","","",""
"01007099999","2021-07-26T11:00:00","78.9166666","11.9333333","7.7","NY ALESUND, SV","FM-12","4","","","","","","-0.01","2","","","","30.10","","","002","","5","","","","","","","","","","","","","","","","","","","","","","","","","","","","","","","","","","","","","","","","","","","","","","","","","","","","","","","","","","","","","","","","","","","","","","","","","","","","","","","","","","","","","","","","","","","SYN004BUFR","","","","","","","","","",""
"01007099999","2021-07-26T16:00:00","78.9166666","11.9333333","7.7","NY ALESUND, SV","FM-12","4","","","","","","+0.01","7","","","","30.08","","","243","15","9","","","","","","","","","","","","","","","","","","","","","","","","","","","","","","","","","","","","","","","","","","","","","","","","","","","","","","","","","","","","","","","","","","","","","","","","","","","","","","","","","","","","","","","","","","","SYN004BUFR","","","","","","","","","",""
"01007099999","2021-07-27T01:00:00","78.9166666","11.9333333","7.7","NY ALESUND, SV","FM-12","4","","","","","","+0.01","8","","","","30.04","","","131","11","2","","","","","","","","","","","","","","","","","","","","","","","","","","","","","","","","","","","","","","","","","","","","","","","","","","","","","","","","","","","","","","","","","","","","","","","","","","","","","","","","","","","","","","","","","","","SYN004BUFR","","","","","","","","","",""
"01007099999","2021-07-27T22:00:00","78.9166666","11.9333333","7.7","NY ALESUND, SV","FM-12","4","","","","","","+0.01","7","","","","30.01","","","360","","0","","","","","","","","","","","","","","","","","","","","","","","","","","","","","","","","","","","","","","","","","","","","","","","","","","","","","","","","","","","","","","","","","","","","","","","","","","","","","","","","","","","","","","","","","","","SYN004BUFR","","","","","","","","","",""
"01007099999","2021-07-28T10:00:00","78.9166666","11.9333333","7.7","NY ALESUND, SV","FM-12","4","","","","","","+0.01","7","","","","29.98","","","108","","2","","","","","","","","","","","","","","","","","","","","","","","","","","","","","","","","","","","","","","","","","","","","","","","","","","","","","","","","","","","","","","","","","","","","","","","","","","","","","","","","","","","","","","","","","","","SYN004BUFR","","","","","","","","","",""
"01007099999","2021-07-29T10:00:00","78.9166666","11.9333333","7.7","NY ALESUND, SV","FM-12","4","","","","","","+0.01","6","","","","29.86","","","088","14","6","","","","","","","","","","","","","","","","","","","","","","","","","","","","","","","","","","","","","","","","","","","","","","","","","","","","","","","","","","","","","","","","","","","","","","","","","","","","","","","","","","","","","","","","","","","SYN004BUFR","","","","","","","","","",""
"01007099999","2021-07-29T16:00:00","78.9166666","11.9333333","7.7","NY ALESUND, SV","FM-12","4","","","","","","+0.01","7","","","","29.84","","","090","","5","","","","","","","","","","","","","","","","","","","","","","","","","","","","","","","","","","","","","","","","","","","","","","","","","","","","","","","","","","","","","","","","","","","","","","","","","","","","","","","","","","","","","","","","","","","SYN004BUFR","","","","","","","","","",""
"01007099999","2021-07-30T04:00:00","78.9166666","11.9333333","7.7","NY ALESUND, SV","FM-12","4","","","","","","+0.02","8","","","","29.77","","","128","","2","","","","","","","","","","","","","","","","","","","","","","","","","","","","","","","","","","","","","","","","","","","","","","","","","","","","","","","","","","","","","","","","","","","","","","","","","","","","","","","","","","","","","","","","","","","SYN004BUFR","","","","","","","","","",""
"01007099999","2021-07-30T10:00:00","78.9166666","11.9333333","7.7","NY ALESUND, SV","FM-12","4","","","","","","+0.01","8","","","","29.74","","","118","","5","","","","","","","","","","","","","","","","","","","","","","","","","","","","","","","","","","","","","","","","","","","","","","","","","","","","","","","","","","","","","","","","","","","","","","","","","","","","","","","","","","","","","","","","","","","SYN004BUFR","","","","","","","","","",""
"01007099999","2021-07-30T14:00:00","78.9166666","11.9333333","7.7","NY ALESUND, SV","FM-12","4","","","","","","+0.01","7","","","","29.72","","","113","","4","","","","","","","","","","","","","","","","","","","","","","","","","","","","","","","","","","","","","","","","","","","","","","","","","","","","","","","","","","","","","","","","","","","","","","","","","","","","","","","","","","","","","","","","","","","SYN004BUFR","","","","","","","","","",""
"01007099999","2021-07-30T16:00:00","78.9166666","11.9333333","7.7","NY ALESUND, SV","FM-12","4","","","","","","+0.01","7","","","","29.72","","","259","","2","","","","","","","","","","","","","","","","","","","","","","","","","","","","","","","","","","","","","","","","","","","","","","","","","","","","","","","","","","","","","","","","","","","","","","","","","","","","","","","","","","","","","","","","","","","SYN004BUFR","","","","","","","","","",""
"01007099999","2021-07-30T22:00:00","78.9166666","11.9333333","7.7","NY ALESUND, SV","FM-12","4","","","","","","-0.04","2","","","","29.78","","","106","21","18","","","","","","","","","","","","","","","","","","","","","","","","","","","","","","","","","","","","","","","","","","","","","","","","","","","","","","","","","","","","","","","","","","","","","","","","","","","","","","","","","","","","","","","","","","","SYN004BUFR","","","","","","","","","",""
"01007099999","2021-07-31T01:00:00","78.9166666","11.9333333","7.7","NY ALESUND, SV","FM-12","4","","","","","","-0.04","2","","","","29.82","","","121","18","11","","","","","","","","","","","","","","","","","","","","","","","","","","","","","","","","","","","","","","","","","","","","","","","","","","","","","","","","","","","","","","","","","","","","","","","","","","","","","","","","","","","","","","","","","","","SYN004BUFR","","","","","","","","","",""
"01007099999","2021-07-31T04:00:00","78.9166666","11.9333333","7.7","NY ALESUND, SV","FM-12","4","","","","","","-0.01","2","","","","29.83","","","118","","3","","","","","","","","","","","","","","","","","","","","","","","","","","","","","","","","","","","","","","","","","","","","","","","","","","","","","","","","","","","","","","","","","","","","","","","","","","","","","","","","","","","","","","","","","","","SYN004BUFR","","","","","","","","","",""
"01007099999","2021-07-31T16:00:00","78.9166666","11.9333333","7.7","NY ALESUND, SV","FM-12","4","","","","","","+0.03","7","","","","29.77","","","097","","4","","","","","","","","","","","","","","","","","","","","","","","","","","","","","","","","","","","","","","","","","","","","","","","","","","","","","","","","","","","","","","","","","","","","","","","","","","","","","","","","","","","","","","","","","","","SYN004BUFR","","","","","","","","","",""
"01007099999","2021-08-01T01:00:00","78.9166666","11.9333333","7.7","NY ALESUND, SV","FM-12","4","","","","","","-0.01","0","","","","29.76","","","130","20","6","","","","","","","","","","","","","","","","","","","","","","","","","","","","","","","","","","","","","","","","","","","","","","","","","","","","","","","","","","","","","","","","","","","","","","","","","","","","","","","","","","","","","","","","","","","SYN004BUFR","","","","","","","","","",""
"01007099999","2021-08-01T13:00:00","78.9166666","11.9333333","7.7","NY ALESUND, SV","FM-12","4","","","","","","+0.00","7","","SCT:04 49","","29.74","46.60","","031","","3","","","","","","","","","","","","","","","","","","","","","","","","","","","","","","","","","","","","","","","","","","","","","","","","","","","","","","","","","","","","","","","","","","","","","","","","","","","","","","","","","","","","","","","","","","","SYN004BUFR","","","","","","","","","",""
"01007099999","2021-08-01T16:00:00","78.9166666","11.9333333","7.7","NY ALESUND, SV","FM-12","4","","","","","","+0.02","7","","","","29.72","","","097","","2","","","","","","","","","","","","","","","","","","","","","","","","","","","","","","","","","","","","","","","","","","","","","","","","","","","","","","","","","","","","","","","","","","","","","","","","","","","","","","","","","","","","","","","","","","","SYN004BUFR","","","","","","","","","",""
"01007099999","2021-08-02T04:00:00","78.9166666","11.9333333","7.7","NY ALESUND, SV","FM-12","4","","","","","","+0.01","7","","","","29.65","","","328","","3","","","","","","","","","","","","","","","","","","","","","","","","","","","","","","","","","","","","","","","","","","","","","","","","","","","","","","","","","","","","","","","","","","","","","","","","","","","","","","","","","","","","","","","","","","","SYN004BUFR","","","","","","","","","",""
"01007099999","2021-08-02T10:00:00","78.9166666","11.9333333","7.7","NY ALESUND, SV","FM-12","4","","","","","","+0.01","7","","","","29.63","","","097","","2","","","","","","","","","","","","","","","","","","","","","","","","","","","","","","","","","","","","","","","","","","","","","","","","","","","","","","","","","","","","","","","","","","","","","","","","","","","","","","","","","","","","","","","","","","","SYN004BUFR","","","","","","","","","",""
"01007099999","2021-08-02T16:00:00","78.9166666","11.9333333","7.7","NY ALESUND, SV","FM-12","4","","","","","","+0.02","7","","","","29.60","","","087","","2","","","","","","","","","","","","","","","","","","","","","","","","","","","","","","","","","","","","","","","","","","","","","","","","","","","","","","","","","","","","","","","","","","","","","","","","","","","","","","","","","","","","","","","","","","","SYN004BUFR","","","","","","","","","",""
"01007099999","2021-08-03T04:00:00","78.9166666","11.9333333","7.7","NY ALESUND, SV","FM-12","4","","","","","","+0.01","6","","","","29.49","","","115","20","18","","","","","","","","","","","","","","","","","","","","","","","","","","","","","","","","","","","","","","","","","","","","","","","","","","","","","","","","","","","","","","","","","","","","","","","","","","","","","","","","","","","","","","","","","","","SYN004BUFR","","","","","","","","","",""
"01007099999","2021-08-03T10:00:00","78.9166666","11.9333333","7.7","NY ALESUND, SV","FM-12","4","","","","","","-0.04","3","","","","29.55","","","116","23","8","","","","","","","","","","","","","","","","","","","","","","","","","","","","","","","","","","","","","","","","","","","","","","","","","","","","","","","","","","","","","","","","","","","","","","","","","","","","","","","","","","","","","","","","","","","SYN004BUFR","","","","","","","","","",""
"01007099999","2021-08-03T11:00:00","78.9166666","11.9333333","7.7","NY ALESUND, SV","FM-12","4","","","","","","-0.02","0","","","","29.55","","","116","24","20","","","","","","","","","","","","","","","","","","","","","","","","","","","","","","","","","","","","","","","","","","","","","","","","","","","","","","","","","","","","","","","","","","","","","","","","","","","","","","","","","","","","","","","","","","","SYN004BUFR","","","","","","","","","",""
"01007099999","2021-08-04T10:00:00","78.9166666","11.9333333","7.7","NY ALESUND, SV","FM-12","4","","","","","","-0.02","2","","","","29.75","","","102","25","21","","","","","","","","","","","","","","","","","","","","","","","","","","","","","","","","","","","","","","","","","","","","","","","","","","","","","","","","","","","","","","","","","","","","","","","","","","","","","","","","","","","","","","","","","","","SYN004BUFR","","","","","","","","","",""
"01007099999","2021-08-04T16:00:00","78.9166666","11.9333333","7.7","NY ALESUND, SV","FM-12","4","","","","","","+0.01","7","","","","29.74","","","125","16","12","","","","","","","","","","","","","","","","","","","","","","","","","","","","","","","","","","","","","","","","","","","","","","","","","","","","","","","","","","","","","","","","","","","","","","","","","","","","","","","","","","","","","","","","","","","SYN004BUFR","","","","","","","","","",""
"01007099999","2021-08-05T16:00:00","78.9166666","11.9333333","7.7","NY ALESUND, SV","FM-12","4","","","","","","","","","","","29.56","","","118","","4","","","","","","","","","","","","","","","","","","","","","","","","","","","","","","","","","","","","","","","","","","","","","","","","","","","","","","","","","","","","","","","","","","","","","","","","","","","","","","","","","","","","","","","","","","","SYN004BUFR","","","","","","","","","",""
"01007099999","2021-08-05T22:00:00","78.9166666","11.9333333","7.7","NY ALESUND, SV","FM-12","4","","","","","","-0.01","2","","","","29.59","","","097","","2","","","","","","","","","","","","","","","","","","","","","","","","","","","","","","","","","","","","","","","","","","","","","","","","","","","","","","","","","","","","","","","","","","","","","","","","","","","","","","","","","","","","","","","","","","","SYN004BUFR","","","","","","","","","",""
"01007099999","2021-08-06T04:00:00","78.9166666","11.9333333","7.7","NY ALESUND, SV","FM-12","4","","","","","","-0.04","2","","","","29.65","","","120","12","8","","","","","","","","","","","","","","","","","","","","","","","","","","","","","","","","","","","","","","","","","","","","","","","","","","","","","","","","","","","","","","","","","","","","","","","","","","","","","","","","","","","","","","","","","","","SYN004BUFR","","","","","","","","","",""
"01007099999","2021-08-06T10:00:00","78.9166666","11.9333333","7.7","NY ALESUND, SV","FM-12","4","","","","","","-0.04","2","","","","29.70","","","114","25","20","","","","","","","","","","","","","","","","","","","","","","","","","","","","","","","","","","","","","","","","","","","","","","","","","","","","","","","","","","","","","","","","","","","","","","","","","","","","","","","","","","","","","","","","","","","SYN004BUFR","","","","","","","","","",""
"01007099999","2021-08-06T16:00:00","78.9166666","11.9333333","7.7","NY ALESUND, SV","FM-12","4","","","","","","-0.04","1","","","","29.78","","","131","13","9","","","","","","","","","","","","","","","","","","","","","","","","","","","","","","","","","","","","","","","","","","","","","","","","","","","","","","","","","","","","","","","","","","","","","","","","","","","","","","","","","","","","","","","","","","","SYN004BUFR","","","","","","","","","",""
"01007099999","2021-08-07T04:00:00","78.9166666","11.9333333","7.7","NY ALESUND, SV","FM-12","4","","","","","","+0.02","6","","","","29.74","","","121","28","23","","","","","","","","","","","","","","","","","","","","","","","","","","","","","","","","","","","","","","","","","","","","","","","","","","","","","","","","","","","","","","","","","","","","","","","","","","","","","","","","","","","","","","","","","","","SYN004BUFR","","","","","","","","","",""
"01007099999","2021-08-07T10:00:00","78.9166666","11.9333333","7.7","NY ALESUND, SV","FM-12","4","","","","","","-0.05","2","","","","29.83","","","109","15","11","","","","","","","","","","","","","","","","","","","","","","","","","","","","","","","","","","","","","","","","","","","","","","","","","","","","","","","","","","","","","","","","","","","","","","","","","","","","","","","","","","","","","","","","","","","SYN004BUFR","","","","","","","","","",""
"01007099999","2021-08-08T04:00:00","78.9166666","11.9333333","7.7","NY ALESUND, SV","FM-12","4","","","","","","-0.01","2","","","","30.04","","","352","","3","","","","","","","","","","","","","","","","","","","","","","","","","","","","","","","","","","","","","","","","","","","","","","","","","","","","","","","","","","","","","","","","","","","","","","","","","","","","","","","","","","","","","","","","","","","SYN004BUFR","","","","","","","","","",""
"01007099999","2021-08-08T10:00:00","78.9166666","11.9333333","7.7","NY ALESUND, SV","FM-12","4","","","","","","-0.01","2","","","","30.07","","","156","16","7","","","","","","","","","","","","","","","","","","","","","","","","","","","","","","","","","","","","","","","","","","","","","","","","","","","","","","","","","","","","","","","","","","","","","","","","","","","","","","","","","","","","","","","","","","","SYN004BUFR","","","","","","","","","",""
"01007099999","2021-08-08T16:00:00","78.9166666","11.9333333","7.7","NY ALESUND, SV","FM-12","4","","","","","","-0.01","2","","","","30.07","","","182","19","3","","","","","","","","","","","","","","","","","","","","","","","","","","","","","","","","","","","","","","","","","","","","","","","","","","","","","","","","","","","","","","","","","","","","","","","","","","","","","","","","","","","","","","","","","","","SYN004BUFR","","","","","","","","","",""
"01007099999","2021-08-09T01:00:00","78.9166666","11.9333333","7.7","NY ALESUND, SV","FM-12","4","","","","","","+0.00","7","","","","30.07","","","133","17","9","","","","","","","","","","","","","","","","","","","","","","","","","","","","","","","","","","","","","","","","","","","","","","","","","","","","","","","","","","","","","","","","","","","","","","","","","","","","","","","","","","","","","","","","","","","SYN004BUFR","","","","","","","","","",""
"01007099999","2021-08-09T22:00:00","78.9166666","11.9333333","7.7","NY ALESUND, SV","FM-12","4","","","","","","+0.02","6","","","","29.95","","","128","","4","","","","","","","","","","","","","","","","","","","","","","","","","","","","","","","","","","","","","","","","","","","","","","","","","","","","","","","","","","","","","","","","","","","","","","","","","","","","","","","","","","","","","","","","","","","SYN004BUFR","","","","","","","","","",""
"01007099999","2021-08-10T04:00:00","78.9166666","11.9333333","7.7","NY ALESUND, SV","FM-12","4","","","","","","+0.03","7","","","","29.91","","","144","","2","","","","","","","","","","","","","","","","","","","","","","","","","","","","","","","","","","","","","","","","","","","","","","","","","","","","","","","","","","","","","","","","","","","","","","","","","","","","","","","","","","","","","","","","","","","SYN004BUFR","","","","","","","","","",""
"01007099999","2021-08-10T16:00:00","78.9166666","11.9333333","7.7","NY ALESUND, SV","FM-12","4","","","","","","+0.03","7","","","","29.85","","","332","","5","","","","","","","","","","","","","","","","","","","","","","","","","","","","","","","","","","","","","","","","","","","","","","","","","","","","","","","","","","","","","","","","","","","","","","","","","","","","","","","","","","","","","","","","","","","SYN004BUFR","","","","","","","","","",""
"01007099999","2021-08-11T22:00:00","78.9166666","11.9333333","7.7","NY ALESUND, SV","FM-12","4","","","","","","-0.01","2","","","","29.58","","","322","","4","","","","","","","","","","","","","","","","","","","","","","","","","","","","","","","","","","","","","","","","","","","","","","","","","","","","","","","","","","","","","","","","","","","","","","","","","","","","","","","","","","","","","","","","","","","SYN004BUFR","","","","","","","","","",""
"01007099999","2021-08-12T01:00:00","78.9166666","11.9333333","7.7","NY ALESUND, SV","FM-12","4","","","","","","+0.01","7","","","","29.57","","","102","","3","","","","","","","","","","","","","","","","","","","","","","","","","","","","","","","","","","","","","","","","","","","","","","","","","","","","","","","","","","","","","","","","","","","","","","","","","","","","","","","","","","","","","","","","","","","SYN004BUFR","","","","","","","","","",""
"01007099999","2021-08-12T04:00:00","78.9166666","11.9333333","7.7","NY ALESUND, SV","FM-12","4","","","","","","+0.01","6","","","","29.56","","","122","","5","","","","","","","","","","","","","","","","","","","","","","","","","","","","","","","","","","","","","","","","","","","","","","","","","","","","","","","","","","","","","","","","","","","","","","","","","","","","","","","","","","","","","","","","","","","SYN004BUFR","","","","","","","","","",""
"01007099999","2021-08-13T10:00:00","78.9166666","11.9333333","7.7","NY ALESUND, SV","FM-12","4","","","","","","-0.03","0","","","","29.65","","","106","20","18","","","","","","","","","","","","","","","","","","","","","","","","","","","","","","","","","","","","","","","","","","","","","","","","","","","","","","","","","","","","","","","","","","","","","","","","","","","","","","","","","","","","","","","","","","","SYN004BUFR","","","","","","","","","",""
"01007099999","2021-08-13T22:00:00","78.9166666","11.9333333","7.7","NY ALESUND, SV","FM-12","4","","","","","","-0.01","2","","","","29.72","","","102","13","5","","","","","","","","","","","","","","","","","","","","","","","","","","","","","","","","","","","","","","","","","","","","","","","","","","","","","","","","","","","","","","","","","","","","","","","","","","","","","","","","","","","","","","","","","","","SYN004BUFR","","","","","","","","","",""
"01007099999","2021-08-14T01:00:00","78.9166666","11.9333333","7.7","NY ALESUND, SV","FM-12","4","","","","","","-0.01","0","","","","29.73","","","112","13","4","","","","","","","","","","","","","","","","","","","","","","","","","","","","","","","","","","","","","","","","","","","","","","","","","","","","","","","","","","","","","","","","","","","","","","","","","","","","","","","","","","","","","","","","","","","SYN004BUFR","","","","","","","","","",""
"01007099999","2021-08-15T16:00:00","78.9166666","11.9333333","7.7","NY ALESUND, SV","FM-12","4","","","","","","+0.01","7","","","","29.65","","","346","13","7","","","","","","","","","","","","","","","","","","","","","","","","","","","","","","","","","","","","","","","","","","","","","","","","","","","","","","","","","","","","","","","","","","","","","","","","","","","","","","","","","","","","","","","","","","","SYN004BUFR","","","","","","","","","",""
"01007099999","2021-08-15T22:00:00","78.9166666","11.9333333","7.7","NY ALESUND, SV","FM-12","4","","","","","","+0.01","7","","","","29.64","","","171","","1","","","","","","","","","","","","","","","","","","","","","","","","","","","","","","","","","","","","","","","","","","","","","","","","","","","","","","","","","","","","","","","","","","","","","","","","","","","","","","","","","","","","","","","","","","","SYN004BUFR","","","","","","","","","",""
"01007099999","2021-08-16T04:00:00","78.9166666","11.9333333","7.7","NY ALESUND, SV","FM-12","4","","","","","","+0.01","6","","","","29.63","","","324","","2","","","","","","","","","","","","","","","","","","","","","","","","","","","","","","","","","","","","","","","","","","","","","","","","","","","","","","","","","","","","","","","","","","","","","","","","","","","","","","","","","","","","","","","","","","","SYN004BUFR","","","","","","","","","",""
"01007099999","2021-08-16T07:00:00","78.9166666","11.9333333","7.7","NY ALESUND, SV","FM-12","4","","","","","","-0.01","2","","OVC:08 20","","29.63","18.02","","106","","2","","","","","","","","","","","","","","","","","","","","","","","","","","","","","","","","","","","","","","","","","","","","","","","","","","","","","","","","","","","","","","","","","","","","","","","","","","","","","","","","","","","","","","","","","","","SYN004BUFR","","","","","","","","","",""
"01007099999","2021-08-16T08:00:00","78.9166666","11.9333333","7.7","NY ALESUND, SV","FM-12","4","","","","","","-0.01","2","","","","29.64","","","096","","4","","","","","","","","","","","","","","","","","","","","","","","","","","","","","","","","","","","","","","","","","","","","","","","","","","","","","","","","","","","","","","","","","","","","","","","","","","","","","","","","","","","","","","","","","","","SYN004BUFR","","","","","","","","","",""
"01007099999","2021-08-16T22:00:00","78.9166666","11.9333333","7.7","NY ALESUND, SV","FM-12","4","","","","","","-0.02","2","","","","29.71","","","012","","0","","","","","","","","","","","","","","","","","","","","","","","","","","","","","","","","","","","","","","","","","","","","","","","","","","","","","","","","","","","","","","","","","","","","","","","","","","","","","","","","","","","","","","","","","","","SYN004BUFR","","","","","","","","","",""
"01007099999","2021-08-17T01:00:00","78.9166666","11.9333333","7.7","NY ALESUND, SV","FM-12","4","","","","","","-0.02","2","","","","29.72","","","259","","4","","","","","","","","","","","","","","","","","","","","","","","","","","","","","","","","","","","","","","","","","","","","","","","","","","","","","","","","","","","","","","","","","","","","","","","","","","","","","","","","","","","","","","","","","","","SYN004BUFR","","","","","","","","","",""
"01007099999","2021-08-17T04:00:00","78.9166666","11.9333333","7.7","NY ALESUND, SV","FM-12","4","","","","","","-0.01","2","","","","29.74","","","153","","2","","","","","","","","","","","","","","","","","","","","","","","","","","","","","","","","","","","","","","","","","","","","","","","","","","","","","","","","","","","","","","","","","","","","","","","","","","","","","","","","","","","","","","","","","","","SYN004BUFR","","","","","","","","","",""
"01007099999","2021-08-17T10:00:00","78.9166666","11.9333333","7.7","NY ALESUND, SV","FM-12","4","","","","","","-0.03","2","","","","29.79","","","035","","4","","","","","","","","","","","","","","","","","","","","","","","","","","","","","","","","","","","","","","","","","","","","","","","","","","","","","","","","","","","","","","","","","","","","","","","","","","","","","","","","","","","","","","","","","","","SYN004BUFR","","","","","","","","","",""
"01007099999","2021-08-18T01:00:00","78.9166666","11.9333333","7.7","NY ALESUND, SV","FM-12","4","","","","","","-0.02","2","","","","29.89","","","127","","3","","","","","","","","","","","","","","","","","","","","","","","","","","","","","","","","","","","","","","","","","","","","","","","","","","","","","","","","","","","","","","","","","","","","","","","","","","","","","","","","","","","","","","","","","","","SYN004BUFR","","","","","","","","","",""
"01007099999","2021-08-18T13:00:00","78.9166666","11.9333333","7.7","NY ALESUND, SV","FM-12","4","","","","","","-0.01","0","","FEW:02 10","","29.96","27.96","","066","","4","","","","","","","","","","","","","","","","","","","","","","","","","","","","","","","","","","","","","","","","","","","","","","","","","","","","","","","","","","","","","","","","","","","","","","","","","","","","","","","","","","","","","","","","","","","SYN004BUFR","","","","","","","","","",""
"01007099999","2021-08-18T14:00:00","78.9166666","11.9333333","7.7","NY ALESUND, SV","FM-12","4","","","","","","-0.01","0","","","","29.96","","","066","","3","","","","","","","","","","","","","","","","","","","","","","","","","","","","","","","","","","","","","","","","","","","","","","","","","","","","","","","","","","","","","","","","","","","","","","","","","","","","","","","","","","","","","","","","","","","SYN004BUFR","","","","","","","","","",""
"01007099999","2021-08-19T04:00:00","78.9166666","11.9333333","7.7","NY ALESUND, SV","FM-12","4","","","","","","-0.00","2","","","","30.00","","","322","","4","","","","","","","","","","","","","","","","","","","","","","","","","","","","","","","","","","","","","","","","","","","","","","","","","","","","","","","","","","","","","","","","","","","","","","","","","","","","","","","","","","","","","","","","","","","SYN004BUFR","","","","","","","","","",""
"01007099999","2021-08-19T10:00:00","78.9166666","11.9333333","7.7","NY ALESUND, SV","FM-12","4","","","","","","","","","","","30.00","","","066","","3","","","","","","","","","","","","","","","","","","","","","","","","","","","","","","","","","","","","","","","","","","","","","","","","","","","","","","","","","","","","","","","","","","","","","","","","","","","","","","","","","","","","","","","","","","","SYN004BUFR","","","","","","","","","",""
"01007099999","2021-08-19T16:00:00","78.9166666","11.9333333","7.7","NY ALESUND, SV","FM-12","4","","","","","","+0.02","7","","","","29.96","","","121","","5","","","","","","","","","","","","","","","","","","","","","","","","","","","","","","","","","","","","","","","","","","","","","","","","","","","","","","","","","","","","","","","","","","","","","","","","","","","","","","","","","","","","","","","","","","","SYN004BUFR","","","","","","","","","",""
"01007099999","2021-08-19T17:00:00","78.9166666","11.9333333","7.7","NY ALESUND, SV","FM-12","4","","","","","","+0.03","7","","","","29.95","","","101","","7","","","","","","","","","","","","","","","","","","","","","","","","","","","","","","","","","","","","","","","","","","","","","","","","","","","","","","","","","","","","","","","","","","","","","","","","","","","","","","","","","","","","","","","","","","","SYN004BUFR","","","","","","","","","",""
"01007099999","2021-08-19T18:00:00","78.9166666","11.9333333","7.7","NY ALESUND, SV","FM-12","4","","","","","","+0.02","7","","","","29.95","","","116","","4","","","","","","","","","","","","","","","","","","","","","","","","","","","","","","","","","","","","","","","","","","","","","","","","","","","","","","","","","","","","","","","","","","","","","","","","","","","","","","","","","","","","","","","","","","","SYN004BUFR","","","","","","","","","",""
"01007099999","2021-08-19T19:00:00","78.9166666","11.9333333","7.7","NY ALESUND, SV","FM-12","4","","","","","","+0.02","7","","BKN:07 33","","29.94","37.28","","114","","5","","","","","","","","","","","","","","","","","","","","","","","","","","","","","","","","","","","","","","","","","","","","","","","","","","","","","","","","","","","","","","","","","","","","","","","","","","","","","","","","","","","","","","","","","","","SYN004BUFR","","","","","","","","","",""
"01007099999","2021-08-19T22:00:00","78.9166666","11.9333333","7.7","NY ALESUND, SV","FM-12","4","","","","","","+0.01","7","","","","29.93","","","063","","1","","","","","","","","","","","","","","","","","","","","","","","","","","","","","","","","","","","","","","","","","","","","","","","","","","","","","","","","","","","","","","","","","","","","","","","","","","","","","","","","","","","","","","","","","","","SYN004BUFR","","","","","","","","","",""
"01007099999","2021-08-20T01:00:00","78.9166666","11.9333333","7.7","NY ALESUND, SV","FM-12","4","","","","","","+0.01","7","","","","29.91","","","150","","0","","","","","","","","","","","","","","","","","","","","","","","","","","","","","","","","","","","","","","","","","","","","","","","","","","","","","","","","","","","","","","","","","","","","","","","","","","","","","","","","","","","","","","","","","","","SYN004BUFR","","","","","","","","","",""
"01007099999","2021-08-20T02:00:00","78.9166666","11.9333333","7.7","NY ALESUND, SV","FM-12","4","","","","","","+0.02","7","","","","29.91","","","140","","3","","","","","","","","","","","","","","","","","","","","","","","","","","","","","","","","","","","","","","","","","","","","","","","","","","","","","","","","","","","","","","","","","","","","","","","","","","","","","","","","","","","","","","","","","","","SYN004BUFR","","","","","","","","","",""
"01007099999","2021-08-20T03:00:00","78.9166666","11.9333333","7.7","NY ALESUND, SV","FM-12","4","","","","","","+0.02","7","","","","29.90","","","324","","2","","","","","","","","","","","","","","","","","","","","","","","","","","","","","","","","","","","","","","","","","","","","","","","","","","","","","","","","","","","","","","","","","","","","","","","","","","","","","","","","","","","","","","","","","","","SYN004BUFR","","","","","","","","","",""
"01007099999","2021-08-20T04:00:00","78.9166666","11.9333333","7.7","NY ALESUND, SV","FM-12","4","","","","","","+0.02","7","","","","29.89","","","254","","1","","","","","","","","","","","","","","","","","","","","","","","","","","","","","","","","","","","","","","","","","","","","","","","","","","","","","","","","","","","","","","","","","","","","","","","","","","","","","","","","","","","","","","","","","","","SYN004BUFR","","","","","","","","","",""
"01007099999","2021-08-20T06:00:00","78.9166666","11.9333333","7.7","NY ALESUND, SV","FM-12","4","","","","","","+0.01","7","","","","29.89","","","360","","0","","","","","","","","","","","","","","","","","","","","","","","","","","","","","","","","","","","","","","","","","","","","","","","","","","","","","","","","","","","","","","","","","","","","","","","","","","","","","","","","","","","","","","","","","","","SYN004BUFR","","","","","","","","","",""
"01007099999","2021-08-20T07:00:00","78.9166666","11.9333333","7.7","NY ALESUND, SV","FM-12","4","","","","","","+0.01","7","","OVC:08 20","","29.89","37.28","","114","","5","","","","","","","","","","","","","","","","","","","","","","","","","","","","","","","","","","","","","","","","","","","","","","","","","","","","","","","","","","","","","","","","","","","","","","","","","","","","","","","","","","","","","","","","","","","SYN004BUFR","","","","","","","","","",""
"01007099999","2021-08-20T08:00:00","78.9166666","11.9333333","7.7","NY ALESUND, SV","FM-12","4","","","","","","+0.01","7","","","","29.88","","","103","","3","","","","","","","","","","","","","","","","","","","","","","","","","","","","","","","","","","","","","","","","","","","","","","","","","","","","","","","","","","","","","","","","","","","","","","","","","","","","","","","","","","","","","","","","","","","SYN004BUFR","","","","","","","","","",""
"01007099999","2021-08-20T09:00:00","78.9166666","11.9333333","7.7","NY ALESUND, SV","FM-12","4","","","","","","+0.00","7","","","","29.89","","","101","","4","","","","","","","","","","","","","","","","","","","","","","","","","","","","","","","","","","","","","","","","","","","","","","","","","","","","","","","","","","","","","","","","","","","","","","","","","","","","","","","","","","","","","","","","","","","SYN004BUFR","","","","","","","","","",""
"01007099999","2021-08-20T10:00:00","78.9166666","11.9333333","7.7","NY ALESUND, SV","FM-12","4","","","","","","+0.00","7","","","","29.89","","","108","","4","","","","","","","","","","","","","","","","","","","","","","","","","","","","","","","","","","","","","","","","","","","","","","","","","","","","","","","","","","","","","","","","","","","","","","","","","","","","","","","","","","","","","","","","","","","SYN004BUFR","","","","","","","","","",""
"01007099999","2021-08-20T11:00:00","78.9166666","11.9333333","7.7","NY ALESUND, SV","FM-12","4","","","","","","-0.01","2","","","","29.89","","","077","","4","","","","","","","","","","","","","","","","","","","","","","","","","","","","","","","","","","","","","","","","","","","","","","","","","","","","","","","","","","","","","","","","","","","","","","","","","","","","","","","","","","","","","","","","","","","SYN004BUFR","","","","","","","","","",""
"01007099999","2021-08-20T13:00:00","78.9166666","11.9333333","7.7","NY ALESUND, SV","FM-12","4","","","","","","-0.01","2","","OVC:08 20","","29.89","31.07","","116","","4","","","","","","","","","","","","","","","","","","","","","","","","","","","","","","","","","","","","","","","","","","","","","","","","","","","","","","","","","","","","","","","","","","","","","","","","","","","","","","","","","","","","","","","","","","","SYN004BUFR","","","","","","","","","",""
"01007099999","2021-08-20T14:00:00","78.9166666","11.9333333","7.7","NY ALESUND, SV","FM-12","4","","","","","","-0.00","2","","","","29.89","","","101","","4","","","","","","","","","","","","","","","","","","","","","","","","","","","","","","","","","","","","","","","","","","","","","","","","","","","","","","","","","","","","","","","","","","","","","","","","","","","","","","","","","","","","","","","","","","","SYN004BUFR","","","","","","","","","",""
"01007099999","2021-08-20T15:00:00","78.9166666","11.9333333","7.7","NY ALESUND, SV","FM-12","4","","","","","","-0.00","2","","","","29.90","","","089","","4","","","","","","","","","","","","","","","","","","","","","","","","","","","","","","","","","","","","","","","","","","","","","","","","","","","","","","","","","","","","","","","","","","","","","","","","","","","","","","","","","","","","","","","","","","","SYN004BUFR","","","","","","","","","",""
"01007099999","2021-08-20T19:00:00","78.9166666","11.9333333","7.7","NY ALESUND, SV","FM-12","4","","","","","","-0.00","2","","BKN:06 20","","29.90","34.18","","114","","4","","","","","","","","","","","","","","","","","","","","","","","","","","","","","","","","","","","","","","","","","","","","","","","","","","","","","","","","","","","","","","","","","","","","","","","","","","","","","","","","","","","","","","","","","","","SYN004BUFR","","","","","","","","","",""
"01007099999","2021-08-20T20:00:00","78.9166666","11.9333333","7.7","NY ALESUND, SV","FM-12","4","","","","","","-0.01","2","","","","29.90","","","117","","2","","","","","","","","","","","","","","","","","","","","","","","","","","","","","","","","","","","","","","","","","","","","","","","","","","","","","","","","","","","","","","","","","","","","","","","","","","","","","","","","","","","","","","","","","","","SYN004BUFR","","","","","","","","","",""
"01007099999","2021-08-20T21:00:00","78.9166666","11.9333333","7.7","NY ALESUND, SV","FM-12","4","","","","","","-0.01","2","","","","29.91","","","360","","0","","","","","","","","","","","","","","","","","","","","","","","","","","","","","","","","","","","","","","","","","","","","","","","","","","","","","","","","","","","","","","","","","","","","","","","","","","","","","","","","","","","","","","","","","","","SYN004BUFR","","","","","","","","","",""
"01007099999","2021-08-20T22:00:00","78.9166666","11.9333333","7.7","NY ALESUND, SV","FM-12","4","","","","","","-0.01","2","","","","29.91","","","360","","0","","","","","","","","","","","","","","","","","","","","","","","","","","","","","","","","","","","","","","","","","","","","","","","","","","","","","","","","","","","","","","","","","","","","","","","","","","","","","","","","","","","","","","","","","","","SYN004BUFR","","","","","","","","","",""
"01007099999","2021-08-20T23:00:00","78.9166666","11.9333333","7.7","NY ALESUND, SV","FM-12","4","","","","","","-0.01","2","","","","29.91","","","360","","0","","","","","","","","","","","","","","","","","","","","","","","","","","","","","","","","","","","","","","","","","","","","","","","","","","","","","","","","","","","","","","","","","","","","","","","","","","","","","","","","","","","","","","","","","","","SYN004BUFR","","","","","","","","","",""
"01007099999","2021-08-21T00:00:00","78.9166666","11.9333333","7.7","NY ALESUND, SV","FM-12","4","","","","","","-0.01","2","","","","29.92","","","216","","1","","","","","","","","","","","","","","","","","","","","","","","","","","","","","","","","","","","","","","","","","","","","","","","","","","","","","","","","","","","","","","","","","","","","","","","","","","","","","","","","","","","","","","","","","","","SYN004BUFR","","","","","","","","","",""
"01007099999","2021-08-21T01:00:00","78.9166666","11.9333333","7.7","NY ALESUND, SV","FM-12","4","","","","","","-0.01","2","","","","29.92","","","117","","1","","","","","","","","","","","","","","","","","","","","","","","","","","","","","","","","","","","","","","","","","","","","","","","","","","","","","","","","","","","","","","","","","","","","","","","","","","","","","","","","","","","","","","","","","","","SYN004BUFR","","","","","","","","","",""
"01007099999","2021-08-21T02:00:00","78.9166666","11.9333333","7.7","NY ALESUND, SV","FM-12","4","","","","","","-0.01","2","","","","29.92","","","360","","0","","","","","","","","","","","","","","","","","","","","","","","","","","","","","","","","","","","","","","","","","","","","","","","","","","","","","","","","","","","","","","","","","","","","","","","","","","","","","","","","","","","","","","","","","","","SYN004BUFR","","","","","","","","","",""
"01007099999","2021-08-21T03:00:00","78.9166666","11.9333333","7.7","NY ALESUND, SV","FM-12","4","","","","","","-0.00","2","","","","29.92","","","317","","4","","","","","","","","","","","","","","","","","","","","","","","","","","","","","","","","","","","","","","","","","","","","","","","","","","","","","","","","","","","","","","","","","","","","","","","","","","","","","","","","","","","","","","","","","","","SYN004BUFR","","","","","","","","","",""
"01007099999","2021-08-21T05:00:00","78.9166666","11.9333333","7.7","NY ALESUND, SV","FM-12","4","","","","","","-0.00","2","","","","29.92","","","083","","3","","","","","","","","","","","","","","","","","","","","","","","","","","","","","","","","","","","","","","","","","","","","","","","","","","","","","","","","","","","","","","","","","","","","","","","","","","","","","","","","","","","","","","","","","","","SYN004BUFR","","","","","","","","","",""
"01007099999","2021-08-21T09:00:00","78.9166666","11.9333333","7.7","NY ALESUND, SV","FM-12","4","","","","","","-0.02","2","","","","29.96","","","095","","4","","","","","","","","","","","","","","","","","","","","","","","","","","","","","","","","","","","","","","","","","","","","","","","","","","","","","","","","","","","","","","","","","","","","","","","","","","","","","","","","","","","","","","","","","","","SYN004BUFR","","","","","","","","","",""
"01007099999","2021-08-21T10:00:00","78.9166666","11.9333333","7.7","NY ALESUND, SV","FM-12","4","","","","","","-0.02","2","","","","29.96","","","102","","3","","","","","","","","","","","","","","","","","","","","","","","","","","","","","","","","","","","","","","","","","","","","","","","","","","","","","","","","","","","","","","","","","","","","","","","","","","","","","","","","","","","","","","","","","","","SYN004BUFR","","","","","","","","","",""
"01007099999","2021-08-21T11:00:00","78.9166666","11.9333333","7.7","NY ALESUND, SV","FM-12","4","","","","","","-0.03","2","","","","29.97","","","098","","3","","","","","","","","","","","","","","","","","","","","","","","","","","","","","","","","","","","","","","","","","","","","","","","","","","","","","","","","","","","","","","","","","","","","","","","","","","","","","","","","","","","","","","","","","","","SYN004BUFR","","","","","","","","","",""
"01007099999","2021-08-21T14:00:00","78.9166666","11.9333333","7.7","NY ALESUND, SV","FM-12","4","","","","","","-0.03","2","","","","30.00","","","059","","3","","","","","","","","","","","","","","","","","","","","","","","","","","","","","","","","","","","","","","","","","","","","","","","","","","","","","","","","","","","","","","","","","","","","","","","","","","","","","","","","","","","","","","","","","","","SYN004BUFR","","","","","","","","","",""
"01007099999","2021-08-21T16:00:00","78.9166666","11.9333333","7.7","NY ALESUND, SV","FM-12","4","","","","","","-0.02","2","","","","30.01","","","042","","1","","","","","","","","","","","","","","","","","","","","","","","","","","","","","","","","","","","","","","","","","","","","","","","","","","","","","","","","","","","","","","","","","","","","","","","","","","","","","","","","","","","","","","","","","","","SYN004BUFR","","","","","","","","","",""
"01007099999","2021-08-21T17:00:00","78.9166666","11.9333333","7.7","NY ALESUND, SV","FM-12","4","","","","","","-0.02","3","","","","30.02","","","006","","3","","","","","","","","","","","","","","","","","","","","","","","","","","","","","","","","","","","","","","","","","","","","","","","","","","","","","","","","","","","","","","","","","","","","","","","","","","","","","","","","","","","","","","","","","","","SYN004BUFR","","","","","","","","","",""
"01007099999","2021-08-21T20:00:00","78.9166666","11.9333333","7.7","NY ALESUND, SV","FM-12","4","","","","","","-0.02","2","","","","30.04","","","360","","0","","","","","","","","","","","","","","","","","","","","","","","","","","","","","","","","","","","","","","","","","","","","","","","","","","","","","","","","","","","","","","","","","","","","","","","","","","","","","","","","","","","","","","","","","","","SYN004BUFR","","","","","","","","","",""
"01007099999","2021-08-21T21:00:00","78.9166666","11.9333333","7.7","NY ALESUND, SV","FM-12","4","","","","","","-0.02","2","","","","30.05","","","360","","0","","","","","","","","","","","","","","","","","","","","","","","","","","","","","","","","","","","","","","","","","","","","","","","","","","","","","","","","","","","","","","","","","","","","","","","","","","","","","","","","","","","","","","","","","","","SYN004BUFR","","","","","","","","","",""
"01007099999","2021-08-21T22:00:00","78.9166666","11.9333333","7.7","NY ALESUND, SV","FM-12","4","","","","","","-0.03","2","","","","30.07","","","360","","0","","","","","","","","","","","","","","","","","","","","","","","","","","","","","","","","","","","","","","","","","","","","","","","","","","","","","","","","","","","","","","","","","","","","","","","","","","","","","","","","","","","","","","","","","","","SYN004BUFR","","","","","","","","","",""
"01007099999","2021-08-21T23:00:00","78.9166666","11.9333333","7.7","NY ALESUND, SV","FM-12","4","","","","","","-0.03","2","","","","30.08","","","360","","0","","","","","","","","","","","","","","","","","","","","","","","","","","","","","","","","","","","","","","","","","","","","","","","","","","","","","","","","","","","","","","","","","","","","","","","","","","","","","","","","","","","","","","","","","","","SYN004BUFR","","","","","","","","","",""
"01007099999","2021-08-22T00:00:00","78.9166666","11.9333333","7.7","NY ALESUND, SV","FM-12","4","","","","","","-0.03","2","","","","30.09","","","117","","0","","","","","","","","","","","","","","","","","","","","","","","","","","","","","","","","","","","","","","","","","","","","","","","","","","","","","","","","","","","","","","","","","","","","","","","","","","","","","","","","","","","","","","","","","","","SYN004BUFR","","","","","","","","","",""
"01007099999","2021-08-22T01:00:00","78.9166666","11.9333333","7.7","NY ALESUND, SV","FM-12","4","","","","","","-0.02","2","","","","30.09","","","131","","1","","","","","","","","","","","","","","","","","","","","","","","","","","","","","","","","","","","","","","","","","","","","","","","","","","","","","","","","","","","","","","","","","","","","","","","","","","","","","","","","","","","","","","","","","","","SYN004BUFR","","","","","","","","","",""
"01007099999","2021-08-22T02:00:00","78.9166666","11.9333333","7.7","NY ALESUND, SV","FM-12","4","","","","","","-0.03","2","","","","30.10","","","123","","2","","","","","","","","","","","","","","","","","","","","","","","","","","","","","","","","","","","","","","","","","","","","","","","","","","","","","","","","","","","","","","","","","","","","","","","","","","","","","","","","","","","","","","","","","","","SYN004BUFR","","","","","","","","","",""
"01007099999","2021-08-22T03:00:00","78.9166666","11.9333333","7.7","NY ALESUND, SV","FM-12","4","","","","","","-0.03","2","","","","30.11","","","128","","2","","","","","","","","","","","","","","","","","","","","","","","","","","","","","","","","","","","","","","","","","","","","","","","","","","","","","","","","","","","","","","","","","","","","","","","","","","","","","","","","","","","","","","","","","","","SYN004BUFR","","","","","","","","","",""
"01007099999","2021-08-22T04:00:00","78.9166666","11.9333333","7.7","NY ALESUND, SV","FM-12","4","","","","","","-0.03","2","","","","30.12","","","111","","6","","","","","","","","","","","","","","","","","","","","","","","","","","","","","","","","","","","","","","","","","","","","","","","","","","","","","","","","","","","","","","","","","","","","","","","","","","","","","","","","","","","","","","","","","","","SYN004BUFR","","","","","","","","","",""
"01007099999","2021-08-22T08:00:00","78.9166666","11.9333333","7.7","NY ALESUND, SV","FM-12","4","","","","","","-0.02","2","","","","30.15","","","112","","8","","","","","","","","","","","","","","","","","","","","","","","","","","","","","","","","","","","","","","","","","","","","","","","","","","","","","","","","","","","","","","","","","","","","","","","","","","","","","","","","","","","","","","","","","","","SYN004BUFR","","","","","","","","","",""
"01007099999","2021-08-22T09:00:00","78.9166666","11.9333333","7.7","NY ALESUND, SV","FM-12","4","","","","","","-0.02","2","","","","30.16","","","111","14","12","","","","","","","","","","","","","","","","","","","","","","","","","","","","","","","","","","","","","","","","","","","","","","","","","","","","","","","","","","","","","","","","","","","","","","","","","","","","","","","","","","","","","","","","","","","SYN004BUFR","","","","","","","","","",""
"01007099999","2021-08-22T10:00:00","78.9166666","11.9333333","7.7","NY ALESUND, SV","FM-12","4","","","","","","-0.03","2","","","","30.17","","","110","14","12","","","","","","","","","","","","","","","","","","","","","","","","","","","","","","","","","","","","","","","","","","","","","","","","","","","","","","","","","","","","","","","","","","","","","","","","","","","","","","","","","","","","","","","","","","","SYN004BUFR","","","","","","","","","",""
"01007099999","2021-08-22T11:00:00","78.9166666","11.9333333","7.7","NY ALESUND, SV","FM-12","4","","","","","","-0.03","2","","","","30.18","","","118","13","10","","","","","","","","","","","","","","","","","","","","","","","","","","","","","","","","","","","","","","","","","","","","","","","","","","","","","","","","","","","","","","","","","","","","","","","","","","","","","","","","","","","","","","","","","","","SYN004BUFR","","","","","","","","","",""
"01007099999","2021-08-22T12:00:00","78.9166666","11.9333333","7.7","NY ALESUND, SV","FM-12","4","","","","","","-0.03","2","","","","30.19","","","120","","8","","","","","","","","","","","","","","","","","","","","","","","","","","","","","","","","","","","","","","","","","","","","","","","","","","","","","","","","","","","","","","","","","","","","","","","","","","","","","","","","","","","","","","","","","","","SYN004BUFR","","","","","","","","","",""
"01007099999","2021-08-22T13:00:00","78.9166666","11.9333333","7.7","NY ALESUND, SV","FM-12","4","","","","","","-0.01","2","","OVC:08 20","","30.19","37.28","","111","14","6","","","","","","","","","","","","","","","","","","","","","","","","","","","","","","","","","","","","","","","","","","","","","","","","","","","","","","","","","","","","","","","","","","","","","","","","","","","","","","","","","","","","","","","","","","","SYN004BUFR","","","","","","","","","",""
"01007099999","2021-08-22T14:00:00","78.9166666","11.9333333","7.7","NY ALESUND, SV","FM-12","4","","","","","","-0.01","2","","","","30.19","","","107","","8","","","","","","","","","","","","","","","","","","","","","","","","","","","","","","","","","","","","","","","","","","","","","","","","","","","","","","","","","","","","","","","","","","","","","","","","","","","","","","","","","","","","","","","","","","","SYN004BUFR","","","","","","","","","",""
"01007099999","2021-08-22T15:00:00","78.9166666","11.9333333","7.7","NY ALESUND, SV","FM-12","4","","","","","","-0.01","2","","","","30.19","","","105","","9","","","","","","","","","","","","","","","","","","","","","","","","","","","","","","","","","","","","","","","","","","","","","","","","","","","","","","","","","","","","","","","","","","","","","","","","","","","","","","","","","","","","","","","","","","","SYN004BUFR","","","","","","","","","",""
"01007099999","2021-08-22T16:00:00","78.9166666","11.9333333","7.7","NY ALESUND, SV","FM-12","4","","","","","","-0.00","2","","","","30.19","","","107","13","9","","","","","","","","","","","","","","","","","","","","","","","","","","","","","","","","","","","","","","","","","","","","","","","","","","","","","","","","","","","","","","","","","","","","","","","","","","","","","","","","","","","","","","","","","","","SYN004BUFR","","","","","","","","","",""
"01007099999","2021-08-22T17:00:00","78.9166666","11.9333333","7.7","NY ALESUND, SV","FM-12","4","","","","","","-0.00","2","","","","30.19","","","112","13","11","","","","","","","","","","","","","","","","","","","","","","","","","","","","","","","","","","","","","","","","","","","","","","","","","","","","","","","","","","","","","","","","","","","","","","","","","","","","","","","","","","","","","","","","","","","SYN004BUFR","","","","","","","","","",""
"01007099999","2021-08-22T18:00:00","78.9166666","11.9333333","7.7","NY ALESUND, SV","FM-12","4","","","","","","+0.00","7","","","","30.19","","","111","14","12","","","","","","","","","","","","","","","","","","","","","","","","","","","","","","","","","","","","","","","","","","","","","","","","","","","","","","","","","","","","","","","","","","","","","","","","","","","","","","","","","","","","","","","","","","","SYN004BUFR","","","","","","","","","",""
"01007099999","2021-08-22T19:00:00","78.9166666","11.9333333","7.7","NY ALESUND, SV","FM-12","4","","","","","","+0.00","7","","OVC:08 20","","30.19","27.96","","110","15","13","","","","","","","","","","","","","","","","","","","","","","","","","","","","","","","","","","","","","","","","","","","","","","","","","","","","","","","","","","","","","","","","","","","","","","","","","","","","","","","","","","","","","","","","","","","SYN004BUFR","","","","","","","","","",""
"01007099999","2021-08-22T20:00:00","78.9166666","11.9333333","7.7","NY ALESUND, SV","FM-12","4","","","","","","+0.01","7","","","","30.19","","","117","14","12","","","","","","","","","","","","","","","","","","","","","","","","","","","","","","","","","","","","","","","","","","","","","","","","","","","","","","","","","","","","","","","","","","","","","","","","","","","","","","","","","","","","","","","","","","","SYN004BUFR","","","","","","","","","",""
"01007099999","2021-08-22T21:00:00","78.9166666","11.9333333","7.7","NY ALESUND, SV","FM-12","4","","","","","","+0.01","7","","","","30.19","","","115","15","11","","","","","","","","","","","","","","","","","","","","","","","","","","","","","","","","","","","","","","","","","","","","","","","","","","","","","","","","","","","","","","","","","","","","","","","","","","","","","","","","","","","","","","","","","","","SYN004BUFR","","","","","","","","","",""
"01007099999","2021-08-22T22:00:00","78.9166666","11.9333333","7.7","NY ALESUND, SV","FM-12","4","","","","","","+0.01","7","","","","30.18","","","121","15","8","","","","","","","","","","","","","","","","","","","","","","","","","","","","","","","","","","","","","","","","","","","","","","","","","","","","","","","","","","","","","","","","","","","","","","","","","","","","","","","","","","","","","","","","","","","SYN004BUFR","","","","","","","","","",""
"01007099999","2021-08-22T23:00:00","78.9166666","11.9333333","7.7","NY ALESUND, SV","FM-12","4","","","","","","+0.01","7","","","","30.17","","","120","14","9","","","","","","","","","","","","","","","","","","","","","","","","","","","","","","","","","","","","","","","","","","","","","","","","","","","","","","","","","","","","","","","","","","","","","","","","","","","","","","","","","","","","","","","","","","","SYN004BUFR","","","","","","","","","",""
"01007099999","2021-08-23T00:00:00","78.9166666","11.9333333","7.7","NY ALESUND, SV","FM-12","4","","","","","","+0.01","7","","","","30.17","","","137","11","7","","","","","","","","","","","","","","","","","","","","","","","","","","","","","","","","","","","","","","","","","","","","","","","","","","","","","","","","","","","","","","","","","","","","","","","","","","","","","","","","","","","","","","","","","","","SYN004BUFR","","","","","","","","","",""
"01007099999","2021-08-23T01:00:00","78.9166666","11.9333333","7.7","NY ALESUND, SV","FM-12","4","","","","","","+0.02","7","","","","30.16","","","129","14","10","","","","","","","","","","","","","","","","","","","","","","","","","","","","","","","","","","","","","","","","","","","","","","","","","","","","","","","","","","","","","","","","","","","","","","","","","","","","","","","","","","","","","","","","","","","SYN004BUFR","","","","","","","","","",""
"01007099999","2021-08-23T02:00:00","78.9166666","11.9333333","7.7","NY ALESUND, SV","FM-12","4","","","","","","+0.03","7","","","","30.15","","","111","15","13","","","","","","","","","","","","","","","","","","","","","","","","","","","","","","","","","","","","","","","","","","","","","","","","","","","","","","","","","","","","","","","","","","","","","","","","","","","","","","","","","","","","","","","","","","","SYN004BUFR","","","","","","","","","",""
"01007099999","2021-08-23T03:00:00","78.9166666","11.9333333","7.7","NY ALESUND, SV","FM-12","4","","","","","","+0.03","7","","","","30.14","","","265","13","2","","","","","","","","","","","","","","","","","","","","","","","","","","","","","","","","","","","","","","","","","","","","","","","","","","","","","","","","","","","","","","","","","","","","","","","","","","","","","","","","","","","","","","","","","","","SYN004BUFR","","","","","","","","","",""
"01007099999","2021-08-23T04:00:00","78.9166666","11.9333333","7.7","NY ALESUND, SV","FM-12","4","","","","","","+0.04","8","","","","30.12","","","130","16","11","","","","","","","","","","","","","","","","","","","","","","","","","","","","","","","","","","","","","","","","","","","","","","","","","","","","","","","","","","","","","","","","","","","","","","","","","","","","","","","","","","","","","","","","","","","SYN004BUFR","","","","","","","","","",""
"01007099999","2021-08-23T05:00:00","78.9166666","11.9333333","7.7","NY ALESUND, SV","FM-12","4","","","","","","+0.04","8","","","","30.11","","","120","25","21","","","","","","","","","","","","","","","","","","","","","","","","","","","","","","","","","","","","","","","","","","","","","","","","","","","","","","","","","","","","","","","","","","","","","","","","","","","","","","","","","","","","","","","","","","","SYN004BUFR","","","","","","","","","",""
"01007099999","2021-08-23T06:00:00","78.9166666","11.9333333","7.7","NY ALESUND, SV","FM-12","4","","","","","","+0.04","6","","","","30.10","","","127","24","17","","","","","","","","","","","","","","","","","","","","","","","","","","","","","","","","","","","","","","","","","","","","","","","","","","","","","","","","","","","","","","","","","","","","","","","","","","","","","","","","","","","","","","","","","","","SYN004BUFR","","","","","","","","","",""
"01007099999","2021-08-23T07:00:00","78.9166666","11.9333333","7.7","NY ALESUND, SV","FM-12","4","","","","","||DZ","+0.03","6","","OVC:08 10","","30.09","21.75","","125","27","20","","","","","","","","","","","","","","","","","","","","","","","","","","","","","","","","","","","","","","","","","","","","","","","","","","","","","","","","","","","","","","","","","","","","","","","","","","","","","","","","","","","","","","","","","","","SYN004BUFR","","","","","","","","","",""
"01007099999","2021-08-23T08:00:00","78.9166666","11.9333333","7.7","NY ALESUND, SV","FM-12","4","","","","","","+0.02","7","","","","30.09","","","125","26","19","","","","","","","","","","","","","","","","","","","","","","","","","","","","","","","","","","","","","","","","","","","","","","","","","","","","","","","","","","","","","","","","","","","","","","","","","","","","","","","","","","","","","","","","","","","SYN004BUFR","","","","","","","","","",""
"01007099999","2021-08-23T09:00:00","78.9166666","11.9333333","7.7","NY ALESUND, SV","FM-12","4","","","","","","+0.02","7","","","","30.09","","","126","25","17","","","","","","","","","","","","","","","","","","","","","","","","","","","","","","","","","","","","","","","","","","","","","","","","","","","","","","","","","","","","","","","","","","","","","","","","","","","","","","","","","","","","","","","","","","","SYN004BUFR","","","","","","","","","",""
"01007099999","2021-08-23T10:00:00","78.9166666","11.9333333","7.7","NY ALESUND, SV","FM-12","4","","","","","","+0.02","7","","","","30.08","","","122","26","21","","","","","","","","","","","","","","","","","","","","","","","","","","","","","","","","","","","","","","","","","","","","","","","","","","","","","","","","","","","","","","","","","","","","","","","","","","","","","","","","","","","","","","","","","","","SYN004BUFR","","","","","","","","","",""
"01007099999","2021-08-23T11:00:00","78.9166666","11.9333333","7.7","NY ALESUND, SV","FM-12","4","","","","","","+0.02","6","","","","30.07","","","118","26","16","","","","","","","","","","","","","","","","","","","","","","","","","","","","","","","","","","","","","","","","","","","","","","","","","","","","","","","","","","","","","","","","","","","","","","","","","","","","","","","","","","","","","","","","","","","SYN004BUFR","","","","","","","","","",""
"01007099999","2021-08-23T13:00:00","78.9166666","11.9333333","7.7","NY ALESUND, SV","FM-12","4","","","","","||RA","+0.01","7","","OVC:08 10","","30.07","3.11","","127","16","10","","","","","","","","","","","","","","","","","","","","","","","","","","","","","","","","","","","","","","","","","","","","","","","","","","","","","","","","","","","","","","","","","","","","","","","","","","","","","","","","","","","","","","","","","","","SYN004BUFR","","","","","","","","","",""
"01007099999","2021-08-23T14:00:00","78.9166666","11.9333333","7.7","NY ALESUND, SV","FM-12","4","","","","","","+0.01","7","","","","30.06","","","126","12","10","","","","","","","","","","","","","","","","","","","","","","","","","","","","","","","","","","","","","","","","","","","","","","","","","","","","","","","","","","","","","","","","","","","","","","","","","","","","","","","","","","","","","","","","","","","SYN004BUFR","","","","","","","","","",""
"01007099999","2021-08-23T15:00:00","78.9166666","11.9333333","7.7","NY ALESUND, SV","FM-12","4","","","","","","+0.01","7","","","","30.06","","","130","11","5","","","","","","","","","","","","","","","","","","","","","","","","","","","","","","","","","","","","","","","","","","","","","","","","","","","","","","","","","","","","","","","","","","","","","","","","","","","","","","","","","","","","","","","","","","","SYN004BUFR","","","","","","","","","",""
"01007099999","2021-08-23T16:00:00","78.9166666","11.9333333","7.7","NY ALESUND, SV","FM-12","4","","","","","","+0.02","7","","","","30.05","","","122","","4","","","","","","","","","","","","","","","","","","","","","","","","","","","","","","","","","","","","","","","","","","","","","","","","","","","","","","","","","","","","","","","","","","","","","","","","","","","","","","","","","","","","","","","","","","","SYN004BUFR","","","","","","","","","",""
"01007099999","2021-08-23T17:00:00","78.9166666","11.9333333","7.7","NY ALESUND, SV","FM-12","4","","","","","","+0.02","7","","","","30.05","","","133","12","10","","","","","","","","","","","","","","","","","","","","","","","","","","","","","","","","","","","","","","","","","","","","","","","","","","","","","","","","","","","","","","","","","","","","","","","","","","","","","","","","","","","","","","","","","","","SYN004BUFR","","","","","","","","","",""
"01007099999","2021-08-23T19:00:00","78.9166666","11.9333333","7.7","NY ALESUND, SV","FM-12","4","","","","","||DZ","+0.01","7","","OVC:08 20","","30.04","12.43","","263","18","1","","","","","","","","","","","","","","","","","","","","","","","","","","","","","","","","","","","","","","","","","","","","","","","","","","","","","","","","","","","","","","","","","","","","","","","","","","","","","","","","","","","","","","","","","","","SYN004BUFR","","","","","","","","","",""
"01007099999","2021-08-23T20:00:00","78.9166666","11.9333333","7.7","NY ALESUND, SV","FM-12","4","","","","","","+0.01","7","","","","30.04","","","164","","1","","","","","","","","","","","","","","","","","","","","","","","","","","","","","","","","","","","","","","","","","","","","","","","","","","","","","","","","","","","","","","","","","","","","","","","","","","","","","","","","","","","","","","","","","","","SYN004BUFR","","","","","","","","","",""
"01007099999","2021-08-23T21:00:00","78.9166666","11.9333333","7.7","NY ALESUND, SV","FM-12","4","","","","","","+0.01","7","","","","30.03","","","157","","3","","","","","","","","","","","","","","","","","","","","","","","","","","","","","","","","","","","","","","","","","","","","","","","","","","","","","","","","","","","","","","","","","","","","","","","","","","","","","","","","","","","","","","","","","","","SYN004BUFR","","","","","","","","","",""
"01007099999","2021-08-23T22:00:00","78.9166666","11.9333333","7.7","NY ALESUND, SV","FM-12","4","","","","","","+0.01","7","","","","30.02","","","149","","3","","","","","","","","","","","","","","","","","","","","","","","","","","","","","","","","","","","","","","","","","","","","","","","","","","","","","","","","","","","","","","","","","","","","","","","","","","","","","","","","","","","","","","","","","","","SYN004BUFR","","","","","","","","","",""
"01007099999","2021-08-23T23:00:00","78.9166666","11.9333333","7.7","NY ALESUND, SV","FM-12","4","","","","","","+0.02","7","","","","30.02","","","176","","2","","","","","","","","","","","","","","","","","","","","","","","","","","","","","","","","","","","","","","","","","","","","","","","","","","","","","","","","","","","","","","","","","","","","","","","","","","","","","","","","","","","","","","","","","","","SYN004BUFR","","","","","","","","","",""
"01007099999","2021-08-24T00:00:00","78.9166666","11.9333333","7.7","NY ALESUND, SV","FM-12","4","","","","","","+0.01","6","","","","30.02","","","246","","1","","","","","","","","","","","","","","","","","","","","","","","","","","","","","","","","","","","","","","","","","","","","","","","","","","","","","","","","","","","","","","","","","","","","","","","","","","","","","","","","","","","","","","","","","","","SYN004BUFR","","","","","","","","","",""
"01007099999","2021-08-24T01:00:00","78.9166666","11.9333333","7.7","NY ALESUND, SV","FM-12","4","","","","","","+0.01","7","","","","30.01","","","360","","0","","","","","","","","","","","","","","","","","","","","","","","","","","","","","","","","","","","","","","","","","","","","","","","","","","","","","","","","","","","","","","","","","","","","","","","","","","","","","","","","","","","","","","","","","","","SYN004BUFR","","","","","","","","","",""
"01007099999","2021-08-24T02:00:00","78.9166666","11.9333333","7.7","NY ALESUND, SV","FM-12","4","","","","","","+0.02","8","","","","30.00","","","266","","3","","","","","","","","","","","","","","","","","","","","","","","","","","","","","","","","","","","","","","","","","","","","","","","","","","","","","","","","","","","","","","","","","","","","","","","","","","","","","","","","","","","","","","","","","","","SYN004BUFR","","","","","","","","","",""
"01007099999","2021-08-24T03:00:00","78.9166666","11.9333333","7.7","NY ALESUND, SV","FM-12","4","","","","","","+0.03","7","","","","29.99","","","274","","0","","","","","","","","","","","","","","","","","","","","","","","","","","","","","","","","","","","","","","","","","","","","","","","","","","","","","","","","","","","","","","","","","","","","","","","","","","","","","","","","","","","","","","","","","","","SYN004BUFR","","","","","","","","","",""
"01007099999","2021-08-24T04:00:00","78.9166666","11.9333333","7.7","NY ALESUND, SV","FM-12","4","","","","","","+0.02","7","","","","29.99","","","360","","0","","","","","","","","","","","","","","","","","","","","","","","","","","","","","","","","","","","","","","","","","","","","","","","","","","","","","","","","","","","","","","","","","","","","","","","","","","","","","","","","","","","","","","","","","","","SYN004BUFR","","","","","","","","","",""
"01007099999","2021-08-24T05:00:00","78.9166666","11.9333333","7.7","NY ALESUND, SV","FM-12","4","","","","","","+0.02","7","","","","29.98","","","266","","5","","","","","","","","","","","","","","","","","","","","","","","","","","","","","","","","","","","","","","","","","","","","","","","","","","","","","","","","","","","","","","","","","","","","","","","","","","","","","","","","","","","","","","","","","","","SYN004BUFR","","","","","","","","","",""
"01007099999","2021-08-24T06:00:00","78.9166666","11.9333333","7.7","NY ALESUND, SV","FM-12","4","","","","","","+0.01","7","","","","29.98","","","260","","1","","","","","","","","","","","","","","","","","","","","","","","","","","","","","","","","","","","","","","","","","","","","","","","","","","","","","","","","","","","","","","","","","","","","","","","","","","","","","","","","","","","","","","","","","","","SYN004BUFR","","","","","","","","","",""
"01007099999","2021-08-24T07:00:00","78.9166666","11.9333333","7.7","NY ALESUND, SV","FM-12","4","","","","","","+0.01","7","","SCT:04 10","","29.98","17.40","","142","","2","","","","","","","","","","","","","","","","","","","","","","","","","","","","","","","","","","","","","","","","","","","","","","","","","","","","","","","","","","","","","","","","","","","","","","","","","","","","","","","","","","","","","","","","","","","SYN004BUFR","","","","","","","","","",""
"01007099999","2021-08-24T08:00:00","78.9166666","11.9333333","7.7","NY ALESUND, SV","FM-12","4","","","","","","+0.00","7","","","","29.98","","","087","","3","","","","","","","","","","","","","","","","","","","","","","","","","","","","","","","","","","","","","","","","","","","","","","","","","","","","","","","","","","","","","","","","","","","","","","","","","","","","","","","","","","","","","","","","","","","SYN004BUFR","","","","","","","","","",""
"01007099999","2021-08-24T09:00:00","78.9166666","11.9333333","7.7","NY ALESUND, SV","FM-12","4","","","","","","0.00","4","","","","29.98","","","110","","4","","","","","","","","","","","","","","","","","","","","","","","","","","","","","","","","","","","","","","","","","","","","","","","","","","","","","","","","","","","","","","","","","","","","","","","","","","","","","","","","","","","","","","","","","","","SYN004BUFR","","","","","","","","","",""
"01007099999","2021-08-24T22:00:00","78.9166666","11.9333333","7.7","NY ALESUND, SV","FM-12","4","","","","","","-0.04","1","","","","30.05","","","082","","3","","","","","","","","","","","","","","","","","","","","","","","","","","","","","","","","","","","","","","","","","","","","","","","","","","","","","","","","","","","","","","","","","","","","","","","","","","","","","","","","","","","","","","","","","","","SYN004BUFR","","","","","","","","","",""
"01007099999","2021-08-25T01:00:00","78.9166666","11.9333333","7.7","NY ALESUND, SV","FM-12","4","","","","","","-0.02","2","","","","30.07","","","120","","2","","","","","","","","","","","","","","","","","","","","","","","","","","","","","","","","","","","","","","","","","","","","","","","","","","","","","","","","","","","","","","","","","","","","","","","","","","","","","","","","","","","","","","","","","","","SYN004BUFR","","","","","","","","","",""
"01007099999","2021-08-25T10:00:00","78.9166666","11.9333333","7.7","NY ALESUND, SV","FM-12","4","","","","","","-0.00","0","","","","30.10","","","139","","3","","","","","","","","","","","","","","","","","","","","","","","","","","","","","","","","","","","","","","","","","","","","","","","","","","","","","","","","","","","","","","","","","","","","","","","","","","","","","","","","","","","","","","","","","","","SYN004BUFR","","","","","","","","","",""
"01007099999","2021-08-25T16:00:00","78.9166666","11.9333333","7.7","NY ALESUND, SV","FM-12","4","","","","","","+0.02","8","","","","30.07","","","167","15","8","","","","","","","","","","","","","","","","","","","","","","","","","","","","","","","","","","","","","","","","","","","","","","","","","","","","","","","","","","","","","","","","","","","","","","","","","","","","","","","","","","","","","","","","","","","SYN004BUFR","","","","","","","","","",""
"01007099999","2021-08-26T04:00:00","78.9166666","11.9333333","7.7","NY ALESUND, SV","FM-12","4","","","","","","+0.12","6","","","","29.71","","","131","27","12","","","","","","","","","","","","","","","","","","","","","","","","","","","","","","","","","","","","","","","","","","","","","","","","","","","","","","","","","","","","","","","","","","","","","","","","","","","","","","","","","","","","","","","","","","","SYN004BUFR","","","","","","","","","",""
"01007099999","2021-08-27T01:00:00","78.9166666","11.9333333","7.7","NY ALESUND, SV","FM-12","4","","","","","","+0.06","8","","","","29.60","","","174","","0","","","","","","","","","","","","","","","","","","","","","","","","","","","","","","","","","","","","","","","","","","","","","","","","","","","","","","","","","","","","","","","","","","","","","","","","","","","","","","","","","","","","","","","","","","","SYN004BUFR","","","","","","","","","",""
"01007099999","2021-08-27T16:00:00","78.9166666","11.9333333","7.7","NY ALESUND, SV","FM-12","4","","","","","","-0.12","2","","","","29.76","","","313","22","16","","","","","","","","","","","","","","","","","","","","","","","","","","","","","","","","","","","","","","","","","","","","","","","","","","","","","","","","","","","","","","","","","","","","","","","","","","","","","","","","","","","","","","","","","","","SYN004BUFR","","","","","","","","","",""
"01007099999","2021-08-27T22:00:00","78.9166666","11.9333333","7.7","NY ALESUND, SV","FM-12","4","","","","","","-0.11","2","","","","29.98","","","304","25","19","","","","","","","","","","","","","","","","","","","","","","","","","","","","","","","","","","","","","","","","","","","","","","","","","","","","","","","","","","","","","","","","","","","","","","","","","","","","","","","","","","","","","","","","","","","SYN004BUFR","","","","","","","","","",""
"01007099999","2021-08-28T04:00:00","78.9166666","11.9333333","7.7","NY ALESUND, SV","FM-12","4","","","","","","-0.06","0","","","","30.11","","","307","20","17","","","","","","","","","","","","","","","","","","","","","","","","","","","","","","","","","","","","","","","","","","","","","","","","","","","","","","","","","","","","","","","","","","","","","","","","","","","","","","","","","","","","","","","","","","","SYN004BUFR","","","","","","","","","",""
"01007099999","2021-08-28T22:00:00","78.9166666","11.9333333","7.7","NY ALESUND, SV","FM-12","4","","","","","","+0.03","7","","","","30.12","","","155","","0","","","","","","","","","","","","","","","","","","","","","","","","","","","","","","","","","","","","","","","","","","","","","","","","","","","","","","","","","","","","","","","","","","","","","","","","","","","","","","","","","","","","","","","","","","","SYN004BUFR","","","","","","","","","",""
"01007099999","2021-08-29T16:00:00","78.9166666","11.9333333","7.7","NY ALESUND, SV","FM-12","4","","","","","","+0.05","7","","","","29.82","","","113","30","24","","","","","","","","","","","","","","","","","","","","","","","","","","","","","","","","","","","","","","","","","","","","","","","","","","","","","","","","","","","","","","","","","","","","","","","","","","","","","","","","","","","","","","","","","","","SYN004BUFR","","","","","","","","","",""
"01007099999","2021-08-30T22:00:00","78.9166666","11.9333333","7.7","NY ALESUND, SV","FM-12","4","","","","","","+0.01","7","","","","29.59","","","293","","1","","","","","","","","","","","","","","","","","","","","","","","","","","","","","","","","","","","","","","","","","","","","","","","","","","","","","","","","","","","","","","","","","","","","","","","","","","","","","","","","","","","","","","","","","","","SYN004BUFR","","","","","","","","","",""
"01007099999","2021-08-31T04:00:00","78.9166666","11.9333333","7.7","NY ALESUND, SV","FM-12","4","","","","","","-0.00","2","","","","29.59","","","360","","0","","","","","","","","","","","","","","","","","","","","","","","","","","","","","","","","","","","","","","","","","","","","","","","","","","","","","","","","","","","","","","","","","","","","","","","","","","","","","","","","","","","","","","","","","","","SYN004BUFR","","","","","","","","","",""
"01007099999","2021-08-31T07:00:00","78.9166666","11.9333333","7.7","NY ALESUND, SV","FM-12","4","","","","","","-0.01","2","","SCT:04 82","","29.60","18.64","","186","","2","","","","","","","","","","","","","","","","","","","","","","","","","","","","","","","","","","","","","","","","","","","","","","","","","","","","","","","","","","","","","","","","","","","","","","","","","","","","","","","","","","","","","","","","","","","SYN004BUFR","","","","","","","","","",""
"01007099999","2021-09-02T13:00:00","78.9166666","11.9333333","7.7","NY ALESUND, SV","FM-12","4","","","","","","-0.02","2","","FEW:01 82","","30.02","31.07","","111","14","9","","","","","","","","","","","","","","","","","","","","","","","","","","","","","","","","","","","","","","","","","","","","","","","","","","","","","","","","","","","","","","","","","","","","","","","","","","","","","","","","","","","","","","","","","","","SYN004BUFR","","","","","","","","","",""
"01007099999","2021-09-03T22:00:00","78.9166666","11.9333333","7.7","NY ALESUND, SV","FM-12","4","","","","","","+0.01","7","","","","29.92","","","114","","2","","","","","","","","","","","","","","","","","","","","","","","","","","","","","","","","","","","","","","","","","","","","","","","","","","","","","","","","","","","","","","","","","","","","","","","","","","","","","","","","","","","","","","","","","","","SYN004BUFR","","","","","","","","","",""
"01007099999","2021-09-04T10:00:00","78.9166666","11.9333333","7.7","NY ALESUND, SV","FM-12","4","","","","","","-0.01","2","","","","29.89","","","113","","3","","","","","","","","","","","","","","","","","","","","","","","","","","","","","","","","","","","","","","","","","","","","","","","","","","","","","","","","","","","","","","","","","","","","","","","","","","","","","","","","","","","","","","","","","","","SYN004BUFR","","","","","","","","","",""
"01007099999","2021-09-06T10:00:00","78.9166666","11.9333333","7.7","NY ALESUND, SV","FM-12","4","","","","","","-0.01","2","","","","29.87","","","117","35","30","","","","","","","","","","","","","","","","","","","","","","","","","","","","","","","","","","","","","","","","","","","","","","","","","","","","","","","","","","","","","","","","","","","","","","","","","","","","","","","","","","","","","","","","","","","SYN004BUFR","","","","","","","","","",""
"01007099999","2021-09-06T16:00:00","78.9166666","11.9333333","7.7","NY ALESUND, SV","FM-12","4","","","","","","-0.00","2","","","","29.89","","","118","33","25","","","","","","","","","","","","","","","","","","","","","","","","","","","","","","","","","","","","","","","","","","","","","","","","","","","","","","","","","","","","","","","","","","","","","","","","","","","","","","","","","","","","","","","","","","","SYN004BUFR","","","","","","","","","",""
"01007099999","2021-09-08T10:00:00","78.9166666","11.9333333","7.7","NY ALESUND, SV","FM-12","4","","","","","","+0.00","5","","","","29.59","","","106","","5","","","","","","","","","","","","","","","","","","","","","","","","","","","","","","","","","","","","","","","","","","","","","","","","","","","","","","","","","","","","","","","","","","","","","","","","","","","","","","","","","","","","","","","","","","","SYN004BUFR","","","","","","","","","",""
"01007099999","2021-09-08T16:00:00","78.9166666","11.9333333","7.7","NY ALESUND, SV","FM-12","4","","","","","","-0.01","2","","","","29.59","","","127","15","13","","","","","","","","","","","","","","","","","","","","","","","","","","","","","","","","","","","","","","","","","","","","","","","","","","","","","","","","","","","","","","","","","","","","","","","","","","","","","","","","","","","","","","","","","","","SYN004BUFR","","","","","","","","","",""
"01007099999","2021-09-08T18:00:00","78.9166666","11.9333333","7.7","NY ALESUND, SV","FM-12","4","","","","","","-0.02","3","","","","29.62","","","120","16","9","","","","","","","","","","","","","","","","","","","","","","","","","","","","","","","","","","","","","","","","","","","","","","","","","","","","","","","","","","","","","","","","","","","","","","","","","","","","","","","","","","","","","","","","","","","SYN004BUFR","","","","","","","","","",""
"01007099999","2021-09-08T20:00:00","78.9166666","11.9333333","7.7","NY ALESUND, SV","FM-12","4","","","","","","-0.04","2","","","","29.63","","","134","","7","","","","","","","","","","","","","","","","","","","","","","","","","","","","","","","","","","","","","","","","","","","","","","","","","","","","","","","","","","","","","","","","","","","","","","","","","","","","","","","","","","","","","","","","","","","SYN004BUFR","","","","","","","","","",""
"01007099999","2021-09-08T22:00:00","78.9166666","11.9333333","7.7","NY ALESUND, SV","FM-12","4","","","","","","-0.04","2","","","","29.66","","","293","","3","","","","","","","","","","","","","","","","","","","","","","","","","","","","","","","","","","","","","","","","","","","","","","","","","","","","","","","","","","","","","","","","","","","","","","","","","","","","","","","","","","","","","","","","","","","SYN004BUFR","","","","","","","","","",""
"01007099999","2021-09-09T01:00:00","78.9166666","11.9333333","7.7","NY ALESUND, SV","FM-12","4","","","","","","-0.02","2","","","","29.68","","","360","","0","","","","","","","","","","","","","","","","","","","","","","","","","","","","","","","","","","","","","","","","","","","","","","","","","","","","","","","","","","","","","","","","","","","","","","","","","","","","","","","","","","","","","","","","","","","SYN004BUFR","","","","","","","","","",""
"01007099999","2021-09-09T11:00:00","78.9166666","11.9333333","7.7","NY ALESUND, SV","FM-12","4","","31","39","","","-0.02","2","72","","29.76","29.73","","36","266","","2","","","","","","","","","","","","","","","","","","","","","","","","","","","","","","","","","","","","","","","","","","","","","","","","","","","","","","","","","","","","","","","","","","","","","","","","","","","","","","","","","","","","","","","","","","","SYN004BUFR","","","","","","","","","",""
"01007099999","2021-09-09T15:00:00","78.9166666","11.9333333","7.7","NY ALESUND, SV","FM-12","4","","30","42","","","-0.01","2","63","","29.77","29.75","","37","125","","4","","","","","","","","","","","","","","","","","","","","","","","","","","","","","","","","","","","","","","","","","","","","","","","","","","","","","","","","","","","","","","","","","","","","","","","","","","","","","","","","","","","","","","","","","","","SYN004BUFR","","","","","","","","","",""
"01007099999","2021-09-09T17:00:00","78.9166666","11.9333333","7.7","NY ALESUND, SV","FM-12","4","","32","40","","","-0.00","2","75","","29.78","29.75","","37","077","12","3","","","","","","","","","","","","","","","","","","","","","","","","","","","","","","","","","","","","","","","","","","","","","","","","","","","","","","","","","","","","","","","","","","","","","","","","","","","","","","","","","","","","","","","","","","","SYN004BUFR","","","","","","","","","",""
"01007099999","2021-09-09T18:00:00","78.9166666","11.9333333","7.7","NY ALESUND, SV","FM-12","4","","32","40","","","-0.01","2","74","","29.78","29.75","","37","093","","4","","","","","","","","","","","","","","","","","","","","","","","","","","","","","","","","","","","","","","","","","","","","","","","","","","","","","","","","","","","","","","","","","","","","","","","","","","","","","","","","","","","","","","","","","","","SYN004BUFR","","","","","","","","","",""
"01007099999","2021-09-09T19:00:00","78.9166666","11.9333333","7.7","NY ALESUND, SV","FM-12","4","","31","40","","","-0.01","2","73","FEW:01 49","29.79","29.76","43.50","36","124","12","5","","","","","","","","","","","","","","","","","","","","","","","","","","","","","","","","","","","","","","","","","","","","","","","","","","","","","","","","","","","","","","","","","","","","","","","","","","","","","","","","","","","","","","","","","","","SYN004BUFR","","","","","","","","","",""
"01007099999","2021-09-09T20:00:00","78.9166666","11.9333333","7.7","NY ALESUND, SV","FM-12","4","","31","38","","","-0.01","2","74","","29.79","29.76","","35","270","","4","","","","","","","","","","","","","","","","","","","","","","","","","","","","","","","","","","","","","","","","","","","","","","","","","","","","","","","","","","","","","","","","","","","","","","","","","","","","","","","","","","","","","","","","","","","SYN004BUFR","","","","","","","","","",""
"01007099999","2021-09-09T21:00:00","78.9166666","11.9333333","7.7","NY ALESUND, SV","FM-12","4","","30","39","","","-0.01","2","72","","29.80","29.77","","35","144","13","10","","","","","","","","","","","","","","","","","","","","","","","","","","","","","","","","","","","","","","","","","","","","","","","","","","","","","","","","","","","","","","","","","","","","","","","","","","","","","","","","","","","","","","","","","","","SYN004BUFR","","","","","","","","","",""
"01007099999","2021-09-09T23:00:00","78.9166666","11.9333333","7.7","NY ALESUND, SV","FM-12","4","","30","38","","","-0.02","2","73","","29.81","29.78","","35","193","","2","","","","","","","","","","","","","","","","","","","","","","","","","","","","","","","","","","","","","","","","","","","","","","","","","","","","","","","","","","","","","","","","","","","","","","","","","","","","","","","","","","","","","","","","","","","SYN004BUFR","","","","","","","","","",""
"01007099999","2021-09-10T02:00:00","78.9166666","11.9333333","7.7","NY ALESUND, SV","FM-12","4","","30","37","","","-0.01","2","76","","29.82","29.79","","34","272","","3","","","","","","","","","","","","","","","","","","","","","","","","","","","","","","","","","","","","","","","","","","","","","","","","","","","","","","","","","","","","","","","","","","","","","","","","","","","","","","","","","","","","","","","","","","","SYN004BUFR","","","","","","","","","",""
"01007099999","2021-09-10T03:00:00","78.9166666","11.9333333","7.7","NY ALESUND, SV","FM-12","4","","30","38","","","-0.01","2","73","","29.83","29.80","","35","084","","2","","","","","","","","","","","","","","","","","","","","","","","","","","","","","","","","","","","","","","","","","","","","","","","","","","","","","","","","","","","","","","","","","","","","","","","","","","","","","","","","","","","","","","","","","","","SYN004BUFR","","","","","","","","","",""
"01007099999","2021-09-10T06:00:00","78.9166666","11.9333333","7.7","NY ALESUND, SV","FM-12","4","","29","40","","","-0.01","2","64","","29.84","29.81","","36","131","17","13","","","","","","","","","","","","","","","","","","","","","","","","","","","","","","","","","","","","","","","","","","","","","","","","","","","","","","","","","","","","","","","","","","","","","","","","","","","","","","","","","","","","","","","","","","","SYN004BUFR","","","","","","","","","",""
"01007099999","2021-09-10T08:00:00","78.9166666","11.9333333","7.7","NY ALESUND, SV","FM-12","4","","29","41","","","-0.03","2","64","","29.86","29.83","","36","133","","6","","","","","","","","","","","","","","","","","","","","","","","","","","","","","","","","","","","","","","","","","","","","","","","","","","","","","","","","","","","","","","","","","","","","","","","","","","","","","","","","","","","","","","","","","","","SYN004BUFR","","","","","","","","","",""
"01007099999","2021-09-10T11:00:00","78.9166666","11.9333333","7.7","NY ALESUND, SV","FM-12","4","","30","42","","","-0.04","2","62","","29.90","29.87","","37","103","15","9","","","","","","","","","","","","","","","","","","","","","","","","","","","","","","","","","","","","","","","","","","","","","","","","","","","","","","","","","","","","","","","","","","","","","","","","","","","","","","","","","","","","","","","","","","","SYN004BUFR","","","","","","","","","",""
"01007099999","2021-09-10T14:00:00","78.9166666","11.9333333","7.7","NY ALESUND, SV","FM-12","4","","32","41","","","-0.03","2","70","","29.93","29.91","","37","094","","8","","","","","","","","","","","","","","","","","","","","","","","","","","","","","","","","","","","","","","","","","","","","","","","","","","","","","","","","","","","","","","","","","","","","","","","","","","","","","","","","","","","","","","","","","","","SYN004BUFR","","","","","","","","","",""
"01007099999","2021-09-10T18:00:00","78.9166666","11.9333333","7.7","NY ALESUND, SV","FM-12","4","","30","39","","","-0.01","2","71","","29.94","29.91","","35","275","","5","","","","","","","","","","","","","","","","","","","","","","","","","","","","","","","","","","","","","","","","","","","","","","","","","","","","","","","","","","","","","","","","","","","","","","","","","","","","","","","","","","","","","","","","","","","SYN004BUFR","","","","","","","","","",""
"01007099999","2021-09-10T22:00:00","78.9166666","11.9333333","7.7","NY ALESUND, SV","FM-12","4","","25","34","","","-0.01","2","70","","29.96","29.93","","31","311","","2","","","","","","","","","","","","","","","","","","","","","","","","","","","","","","","","","","","","","","","","","","","","","","","","","","","","","","","","","","","","","","","","","","","","","","","","","","","","","","","","","","","","","","","","","","","SYN004BUFR","","","","","","","","","",""
"01007099999","2021-09-11T00:00:00","78.9166666","11.9333333","7.7","NY ALESUND, SV","FM-12","4","","22","34","","","-0.01","3","60","","29.97","29.94","","30","121","18","13","","","","","","","","","","","","","","","","","","","","","","","","","","","","","","","","","","","","","","","","","","","","","","","","","","","","","","","","","","","","","","","","","","","","","","","","","","","","","","","","","","","","","","","","","","","SYN004BUFR","","","","","","","","","",""
"01007099999","2021-09-11T02:00:00","78.9166666","11.9333333","7.7","NY ALESUND, SV","FM-12","4","","26","34","","","-0.01","0","72","","29.97","29.94","","31","078","12","6","","","","","","","","","","","","","","","","","","","","","","","","","","","","","","","","","","","","","","","","","","","","","","","","","","","","","","","","","","","","","","","","","","","","","","","","","","","","","","","","","","","","","","","","","","","SYN004BUFR","","","","","","","","","",""
"01007099999","2021-09-11T03:00:00","78.9166666","11.9333333","7.7","NY ALESUND, SV","FM-12","4","","23","33","","","+0.01","5","66","","29.96","29.93","","29","259","","2","","","","","","","","","","","","","","","","","","","","","","","","","","","","","","","","","","","","","","","","","","","","","","","","","","","","","","","","","","","","","","","","","","","","","","","","","","","","","","","","","","","","","","","","","","","SYN004BUFR","","","","","","","","","",""
"01007099999","2021-09-11T09:00:00","78.9166666","11.9333333","7.7","NY ALESUND, SV","FM-12","4","","27","37","","","+0.01","7","66","","29.93","29.91","","33","142","","2","","","","","","","","","","","","","","","","","","","","","","","","","","","","","","","","","","","","","","","","","","","","","","","","","","","","","","","","","","","","","","","","","","","","","","","","","","","","","","","","","","","","","","","","","","","SYN004BUFR","","","","","","","","","",""
"01007099999","2021-09-11T10:00:00","78.9166666","11.9333333","7.7","NY ALESUND, SV","FM-12","4","","27","37","","","","","67","","29.93","29.91","","33","105","","2","","","","","","","","","","","","","","","","","","","","","","","","","","","","","","","","","","","","","","","","","","","","","","","","","","","","","","","","","","","","","","","","","","","","","","","","","","","","","","","","","","","","","","","","","","","SYN004BUFR","","","","","","","","","",""
"01007099999","2021-09-11T11:00:00","78.9166666","11.9333333","7.7","NY ALESUND, SV","FM-12","4","","27","37","","","+0.01","7","67","","29.93","29.90","","33","037","","1","","","","","","","","","","","","","","","","","","","","","","","","","","","","","","","","","","","","","","","","","","","","","","","","","","","","","","","","","","","","","","","","","","","","","","","","","","","","","","","","","","","","","","","","","","","SYN004BUFR","","","","","","","","","",""
"01007099999","2021-09-11T12:00:00","78.9166666","11.9333333","7.7","NY ALESUND, SV","FM-12","4","","26","37","","","+0.01","7","66","","29.93","29.90","","33","081","","3","","","","","","","","","","","","","","","","","","","","","","","","","","","","","","","","","","","","","","","","","","","","","","","","","","","","","","","","","","","","","","","","","","","","","","","","","","","","","","","","","","","","","","","","","","","SYN004BUFR","","","","","","","","","",""
"01007099999","2021-09-11T13:00:00","78.9166666","11.9333333","7.7","NY ALESUND, SV","FM-12","4","","27","37","","","+0.01","7","66","BKN:05 33","29.92","29.89","46.60","33","101","","5","","","","","","","","","","","","","","","","","","","","","","","","","","","","","","","","","","","","","","","","","","","","","","","","","","","","","","","","","","","","","","","","","","","","","","","","","","","","","","","","","","","","","","","","","","","SYN004BUFR","","","","","","","","","",""
"01007099999","2021-09-11T14:00:00","78.9166666","11.9333333","7.7","NY ALESUND, SV","FM-12","4","","25","37","","","+0.02","7","63","","29.91","29.88","","33","130","17","14","","","","","","","","","","","","","","","","","","","","","","","","","","","","","","","","","","","","","","","","","","","","","","","","","","","","","","","","","","","","","","","","","","","","","","","","","","","","","","","","","","","","","","","","","","","SYN004BUFR","","","","","","","","","",""
"01007099999","2021-09-11T15:00:00","78.9166666","11.9333333","7.7","NY ALESUND, SV","FM-12","4","","26","37","","","+0.02","6","64","","29.91","29.88","","33","119","17","9","","","","","","","","","","","","","","","","","","","","","","","","","","","","","","","","","","","","","","","","","","","","","","","","","","","","","","","","","","","","","","","","","","","","","","","","","","","","","","","","","","","","","","","","","","","SYN004BUFR","","","","","","","","","",""
"01007099999","2021-09-11T16:00:00","78.9166666","11.9333333","7.7","NY ALESUND, SV","FM-12","4","","25","36","","","+0.02","7","64","","29.90","29.87","","32","144","11","6","","","","","","","","","","","","","","","","","","","","","","","","","","","","","","","","","","","","","","","","","","","","","","","","","","","","","","","","","","","","","","","","","","","","","","","","","","","","","","","","","","","","","","","","","","","SYN004BUFR","","","","","","","","","",""
"01007099999","2021-09-11T18:00:00","78.9166666","11.9333333","7.7","NY ALESUND, SV","FM-12","4","","26","35","","","+0.02","7","70","","29.89","29.86","","32","119","13","8","","","","","","","","","","","","","","","","","","","","","","","","","","","","","","","","","","","","","","","","","","","","","","","","","","","","","","","","","","","","","","","","","","","","","","","","","","","","","","","","","","","","","","","","","","","SYN004BUFR","","","","","","","","","",""
"01007099999","2021-09-11T21:00:00","78.9166666","11.9333333","7.7","NY ALESUND, SV","FM-12","4","","25","33","","","0.00","4","71","","29.89","29.86","","30","115","16","9","","","","","","","","","","","","","","","","","","","","","","","","","","","","","","","","","","","","","","","","","","","","","","","","","","","","","","","","","","","","","","","","","","","","","","","","","","","","","","","","","","","","","","","","","","","SYN004BUFR","","","","","","","","","",""
"01007099999","2021-09-11T23:00:00","78.9166666","11.9333333","7.7","NY ALESUND, SV","FM-12","4","","25","33","","","0.00","4","73","","29.89","29.86","","30","149","","8","","","","","","","","","","","","","","","","","","","","","","","","","","","","","","","","","","","","","","","","","","","","","","","","","","","","","","","","","","","","","","","","","","","","","","","","","","","","","","","","","","","","","","","","","","","SYN004BUFR","","","","","","","","","",""
"01007099999","2021-09-12T00:00:00","78.9166666","11.9333333","7.7","NY ALESUND, SV","FM-12","4","","26","33","","","0.00","4","73","","29.89","29.86","","30","129","15","10","","","","","","","","","","","","","","","","","","","","","","","","","","","","","","","","","","","","","","","","","","","","","","","","","","","","","","","","","","","","","","","","","","","","","","","","","","","","","","","","","","","","","","","","","","","SYN004BUFR","","","","","","","","","",""
"01007099999","2021-09-12T01:00:00","78.9166666","11.9333333","7.7","NY ALESUND, SV","FM-12","4","","25","34","","","+0.01","7","69","","29.88","29.85","","31","132","17","10","","","","","","","","","","","","","","","","","","","","","","","","","","","","","","","","","","","","","","","","","","","","","","","","","","","","","","","","","","","","","","","","","","","","","","","","","","","","","","","","","","","","","","","","","","","SYN004BUFR","","","","","","","","","",""
"01007099999","2021-09-12T03:00:00","78.9166666","11.9333333","7.7","NY ALESUND, SV","FM-12","4","","26","34","","","+0.02","7","72","","29.87","29.84","","31","099","17","15","","","","","","","","","","","","","","","","","","","","","","","","","","","","","","","","","","","","","","","","","","","","","","","","","","","","","","","","","","","","","","","","","","","","","","","","","","","","","","","","","","","","","","","","","","","SYN004BUFR","","","","","","","","","",""
"01007099999","2021-09-12T05:00:00","78.9166666","11.9333333","7.7","NY ALESUND, SV","FM-12","4","","25","35","","","+0.03","7","68","","29.84","29.81","","31","178","13","6","","","","","","","","","","","","","","","","","","","","","","","","","","","","","","","","","","","","","","","","","","","","","","","","","","","","","","","","","","","","","","","","","","","","","","","","","","","","","","","","","","","","","","","","","","","SYN004BUFR","","","","","","","","","",""
"01007099999","2021-09-12T06:00:00","78.9166666","11.9333333","7.7","NY ALESUND, SV","FM-12","4","","25","35","","","+0.03","7","66","","29.83","29.80","","31","162","","4","","","","","","","","","","","","","","","","","","","","","","","","","","","","","","","","","","","","","","","","","","","","","","","","","","","","","","","","","","","","","","","","","","","","","","","","","","","","","","","","","","","","","","","","","","","SYN004BUFR","","","","","","","","","",""
"01007099999","2021-09-12T08:00:00","78.9166666","11.9333333","7.7","NY ALESUND, SV","FM-12","4","","25","37","","","+0.01","7","62","","29.83","29.80","","33","251","12","7","","","","","","","","","","","","","","","","","","","","","","","","","","","","","","","","","","","","","","","","","","","","","","","","","","","","","","","","","","","","","","","","","","","","","","","","","","","","","","","","","","","","","","","","","","","SYN004BUFR","","","","","","","","","",""
"01007099999","2021-09-12T09:00:00","78.9166666","11.9333333","7.7","NY ALESUND, SV","FM-12","4","","26","36","","","+0.00","7","68","","29.83","29.80","","32","283","","4","","","","","","","","","","","","","","","","","","","","","","","","","","","","","","","","","","","","","","","","","","","","","","","","","","","","","","","","","","","","","","","","","","","","","","","","","","","","","","","","","","","","","","","","","","","SYN004BUFR","","","","","","","","","",""
"01007099999","2021-09-12T11:00:00","78.9166666","11.9333333","7.7","NY ALESUND, SV","FM-12","4","","26","39","","","-0.01","2","58","","29.84","29.81","","34","115","15","8","","","","","","","","","","","","","","","","","","","","","","","","","","","","","","","","","","","","","","","","","","","","","","","","","","","","","","","","","","","","","","","","","","","","","","","","","","","","","","","","","","","","","","","","","","","SYN004BUFR","","","","","","","","","",""
"01007099999","2021-09-12T14:00:00","78.9166666","11.9333333","7.7","NY ALESUND, SV","FM-12","4","","28","40","","","-0.02","2","62","","29.85","29.83","","35","115","14","9","","","","","","","","","","","","","","","","","","","","","","","","","","","","","","","","","","","","","","","","","","","","","","","","","","","","","","","","","","","","","","","","","","","","","","","","","","","","","","","","","","","","","","","","","","","SYN004BUFR","","","","","","","","","",""
"01007099999","2021-09-12T17:00:00","78.9166666","11.9333333","7.7","NY ALESUND, SV","FM-12","4","","30","39","","","-0.01","2","70","","29.86","29.83","","35","249","17","3","","","","","","","","","","","","","","","","","","","","","","","","","","","","","","","","","","","","","","","","","","","","","","","","","","","","","","","","","","","","","","","","","","","","","","","","","","","","","","","","","","","","","","","","","","","SYN004BUFR","","","","","","","","","",""
"01007099999","2021-09-12T18:00:00","78.9166666","11.9333333","7.7","NY ALESUND, SV","FM-12","4","","30","39","","","-0.01","2","70","","29.86","29.83","","35","105","","2","","","","","","","","","","","","","","","","","","","","","","","","","","","","","","","","","","","","","","","","","","","","","","","","","","","","","","","","","","","","","","","","","","","","","","","","","","","","","","","","","","","","","","","","","","","SYN004BUFR","","","","","","","","","",""
"01007099999","2021-09-12T20:00:00","78.9166666","11.9333333","7.7","NY ALESUND, SV","FM-12","4","","28","39","","","-0.01","2","65","","29.87","29.84","","35","117","","2","","","","","","","","","","","","","","","","","","","","","","","","","","","","","","","","","","","","","","","","","","","","","","","","","","","","","","","","","","","","","","","","","","","","","","","","","","","","","","","","","","","","","","","","","","","SYN004BUFR","","","","","","","","","",""
"01007099999","2021-09-12T22:00:00","78.9166666","11.9333333","7.7","NY ALESUND, SV","FM-12","4","","28","37","","","-0.02","2","70","","29.88","29.85","","34","245","","3","","","","","","","","","","","","","","","","","","","","","","","","","","","","","","","","","","","","","","","","","","","","","","","","","","","","","","","","","","","","","","","","","","","","","","","","","","","","","","","","","","","","","","","","","","","SYN004BUFR","","","","","","","","","",""
"01007099999","2021-09-13T01:00:00","78.9166666","11.9333333","7.7","NY ALESUND, SV","FM-12","4","","26","35","","","-0.02","2","69","","29.91","29.88","","32","194","","2","","","","","","","","","","","","","","","","","","","","","","","","","","","","","","","","","","","","","","","","","","","","","","","","","","","","","","","","","","","","","","","","","","","","","","","","","","","","","","","","","","","","","","","","","","","SYN004BUFR","","","","","","","","","",""
"01007099999","2021-09-13T02:00:00","78.9166666","11.9333333","7.7","NY ALESUND, SV","FM-12","4","","24","35","","","-0.01","2","66","","29.91","29.88","","31","142","","3","","","","","","","","","","","","","","","","","","","","","","","","","","","","","","","","","","","","","","","","","","","","","","","","","","","","","","","","","","","","","","","","","","","","","","","","","","","","","","","","","","","","","","","","","","","SYN004BUFR","","","","","","","","","",""
"01007099999","2021-09-13T04:00:00","78.9166666","11.9333333","7.7","NY ALESUND, SV","FM-12","4","","26","34","","","-0.02","3","72","","29.93","29.90","","31","286","","2","","","","","","","","","","","","","","","","","","","","","","","","","","","","","","","","","","","","","","","","","","","","","","","","","","","","","","","","","","","","","","","","","","","","","","","","","","","","","","","","","","","","","","","","","","","SYN004BUFR","","","","","","","","","",""
"01007099999","2021-09-13T07:00:00","78.9166666","11.9333333","7.7","NY ALESUND, SV","FM-12","4","","26","34","","","-0.02","2","72","BKN:06 49","29.95","29.92","31.07","31","216","","1","","","","","","","","","","","","","","","","","","","","","","","","","","","","","","","","","","","","","","","","","","","","","","","","","","","","","","","","","","","","","","","","","","","","","","","","","","","","","","","","","","","","","","","","","","","SYN004BUFR","","","","","","","","","",""
"01007099999","2021-09-13T09:00:00","78.9166666","11.9333333","7.7","NY ALESUND, SV","FM-12","4","","26","37","","","-0.03","2","65","","29.98","29.95","","33","316","","1","","","","","","","","","","","","","","","","","","","","","","","","","","","","","","","","","","","","","","","","","","","","","","","","","","","","","","","","","","","","","","","","","","","","","","","","","","","","","","","","","","","","","","","","","","","SYN004BUFR","","","","","","","","","",""
"01007099999","2021-09-13T11:00:00","78.9166666","11.9333333","7.7","NY ALESUND, SV","FM-12","4","","29","37","","","-0.03","2","73","","29.99","29.96","","34","109","","3","","","","","","","","","","","","","","","","","","","","","","","","","","","","","","","","","","","","","","","","","","","","","","","","","","","","","","","","","","","","","","","","","","","","","","","","","","","","","","","","","","","","","","","","","","","SYN004BUFR","","","","","","","","","",""
"01007099999","2021-09-13T12:00:00","78.9166666","11.9333333","7.7","NY ALESUND, SV","FM-12","4","","29","37","","","-0.02","1","72","","29.99","29.96","","34","098","","3","","","","","","","","","","","","","","","","","","","","","","","","","","","","","","","","","","","","","","","","","","","","","","","","","","","","","","","","","","","","","","","","","","","","","","","","","","","","","","","","","","","","","","","","","","","SYN004BUFR","","","","","","","","","",""
"01007099999","2021-09-13T13:00:00","78.9166666","11.9333333","7.7","NY ALESUND, SV","FM-12","4","","28","37","","","-0.01","2","70","","30.00","29.97","31.07","34","121","","3","","","","","","","","","","","","","","","","","","","","","","","","","","","","","","","","","","","","","","","","","","","","","","","","","","","","","","","","","","","","","","","","","","","","","","","","","","","","","","","","","","","","","","","","","","","SYN004BUFR","","","","","","","","","",""
"01007099999","2021-09-13T14:00:00","78.9166666","11.9333333","7.7","NY ALESUND, SV","FM-12","4","","29","40","","","-0.02","3","66","","30.01","29.98","","36","001","","0","","","","","","","","","","","","","","","","","","","","","","","","","","","","","","","","","","","","","","","","","","","","","","","","","","","","","","","","","","","","","","","","","","","","","","","","","","","","","","","","","","","","","","","","","","","SYN004BUFR","","","","","","","","","",""
"01007099999","2021-09-13T16:00:00","78.9166666","11.9333333","7.7","NY ALESUND, SV","FM-12","4","","29","38","","","-0.03","2","70","","30.03","30.00","","34","152","","2","","","","","","","","","","","","","","","","","","","","","","","","","","","","","","","","","","","","","","","","","","","","","","","","","","","","","","","","","","","","","","","","","","","","","","","","","","","","","","","","","","","","","","","","","","","SYN004BUFR","","","","","","","","","",""
"01007099999","2021-09-13T17:00:00","78.9166666","11.9333333","7.7","NY ALESUND, SV","FM-12","4","","30","37","","","-0.03","2","77","","30.04","30.01","","34","296","","1","","","","","","","","","","","","","","","","","","","","","","","","","","","","","","","","","","","","","","","","","","","","","","","","","","","","","","","","","","","","","","","","","","","","","","","","","","","","","","","","","","","","","","","","","","","SYN004BUFR","","","","","","","","","",""
"01007099999","2021-09-13T18:00:00","78.9166666","11.9333333","7.7","NY ALESUND, SV","FM-12","4","","32","36","","","-0.01","2","84","","30.04","30.01","","34","163","","2","","","","","","","","","","","","","","","","","","","","","","","","","","","","","","","","","","","","","","","","","","","","","","","","","","","","","","","","","","","","","","","","","","","","","","","","","","","","","","","","","","","","","","","","","","","SYN004BUFR","","","","","","","","","",""
"01007099999","2021-09-13T19:00:00","78.9166666","11.9333333","7.7","NY ALESUND, SV","FM-12","4","","30","35","","","-0.01","2","83","FEW:02 10","30.05","30.02","18.64","33","295","","2","","","","","","","","","","","","","","","","","","","","","","","","","","","","","","","","","","","","","","","","","","","","","","","","","","","","","","","","","","","","","","","","","","","","","","","","","","","","","","","","","","","","","","","","","","","SYN004BUFR","","","","","","","","","",""
"01007099999","2021-09-13T20:00:00","78.9166666","11.9333333","7.7","NY ALESUND, SV","FM-12","4","","29","33","","","-0.01","2","85","","30.05","30.02","","31","340","","2","","","","","","","","","","","","","","","","","","","","","","","","","","","","","","","","","","","","","","","","","","","","","","","","","","","","","","","","","","","","","","","","","","","","","","","","","","","","","","","","","","","","","","","","","","","SYN004BUFR","","","","","","","","","",""
"01007099999","2021-09-13T22:00:00","78.9166666","11.9333333","7.7","NY ALESUND, SV","FM-12","4","","30","32","","","-0.02","2","92","","30.07","30.04","","31","027","","0","","","","","","","","","","","","","","","","","","","","","","","","","","","","","","","","","","","","","","","","","","","","","","","","","","","","","","","","","","","","","","","","","","","","","","","","","","","","","","","","","","","","","","","","","","","SYN004BUFR","","","","","","","","","",""
"01007099999","2021-09-13T23:00:00","78.9166666","11.9333333","7.7","NY ALESUND, SV","FM-12","4","","29","31","","","-0.03","2","92","","30.08","30.05","","30","088","","2","","","","","","","","","","","","","","","","","","","","","","","","","","","","","","","","","","","","","","","","","","","","","","","","","","","","","","","","","","","","","","","","","","","","","","","","","","","","","","","","","","","","","","","","","","","SYN004BUFR","","","","","","","","","",""
"01007099999","2021-09-14T00:00:00","78.9166666","11.9333333","7.7","NY ALESUND, SV","FM-12","4","","29","31","","","-0.02","2","91","","30.08","30.05","","30","275","","3","","","","","","","","","","","","","","","","","","","","","","","","","","","","","","","","","","","","","","","","","","","","","","","","","","","","","","","","","","","","","","","","","","","","","","","","","","","","","","","","","","","","","","","","","","","SYN004BUFR","","","","","","","","","",""
"01007099999","2021-09-14T01:00:00","78.9166666","11.9333333","7.7","NY ALESUND, SV","FM-12","4","","29","32","","","-0.02","2","89","","30.09","30.06","","31","038","","1","","","","","","","","","","","","","","","","","","","","","","","","","","","","","","","","","","","","","","","","","","","","","","","","","","","","","","","","","","","","","","","","","","","","","","","","","","","","","","","","","","","","","","","","","","","SYN004BUFR","","","","","","","","","",""
"01007099999","2021-09-14T05:00:00","78.9166666","11.9333333","7.7","NY ALESUND, SV","FM-12","4","","28","33","","","-0.01","2","81","","30.11","30.08","","31","129","","3","","","","","","","","","","","","","","","","","","","","","","","","","","","","","","","","","","","","","","","","","","","","","","","","","","","","","","","","","","","","","","","","","","","","","","","","","","","","","","","","","","","","","","","","","","","SYN004BUFR","","","","","","","","","",""
"01007099999","2021-09-14T06:00:00","78.9166666","11.9333333","7.7","NY ALESUND, SV","FM-12","4","","28","32","","","-0.01","2","85","","30.12","30.09","","31","264","","4","","","","","","","","","","","","","","","","","","","","","","","","","","","","","","","","","","","","","","","","","","","","","","","","","","","","","","","","","","","","","","","","","","","","","","","","","","","","","","","","","","","","","","","","","","","SYN004BUFR","","","","","","","","","",""
"01007099999","2021-09-14T08:00:00","78.9166666","11.9333333","7.7","NY ALESUND, SV","FM-12","4","","29","34","","","-0.02","2","82","","30.13","30.10","","32","230","","2","","","","","","","","","","","","","","","","","","","","","","","","","","","","","","","","","","","","","","","","","","","","","","","","","","","","","","","","","","","","","","","","","","","","","","","","","","","","","","","","","","","","","","","","","","","SYN004BUFR","","","","","","","","","",""
"01007099999","2021-09-14T10:00:00","78.9166666","11.9333333","7.7","NY ALESUND, SV","FM-12","4","","28","36","","","-0.03","2","74","","30.15","30.12","","33","113","","3","","","","","","","","","","","","","","","","","","","","","","","","","","","","","","","","","","","","","","","","","","","","","","","","","","","","","","","","","","","","","","","","","","","","","","","","","","","","","","","","","","","","","","","","","","","SYN004BUFR","","","","","","","","","",""
"01007099999","2021-09-14T11:00:00","78.9166666","11.9333333","7.7","NY ALESUND, SV","FM-12","4","","28","36","","","-0.03","2","73","","30.16","30.13","","33","139","","3","","","","","","","","","","","","","","","","","","","","","","","","","","","","","","","","","","","","","","","","","","","","","","","","","","","","","","","","","","","","","","","","","","","","","","","","","","","","","","","","","","","","","","","","","","","SYN004BUFR","","","","","","","","","",""
"01007099999","2021-09-14T12:00:00","78.9166666","11.9333333","7.7","NY ALESUND, SV","FM-12","4","","28","37","","","-0.03","2","71","","30.16","30.14","","34","124","","3","","","","","","","","","","","","","","","","","","","","","","","","","","","","","","","","","","","","","","","","","","","","","","","","","","","","","","","","","","","","","","","","","","","","","","","","","","","","","","","","","","","","","","","","","","","SYN004BUFR","","","","","","","","","",""
"01007099999","2021-09-14T13:00:00","78.9166666","11.9333333","7.7","NY ALESUND, SV","FM-12","4","","28","37","","","-0.02","2","68","OVC:08 33","30.17","30.14","37.28","34","137","","5","","","","","","","","","","","","","","","","","","","","","","","","","","","","","","","","","","","","","","","","","","","","","","","","","","","","","","","","","","","","","","","","","","","","","","","","","","","","","","","","","","","","","","","","","","","SYN004BUFR","","","","","","","","","",""
"01007099999","2021-09-14T14:00:00","78.9166666","11.9333333","7.7","NY ALESUND, SV","FM-12","4","","28","38","","","-0.01","2","67","","30.18","30.15","","34","143","","5","","","","","","","","","","","","","","","","","","","","","","","","","","","","","","","","","","","","","","","","","","","","","","","","","","","","","","","","","","","","","","","","","","","","","","","","","","","","","","","","","","","","","","","","","","","SYN004BUFR","","","","","","","","","",""
"01007099999","2021-09-14T15:00:00","78.9166666","11.9333333","7.7","NY ALESUND, SV","FM-12","4","","29","37","","","-0.02","2","72","","30.18","30.15","","34","170","","6","","","","","","","","","","","","","","","","","","","","","","","","","","","","","","","","","","","","","","","","","","","","","","","","","","","","","","","","","","","","","","","","","","","","","","","","","","","","","","","","","","","","","","","","","","","SYN004BUFR","","","","","","","","","",""
"01007099999","2021-09-14T17:00:00","78.9166666","11.9333333","7.7","NY ALESUND, SV","FM-12","4","","31","36","","","-0.01","2","80","","30.19","30.16","","34","219","","2","","","","","","","","","","","","","","","","","","","","","","","","","","","","","","","","","","","","","","","","","","","","","","","","","","","","","","","","","","","","","","","","","","","","","","","","","","","","","","","","","","","","","","","","","","","SYN004BUFR","","","","","","","","","",""
"01007099999","2021-09-14T18:00:00","78.9166666","11.9333333","7.7","NY ALESUND, SV","FM-12","4","","31","36","","","-0.00","2","82","","30.19","30.16","","34","251","","2","","","","","","","","","","","","","","","","","","","","","","","","","","","","","","","","","","","","","","","","","","","","","","","","","","","","","","","","","","","","","","","","","","","","","","","","","","","","","","","","","","","","","","","","","","","SYN004BUFR","","","","","","","","","",""
"01007099999","2021-09-14T21:00:00","78.9166666","11.9333333","7.7","NY ALESUND, SV","FM-12","4","","31","36","","","-0.01","2","83","","30.19","30.16","","34","118","","4","","","","","","","","","","","","","","","","","","","","","","","","","","","","","","","","","","","","","","","","","","","","","","","","","","","","","","","","","","","","","","","","","","","","","","","","","","","","","","","","","","","","","","","","","","","SYN004BUFR","","","","","","","","","",""
"01007099999","2021-09-15T00:00:00","78.9166666","11.9333333","7.7","NY ALESUND, SV","FM-12","4","","30","35","","","0.00","4","83","","30.19","30.16","","33","132","","5","","","","","","","","","","","","","","","","","","","","","","","","","","","","","","","","","","","","","","","","","","","","","","","","","","","","","","","","","","","","","","","","","","","","","","","","","","","","","","","","","","","","","","","","","","","SYN004BUFR","","","","","","","","","",""
"01007099999","2021-09-15T02:00:00","78.9166666","11.9333333","7.7","NY ALESUND, SV","FM-12","4","","30","35","","","0.00","4","82","","30.19","30.16","","33","114","","5","","","","","","","","","","","","","","","","","","","","","","","","","","","","","","","","","","","","","","","","","","","","","","","","","","","","","","","","","","","","","","","","","","","","","","","","","","","","","","","","","","","","","","","","","","","SYN004BUFR","","","","","","","","","",""
"01007099999","2021-09-15T03:00:00","78.9166666","11.9333333","7.7","NY ALESUND, SV","FM-12","4","","30","36","","","+0.00","8","80","","30.19","30.16","","34","118","","5","","","","","","","","","","","","","","","","","","","","","","","","","","","","","","","","","","","","","","","","","","","","","","","","","","","","","","","","","","","","","","","","","","","","","","","","","","","","","","","","","","","","","","","","","","","SYN004BUFR","","","","","","","","","",""
"01007099999","2021-09-15T05:00:00","78.9166666","11.9333333","7.7","NY ALESUND, SV","FM-12","4","","30","36","","","+0.01","7","78","","30.18","30.15","","34","226","","2","","","","","","","","","","","","","","","","","","","","","","","","","","","","","","","","","","","","","","","","","","","","","","","","","","","","","","","","","","","","","","","","","","","","","","","","","","","","","","","","","","","","","","","","","","","SYN004BUFR","","","","","","","","","",""
"01007099999","2021-09-15T07:00:00","78.9166666","11.9333333","7.7","NY ALESUND, SV","FM-12","4","","29","37","","","+0.01","7","74","OVC:08 33","30.17","30.14","37.28","34","289","","1","","","","","","","","","","","","","","","","","","","","","","","","","","","","","","","","","","","","","","","","","","","","","","","","","","","","","","","","","","","","","","","","","","","","","","","","","","","","","","","","","","","","","","","","","","","SYN004BUFR","","","","","","","","","",""
"01007099999","2021-09-15T08:00:00","78.9166666","11.9333333","7.7","NY ALESUND, SV","FM-12","4","","29","38","","","+0.01","7","73","","30.17","30.14","","34","251","","2","","","","","","","","","","","","","","","","","","","","","","","","","","","","","","","","","","","","","","","","","","","","","","","","","","","","","","","","","","","","","","","","","","","","","","","","","","","","","","","","","","","","","","","","","","","SYN004BUFR","","","","","","","","","",""
"01007099999","2021-09-15T09:00:00","78.9166666","11.9333333","7.7","NY ALESUND, SV","FM-12","4","","31","38","","","+0.00","7","79","","30.17","30.14","","35","283","","1","","","","","","","","","","","","","","","","","","","","","","","","","","","","","","","","","","","","","","","","","","","","","","","","","","","","","","","","","","","","","","","","","","","","","","","","","","","","","","","","","","","","","","","","","","","SYN004BUFR","","","","","","","","","",""
"01007099999","2021-09-15T10:00:00","78.9166666","11.9333333","7.7","NY ALESUND, SV","FM-12","4","","31","38","","","+0.01","7","74","","30.16","30.14","","35","199","","4","","","","","","","","","","","","","","","","","","","","","","","","","","","","","","","","","","","","","","","","","","","","","","","","","","","","","","","","","","","","","","","","","","","","","","","","","","","","","","","","","","","","","","","","","","","SYN004BUFR","","","","","","","","","",""
"01007099999","2021-09-15T12:00:00","78.9166666","11.9333333","7.7","NY ALESUND, SV","FM-12","4","","29","39","","","+0.01","7","66","","30.16","30.13","","35","190","14","7","","","","","","","","","","","","","","","","","","","","","","","","","","","","","","","","","","","","","","","","","","","","","","","","","","","","","","","","","","","","","","","","","","","","","","","","","","","","","","","","","","","","","","","","","","","SYN004BUFR","","","","","","","","","",""
"01007099999","2021-09-15T13:00:00","78.9166666","11.9333333","7.7","NY ALESUND, SV","FM-12","4","","28","39","","","+0.01","7","65","OVC:08 20","30.15","30.12","31.07","35","203","15","8","","","","","","","","","","","","","","","","","","","","","","","","","","","","","","","","","","","","","","","","","","","","","","","","","","","","","","","","","","","","","","","","","","","","","","","","","","","","","","","","","","","","","","","","","","","SYN004BUFR","","","","","","","","","",""
"01007099999","2021-09-15T17:00:00","78.9166666","11.9333333","7.7","NY ALESUND, SV","FM-12","4","","28","37","","","+0.02","7","71","","30.13","30.10","","34","119","23","18","","","","","","","","","","","","","","","","","","","","","","","","","","","","","","","","","","","","","","","","","","","","","","","","","","","","","","","","","","","","","","","","","","","","","","","","","","","","","","","","","","","","","","","","","","","SYN004BUFR","","","","","","","","","",""
"01007099999","2021-09-15T19:00:00","78.9166666","11.9333333","7.7","NY ALESUND, SV","FM-12","4","","28","36","","","+0.03","7","73","BKN:06 20","30.11","30.08","31.07","33","121","26","19","","","","","","","","","","","","","","","","","","","","","","","","","","","","","","","","","","","","","","","","","","","","","","","","","","","","","","","","","","","","","","","","","","","","","","","","","","","","","","","","","","","","","","","","","","","SYN004BUFR","","","","","","","","","",""
"01007099999","2021-09-15T21:00:00","78.9166666","11.9333333","7.7","NY ALESUND, SV","FM-12","4","","28","35","","","+0.04","7","76","","30.08","30.05","","32","124","23","15","","","","","","","","","","","","","","","","","","","","","","","","","","","","","","","","","","","","","","","","","","","","","","","","","","","","","","","","","","","","","","","","","","","","","","","","","","","","","","","","","","","","","","","","","","","SYN004BUFR","","","","","","","","","",""
"01007099999","2021-09-16T05:00:00","78.9166666","11.9333333","7.7","NY ALESUND, SV","FM-12","4","","29","37","","","+0.04","7","72","","29.99","29.96","","34","119","41","31","","","","","","","","","","","","","","","","","","","","","","","","","","","","","","","","","","","","","","","","","","","","","","","","","","","","","","","","","","","","","","","","","","","","","","","","","","","","","","","","","","","","","","","","","","","SYN004BUFR","","","","","","","","","",""
"01007099999","2021-09-16T10:00:00","78.9166666","11.9333333","7.7","NY ALESUND, SV","FM-12","4","","33","40","","","+0.03","6","77","","29.93","29.90","","37","105","41","30","","","","","","","","","","","","","","","","","","","","","","","","","","","","","","","","","","","","","","","","","","","","","","","","","","","","","","","","","","","","","","","","","","","","","","","","","","","","","","","","","","","","","","","","","","","SYN004BUFR","","","","","","","","","",""
"01007099999","2021-09-16T13:00:00","78.9166666","11.9333333","7.7","NY ALESUND, SV","FM-12","4","","35","40","0.03","||RA","+0.01","7","84","OVC:08 10","29.92","29.89","3.73","38","102","37","22","","","","","","","","","","","","","","","","","","","","","","","","","","","","","","","","","","","","","","","","","","","","","","","","","","","","","","","","","","","","","","","","","","","","","","","","","","","","","","","","","","","","","","","","","","","SYN004BUFR","","","","","","","","","",""
"01007099999","2021-09-16T14:00:00","78.9166666","11.9333333","7.7","NY ALESUND, SV","FM-12","4","","36","40","0.04","","+0.01","5","83","","29.93","29.90","","38","098","32","17","","","","","","","","","","","","","","","","","","","","","","","","","","","","","","","","","","","","","","","","","","","","","","","","","","","","","","","","","","","","","","","","","","","","","","","","","","","","","","","","","","","","","","","","","","","SYN004BUFR","","","","","","","","","",""
"01007099999","2021-09-16T18:00:00","78.9166666","11.9333333","7.7","NY ALESUND, SV","FM-12","4","","36","41","0.04","","-0.03","2","81","","29.95","29.92","","39","110","30","21","","","","","","","","","","","","","","","","","","","","","","","","","","","","","","","","","","","","","","","","","","","","","","","","","","","","","","","","","","","","","","","","","","","","","","","","","","","","","","","","","","","","","","","","","","","SYN004BUFR","","","","","","","","","",""
"01007099999","2021-09-16T20:00:00","78.9166666","11.9333333","7.7","NY ALESUND, SV","FM-12","4","","35","40","0.01","","-0.02","2","82","","29.96","29.93","","38","130","23","15","","","","","","","","","","","","","","","","","","","","","","","","","","","","","","","","","","","","","","","","","","","","","","","","","","","","","","","","","","","","","","","","","","","","","","","","","","","","","","","","","","","","","","","","","","","SYN004BUFR","","","","","","","","","",""
"01007099999","2021-09-16T23:00:00","78.9166666","11.9333333","7.7","NY ALESUND, SV","FM-12","4","","39","41","0.02","","-0.05","2","91","","30.01","29.98","","40","174","","3","","","","","","","","","","","","","","","","","","","","","","","","","","","","","","","","","","","","","","","","","","","","","","","","","","","","","","","","","","","","","","","","","","","","","","","","","","","","","","","","","","","","","","","","","","","SYN004BUFR","","","","","","","","","",""
"01007099999","2021-09-17T00:00:00","78.9166666","11.9333333","7.7","NY ALESUND, SV","FM-12","4","","38","41","","","-0.04","1","88","","30.01","29.98","","40","150","","4","","","","","","","","","","","","","","","","","","","","","","","","","","","","","","","","","","","","","","","","","","","","","","","","","","","","","","","","","","","","","","","","","","","","","","","","","","","","","","","","","","","","","","","","","","","SYN004BUFR","","","","","","","","","",""
"01007099999","2021-09-17T03:00:00","78.9166666","11.9333333","7.7","NY ALESUND, SV","FM-12","4","","37","41","","","-0.02","2","85","","30.04","30.01","","39","213","","2","","","","","","","","","","","","","","","","","","","","","","","","","","","","","","","","","","","","","","","","","","","","","","","","","","","","","","","","","","","","","","","","","","","","","","","","","","","","","","","","","","","","","","","","","","","SYN004BUFR","","","","","","","","","",""
"01007099999","2021-09-17T05:00:00","78.9166666","11.9333333","7.7","NY ALESUND, SV","FM-12","4","","37","41","","","-0.03","2","85","","30.06","30.03","","39","304","","2","","","","","","","","","","","","","","","","","","","","","","","","","","","","","","","","","","","","","","","","","","","","","","","","","","","","","","","","","","","","","","","","","","","","","","","","","","","","","","","","","","","","","","","","","","","SYN004BUFR","","","","","","","","","",""
"01007099999","2021-09-17T06:00:00","78.9166666","11.9333333","7.7","NY ALESUND, SV","FM-12","4","","37","40","","","-0.03","1","88","","30.06","30.03","","39","170","","3","","","","","","","","","","","","","","","","","","","","","","","","","","","","","","","","","","","","","","","","","","","","","","","","","","","","","","","","","","","","","","","","","","","","","","","","","","","","","","","","","","","","","","","","","","","SYN004BUFR","","","","","","","","","",""
"01007099999","2021-09-17T07:00:00","78.9166666","11.9333333","7.7","NY ALESUND, SV","FM-12","4","","37","42","","","-0.02","1","84","OVC:08 20","30.07","30.04","15.53","40","266","","2","","","","","","","","","","","","","","","","","","","","","","","","","","","","","","","","","","","","","","","","","","","","","","","","","","","","","","","","","","","","","","","","","","","","","","","","","","","","","","","","","","","","","","","","","","","SYN004BUFR","","","","","","","","","",""
"01007099999","2021-09-17T08:00:00","78.9166666","11.9333333","7.7","NY ALESUND, SV","FM-12","4","","38","41","","","-0.02","3","88","","30.08","30.05","","40","108","","2","","","","","","","","","","","","","","","","","","","","","","","","","","","","","","","","","","","","","","","","","","","","","","","","","","","","","","","","","","","","","","","","","","","","","","","","","","","","","","","","","","","","","","","","","","","SYN004BUFR","","","","","","","","","",""
"01007099999","2021-09-17T10:00:00","78.9166666","11.9333333","7.7","NY ALESUND, SV","FM-12","4","","38","42","","","-0.03","2","85","","30.10","30.07","","40","254","","3","","","","","","","","","","","","","","","","","","","","","","","","","","","","","","","","","","","","","","","","","","","","","","","","","","","","","","","","","","","","","","","","","","","","","","","","","","","","","","","","","","","","","","","","","","","SYN004BUFR","","","","","","","","","",""
"01007099999","2021-09-17T12:00:00","78.9166666","11.9333333","7.7","NY ALESUND, SV","FM-12","4","","40","42","","","-0.02","2","90","","30.11","30.09","","41","008","","1","","","","","","","","","","","","","","","","","","","","","","","","","","","","","","","","","","","","","","","","","","","","","","","","","","","","","","","","","","","","","","","","","","","","","","","","","","","","","","","","","","","","","","","","","","","SYN004BUFR","","","","","","","","","",""
"01007099999","2021-09-17T13:00:00","78.9166666","11.9333333","7.7","NY ALESUND, SV","FM-12","4","","40","44","","","-0.02","2","85","OVC:08 20","30.11","30.09","37.28","42","259","","2","","","","","","","","","","","","","","","","","","","","","","","","","","","","","","","","","","","","","","","","","","","","","","","","","","","","","","","","","","","","","","","","","","","","","","","","","","","","","","","","","","","","","","","","","","","SYN004BUFR","","","","","","","","","",""
"01007099999","2021-09-17T17:00:00","78.9166666","11.9333333","7.7","NY ALESUND, SV","FM-12","4","","39","44","","","+0.02","7","83","","30.09","30.06","","42","263","","3","","","","","","","","","","","","","","","","","","","","","","","","","","","","","","","","","","","","","","","","","","","","","","","","","","","","","","","","","","","","","","","","","","","","","","","","","","","","","","","","","","","","","","","","","","","SYN004BUFR","","","","","","","","","",""
"01007099999","2021-09-17T19:00:00","78.9166666","11.9333333","7.7","NY ALESUND, SV","FM-12","4","","41","44","","||DZ","+0.01","7","90","OVC:08 10","30.08","30.05","12.43","43","174","","3","","","","","","","","","","","","","","","","","","","","","","","","","","","","","","","","","","","","","","","","","","","","","","","","","","","","","","","","","","","","","","","","","","","","","","","","","","","","","","","","","","","","","","","","","","","SYN004BUFR","","","","","","","","","",""
"01007099999","2021-09-17T21:00:00","78.9166666","11.9333333","7.7","NY ALESUND, SV","FM-12","4","","39","45","","","+0.01","7","79","","30.07","30.04","","42","125","14","5","","","","","","","","","","","","","","","","","","","","","","","","","","","","","","","","","","","","","","","","","","","","","","","","","","","","","","","","","","","","","","","","","","","","","","","","","","","","","","","","","","","","","","","","","","","SYN004BUFR","","","","","","","","","",""
"01007099999","2021-09-17T22:00:00","78.9166666","11.9333333","7.7","NY ALESUND, SV","FM-12","4","","39","46","","","+0.00","7","76","","30.07","30.04","","43","140","17","5","","","","","","","","","","","","","","","","","","","","","","","","","","","","","","","","","","","","","","","","","","","","","","","","","","","","","","","","","","","","","","","","","","","","","","","","","","","","","","","","","","","","","","","","","","","SYN004BUFR","","","","","","","","","",""
"01007099999","2021-09-17T23:00:00","78.9166666","11.9333333","7.7","NY ALESUND, SV","FM-12","4","","40","47","","","0.00","4","75","","30.07","30.05","","44","157","16","6","","","","","","","","","","","","","","","","","","","","","","","","","","","","","","","","","","","","","","","","","","","","","","","","","","","","","","","","","","","","","","","","","","","","","","","","","","","","","","","","","","","","","","","","","","","SYN004BUFR","","","","","","","","","",""
"01007099999","2021-09-18T00:00:00","78.9166666","11.9333333","7.7","NY ALESUND, SV","FM-12","4","","39","46","","","-0.01","2","77","","30.08","30.05","","43","124","16","8","","","","","","","","","","","","","","","","","","","","","","","","","","","","","","","","","","","","","","","","","","","","","","","","","","","","","","","","","","","","","","","","","","","","","","","","","","","","","","","","","","","","","","","","","","","SYN004BUFR","","","","","","","","","",""
"01007099999","2021-09-18T05:00:00","78.9166666","11.9333333","7.7","NY ALESUND, SV","FM-12","4","","39","45","","","+0.05","7","80","","30.03","30.00","","42","299","27","4","","","","","","","","","","","","","","","","","","","","","","","","","","","","","","","","","","","","","","","","","","","","","","","","","","","","","","","","","","","","","","","","","","","","","","","","","","","","","","","","","","","","","","","","","","","SYN004BUFR","","","","","","","","","",""
"01007099999","2021-09-18T08:00:00","78.9166666","11.9333333","7.7","NY ALESUND, SV","FM-12","4","","35","45","","","+0.05","7","67","","29.98","29.95","","41","119","35","23","","","","","","","","","","","","","","","","","","","","","","","","","","","","","","","","","","","","","","","","","","","","","","","","","","","","","","","","","","","","","","","","","","","","","","","","","","","","","","","","","","","","","","","","","","","SYN004BUFR","","","","","","","","","",""
"01007099999","2021-09-18T09:00:00","78.9166666","11.9333333","7.7","NY ALESUND, SV","FM-12","4","","33","45","","","+0.04","8","63","","29.96","29.93","","40","120","32","21","","","","","","","","","","","","","","","","","","","","","","","","","","","","","","","","","","","","","","","","","","","","","","","","","","","","","","","","","","","","","","","","","","","","","","","","","","","","","","","","","","","","","","","","","","","SYN004BUFR","","","","","","","","","",""
"01007099999","2021-09-18T10:00:00","78.9166666","11.9333333","7.7","NY ALESUND, SV","FM-12","4","","33","45","","","+0.05","7","64","","29.94","29.91","","40","114","35","26","","","","","","","","","","","","","","","","","","","","","","","","","","","","","","","","","","","","","","","","","","","","","","","","","","","","","","","","","","","","","","","","","","","","","","","","","","","","","","","","","","","","","","","","","","","SYN004BUFR","","","","","","","","","",""
"01007099999","2021-09-18T18:00:00","78.9166666","11.9333333","7.7","NY ALESUND, SV","FM-12","4","","42","47","0.05","","+0.08","6","83","","29.71","29.68","","45","144","45","17","","","","","","","","","","","","","","","","","","","","","","","","","","","","","","","","","","","","","","","","","","","","","","","","","","","","","","","","","","","","","","","","","","","","","","","","","","","","","","","","","","","","","","","","","","","SYN004BUFR","","","","","","","","","",""
"01007099999","2021-09-19T03:00:00","78.9166666","11.9333333","7.7","NY ALESUND, SV","FM-12","4","","41","47","0.14","","+0.05","6","78","","29.60","29.58","","44","141","12","4","","","","","","","","","","","","","","","","","","","","","","","","","","","","","","","","","","","","","","","","","","","","","","","","","","","","","","","","","","","","","","","","","","","","","","","","","","","","","","","","","","","","","","","","","","","SYN004BUFR","","","","","","","","","",""
"01007099999","2021-09-19T07:00:00","78.9166666","11.9333333","7.7","NY ALESUND, SV","FM-12","4","","41","47","0.08","||DZ","-0.01","3","78","OVC:08 7","29.62","29.59","1.86","44","162","29","11","","","","","","","","","","","","","","","","","","","","","","","","","","","","","","","","","","","","","","","","","","","","","","","","","","","","","","","","","","","","","","","","","","","","","","","","","","","","","","","","","","","","","","","","","","","SYN004BUFR","","","","","","","","","",""
"01007099999","2021-09-19T08:00:00","78.9166666","11.9333333","7.7","NY ALESUND, SV","FM-12","4","","40","47","0.03","","-0.02","3","76","","29.62","29.59","","44","181","23","13","","","","","","","","","","","","","","","","","","","","","","","","","","","","","","","","","","","","","","","","","","","","","","","","","","","","","","","","","","","","","","","","","","","","","","","","","","","","","","","","","","","","","","","","","","","SYN004BUFR","","","","","","","","","",""
"01007099999","2021-09-19T09:00:00","78.9166666","11.9333333","7.7","NY ALESUND, SV","FM-12","4","","41","46","0.11","","-0.05","3","82","","29.65","29.62","","44","225","21","3","","","","","","","","","","","","","","","","","","","","","","","","","","","","","","","","","","","","","","","","","","","","","","","","","","","","","","","","","","","","","","","","","","","","","","","","","","","","","","","","","","","","","","","","","","","SYN004BUFR","","","","","","","","","",""
"01007099999","2021-09-19T10:00:00","78.9166666","11.9333333","7.7","NY ALESUND, SV","FM-12","4","","40","46","0.07","","-0.06","3","82","","29.67","29.65","","43","223","25","13","","","","","","","","","","","","","","","","","","","","","","","","","","","","","","","","","","","","","","","","","","","","","","","","","","","","","","","","","","","","","","","","","","","","","","","","","","","","","","","","","","","","","","","","","","","SYN004BUFR","","","","","","","","","",""
"01007099999","2021-09-19T12:00:00","78.9166666","11.9333333","7.7","NY ALESUND, SV","FM-12","4","","38","44","0.00","","-0.10","1","81","","29.75","29.72","","41","224","34","7","","","","","","","","","","","","","","","","","","","","","","","","","","","","","","","","","","","","","","","","","","","","","","","","","","","","","","","","","","","","","","","","","","","","","","","","","","","","","","","","","","","","","","","","","","","SYN004BUFR","","","","","","","","","",""
"01007099999","2021-09-19T13:00:00","78.9166666","11.9333333","7.7","NY ALESUND, SV","FM-12","4","","36","44","0.01","","-0.09","1","76","OVC:08 20","29.78","29.75","12.43","40","258","21","9","","","","","","","","","","","","","","","","","","","","","","","","","","","","","","","","","","","","","","","","","","","","","","","","","","","","","","","","","","","","","","","","","","","","","","","","","","","","","","","","","","","","","","","","","","","SYN004BUFR","","","","","","","","","",""
"01007099999","2021-09-19T16:00:00","78.9166666","11.9333333","7.7","NY ALESUND, SV","FM-12","4","","32","40","","","-0.08","1","72","","29.86","29.83","","37","237","17","10","","","","","","","","","","","","","","","","","","","","","","","","","","","","","","","","","","","","","","","","","","","","","","","","","","","","","","","","","","","","","","","","","","","","","","","","","","","","","","","","","","","","","","","","","","","SYN004BUFR","","","","","","","","","",""
"01007099999","2021-09-19T20:00:00","78.9166666","11.9333333","7.7","NY ALESUND, SV","FM-12","4","","28","40","","","-0.04","2","62","","29.90","29.87","","35","190","","6","","","","","","","","","","","","","","","","","","","","","","","","","","","","","","","","","","","","","","","","","","","","","","","","","","","","","","","","","","","","","","","","","","","","","","","","","","","","","","","","","","","","","","","","","","","SYN004BUFR","","","","","","","","","",""
"01007099999","2021-09-19T21:00:00","78.9166666","11.9333333","7.7","NY ALESUND, SV","FM-12","4","","30","38","","","-0.03","2","71","","29.92","29.89","","35","142","","3","","","","","","","","","","","","","","","","","","","","","","","","","","","","","","","","","","","","","","","","","","","","","","","","","","","","","","","","","","","","","","","","","","","","","","","","","","","","","","","","","","","","","","","","","","","SYN004BUFR","","","","","","","","","",""
"01007099999","2021-09-19T22:00:00","78.9166666","11.9333333","7.7","NY ALESUND, SV","FM-12","4","","29","37","","","-0.03","2","73","","29.93","29.90","","34","139","","3","","","","","","","","","","","","","","","","","","","","","","","","","","","","","","","","","","","","","","","","","","","","","","","","","","","","","","","","","","","","","","","","","","","","","","","","","","","","","","","","","","","","","","","","","","","SYN004BUFR","","","","","","","","","",""
"01007099999","2021-09-19T23:00:00","78.9166666","11.9333333","7.7","NY ALESUND, SV","FM-12","4","","28","38","","","-0.03","1","70","","29.93","29.90","","34","157","","4","","","","","","","","","","","","","","","","","","","","","","","","","","","","","","","","","","","","","","","","","","","","","","","","","","","","","","","","","","","","","","","","","","","","","","","","","","","","","","","","","","","","","","","","","","","SYN004BUFR","","","","","","","","","",""
"01007099999","2021-09-20T00:00:00","78.9166666","11.9333333","7.7","NY ALESUND, SV","FM-12","4","","29","38","","","-0.01","1","72","","29.93","29.90","","34","148","13","8","","","","","","","","","","","","","","","","","","","","","","","","","","","","","","","","","","","","","","","","","","","","","","","","","","","","","","","","","","","","","","","","","","","","","","","","","","","","","","","","","","","","","","","","","","","SYN004BUFR","","","","","","","","","",""
"01007099999","2021-09-20T02:00:00","78.9166666","11.9333333","7.7","NY ALESUND, SV","FM-12","4","","28","38","","","+0.02","7","66","","29.91","29.88","","34","135","","3","","","","","","","","","","","","","","","","","","","","","","","","","","","","","","","","","","","","","","","","","","","","","","","","","","","","","","","","","","","","","","","","","","","","","","","","","","","","","","","","","","","","","","","","","","","SYN004BUFR","","","","","","","","","",""
"01007099999","2021-09-20T10:00:00","78.9166666","11.9333333","7.7","NY ALESUND, SV","FM-12","4","","37","43","","","+0.05","7","79","","29.78","29.75","","40","127","32","19","","","","","","","","","","","","","","","","","","","","","","","","","","","","","","","","","","","","","","","","","","","","","","","","","","","","","","","","","","","","","","","","","","","","","","","","","","","","","","","","","","","","","","","","","","","SYN004BUFR","","","","","","","","","",""
"01007099999","2021-09-20T12:00:00","78.9166666","11.9333333","7.7","NY ALESUND, SV","FM-12","4","","39","44","0.02","","+0.07","7","84","","29.74","29.71","","42","140","28","10","","","","","","","","","","","","","","","","","","","","","","","","","","","","","","","","","","","","","","","","","","","","","","","","","","","","","","","","","","","","","","","","","","","","","","","","","","","","","","","","","","","","","","","","","","","SYN004BUFR","","","","","","","","","",""
"01007099999","2021-09-21T05:00:00","78.9166666","11.9333333","7.7","NY ALESUND, SV","FM-12","4","","40","45","0.01","","+0.01","5","84","","29.71","29.68","","43","236","","2","","","","","","","","","","","","","","","","","","","","","","","","","","","","","","","","","","","","","","","","","","","","","","","","","","","","","","","","","","","","","","","","","","","","","","","","","","","","","","","","","","","","","","","","","","","SYN004BUFR","","","","","","","","","",""
"01007099999","2021-09-21T09:00:00","78.9166666","11.9333333","7.7","NY ALESUND, SV","FM-12","4","","41","46","","","-0.02","2","80","","29.72","29.70","","44","239","","3","","","","","","","","","","","","","","","","","","","","","","","","","","","","","","","","","","","","","","","","","","","","","","","","","","","","","","","","","","","","","","","","","","","","","","","","","","","","","","","","","","","","","","","","","","","SYN004BUFR","","","","","","","","","",""
"01007099999","2021-09-21T11:00:00","78.9166666","11.9333333","7.7","NY ALESUND, SV","FM-12","4","","40","47","","","-0.02","2","78","","29.74","29.71","","44","124","18","13","","","","","","","","","","","","","","","","","","","","","","","","","","","","","","","","","","","","","","","","","","","","","","","","","","","","","","","","","","","","","","","","","","","","","","","","","","","","","","","","","","","","","","","","","","","SYN004BUFR","","","","","","","","","",""
"01007099999","2021-09-21T12:00:00","78.9166666","11.9333333","7.7","NY ALESUND, SV","FM-12","4","","41","48","","","-0.02","2","75","","29.74","29.72","","45","131","24","12","","","","","","","","","","","","","","","","","","","","","","","","","","","","","","","","","","","","","","","","","","","","","","","","","","","","","","","","","","","","","","","","","","","","","","","","","","","","","","","","","","","","","","","","","","","SYN004BUFR","","","","","","","","","",""
"01007099999","2021-09-21T15:00:00","78.9166666","11.9333333","7.7","NY ALESUND, SV","FM-12","4","","41","45","","","+0.01","8","85","","29.73","29.71","","43","119","16","4","","","","","","","","","","","","","","","","","","","","","","","","","","","","","","","","","","","","","","","","","","","","","","","","","","","","","","","","","","","","","","","","","","","","","","","","","","","","","","","","","","","","","","","","","","","SYN004BUFR","","","","","","","","","",""
"01007099999","2021-09-21T16:00:00","78.9166666","11.9333333","7.7","NY ALESUND, SV","FM-12","4","","40","45","","","+0.03","8","83","","29.72","29.69","","43","140","13","7","","","","","","","","","","","","","","","","","","","","","","","","","","","","","","","","","","","","","","","","","","","","","","","","","","","","","","","","","","","","","","","","","","","","","","","","","","","","","","","","","","","","","","","","","","","SYN004BUFR","","","","","","","","","",""
"01007099999","2021-09-22T00:00:00","78.9166666","11.9333333","7.7","NY ALESUND, SV","FM-12","4","","40","42","0.00","","+0.04","7","90","","29.62","29.59","","41","142","","4","","","","","","","","","","","","","","","","","","","","","","","","","","","","","","","","","","","","","","","","","","","","","","","","","","","","","","","","","","","","","","","","","","","","","","","","","","","","","","","","","","","","","","","","","","","SYN004BUFR","","","","","","","","","",""
"01007099999","2021-09-22T02:00:00","78.9166666","11.9333333","7.7","NY ALESUND, SV","FM-12","4","","39","41","","","+0.06","8","92","","29.57","29.54","","40","269","","2","","","","","","","","","","","","","","","","","","","","","","","","","","","","","","","","","","","","","","","","","","","","","","","","","","","","","","","","","","","","","","","","","","","","","","","","","","","","","","","","","","","","","","","","","","","SYN004BUFR","","","","","","","","","",""
"01007099999","2021-09-22T05:00:00","78.9166666","11.9333333","7.7","NY ALESUND, SV","FM-12","4","","33","40","","","+0.07","7","77","","29.50","29.47","","37","114","26","21","","","","","","","","","","","","","","","","","","","","","","","","","","","","","","","","","","","","","","","","","","","","","","","","","","","","","","","","","","","","","","","","","","","","","","","","","","","","","","","","","","","","","","","","","","","SYN004BUFR","","","","","","","","","",""
"01007099999","2021-09-22T11:00:00","78.9166666","11.9333333","7.7","NY ALESUND, SV","FM-12","4","","34","43","","","+0.10","7","72","","29.32","29.29","","39","096","30","23","","","","","","","","","","","","","","","","","","","","","","","","","","","","","","","","","","","","","","","","","","","","","","","","","","","","","","","","","","","","","","","","","","","","","","","","","","","","","","","","","","","","","","","","","","","SYN004BUFR","","","","","","","","","",""
"01007099999","2021-09-22T12:00:00","78.9166666","11.9333333","7.7","NY ALESUND, SV","FM-12","4","","35","43","","","+0.10","7","73","","29.28","29.26","","40","089","33","23","","","","","","","","","","","","","","","","","","","","","","","","","","","","","","","","","","","","","","","","","","","","","","","","","","","","","","","","","","","","","","","","","","","","","","","","","","","","","","","","","","","","","","","","","","","SYN004BUFR","","","","","","","","","",""
"01007099999","2021-09-22T14:00:00","78.9166666","11.9333333","7.7","NY ALESUND, SV","FM-12","4","","35","44","","","+0.09","6","71","","29.23","29.20","","40","111","34","29","","","","","","","","","","","","","","","","","","","","","","","","","","","","","","","","","","","","","","","","","","","","","","","","","","","","","","","","","","","","","","","","","","","","","","","","","","","","","","","","","","","","","","","","","","","SYN004BUFR","","","","","","","","","",""
"01007099999","2021-09-22T15:00:00","78.9166666","11.9333333","7.7","NY ALESUND, SV","FM-12","4","","35","42","","","+0.08","6","76","","29.20","29.17","","39","119","36","27","","","","","","","","","","","","","","","","","","","","","","","","","","","","","","","","","","","","","","","","","","","","","","","","","","","","","","","","","","","","","","","","","","","","","","","","","","","","","","","","","","","","","","","","","","","SYN004BUFR","","","","","","","","","",""
"01007099999","2021-09-22T21:00:00","78.9166666","11.9333333","7.7","NY ALESUND, SV","FM-12","4","","33","42","","","+0.04","6","71","","29.05","29.03","","38","109","35","26","","","","","","","","","","","","","","","","","","","","","","","","","","","","","","","","","","","","","","","","","","","","","","","","","","","","","","","","","","","","","","","","","","","","","","","","","","","","","","","","","","","","","","","","","","","SYN004BUFR","","","","","","","","","",""
"01007099999","2021-09-22T23:00:00","78.9166666","11.9333333","7.7","NY ALESUND, SV","FM-12","4","","34","43","","","+0.01","6","71","","29.05","29.03","","39","101","25","18","","","","","","","","","","","","","","","","","","","","","","","","","","","","","","","","","","","","","","","","","","","","","","","","","","","","","","","","","","","","","","","","","","","","","","","","","","","","","","","","","","","","","","","","","","","SYN004BUFR","","","","","","","","","",""
"01007099999","2021-09-23T00:00:00","78.9166666","11.9333333","7.7","NY ALESUND, SV","FM-12","4","","35","43","","","+0.02","8","73","","29.04","29.01","","40","105","28","22","","","","","","","","","","","","","","","","","","","","","","","","","","","","","","","","","","","","","","","","","","","","","","","","","","","","","","","","","","","","","","","","","","","","","","","","","","","","","","","","","","","","","","","","","","","SYN004BUFR","","","","","","","","","",""
"01007099999","2021-09-23T02:00:00","78.9166666","11.9333333","7.7","NY ALESUND, SV","FM-12","4","","35","43","","","-0.01","3","75","","29.06","29.03","","40","109","36","21","","","","","","","","","","","","","","","","","","","","","","","","","","","","","","","","","","","","","","","","","","","","","","","","","","","","","","","","","","","","","","","","","","","","","","","","","","","","","","","","","","","","","","","","","","","SYN004BUFR","","","","","","","","","",""
"01007099999","2021-09-23T04:00:00","78.9166666","11.9333333","7.7","NY ALESUND, SV","FM-12","4","","36","43","","","-0.03","1","78","","29.07","29.04","","40","115","28","18","","","","","","","","","","","","","","","","","","","","","","","","","","","","","","","","","","","","","","","","","","","","","","","","","","","","","","","","","","","","","","","","","","","","","","","","","","","","","","","","","","","","","","","","","","","SYN004BUFR","","","","","","","","","",""
"01007099999","2021-09-23T05:00:00","78.9166666","11.9333333","7.7","NY ALESUND, SV","FM-12","4","","36","42","","","-0.03","3","80","","29.09","29.06","","39","123","29","21","","","","","","","","","","","","","","","","","","","","","","","","","","","","","","","","","","","","","","","","","","","","","","","","","","","","","","","","","","","","","","","","","","","","","","","","","","","","","","","","","","","","","","","","","","","SYN004BUFR","","","","","","","","","",""
"01007099999","2021-09-23T10:00:00","78.9166666","11.9333333","7.7","NY ALESUND, SV","FM-12","4","","37","44","0.00","","-0.09","2","78","","29.22","29.19","","41","110","28","18","","","","","","","","","","","","","","","","","","","","","","","","","","","","","","","","","","","","","","","","","","","","","","","","","","","","","","","","","","","","","","","","","","","","","","","","","","","","","","","","","","","","","","","","","","","SYN004BUFR","","","","","","","","","",""
"01007099999","2021-09-23T18:00:00","78.9166666","11.9333333","7.7","NY ALESUND, SV","FM-12","4","","36","42","","","-0.04","2","79","","29.38","29.36","","39","119","27","21","","","","","","","","","","","","","","","","","","","","","","","","","","","","","","","","","","","","","","","","","","","","","","","","","","","","","","","","","","","","","","","","","","","","","","","","","","","","","","","","","","","","","","","","","","","SYN004BUFR","","","","","","","","","",""
"01007099999","2021-09-23T23:00:00","78.9166666","11.9333333","7.7","NY ALESUND, SV","FM-12","4","","32","44","","","+0.01","7","64","","29.40","29.37","","39","152","15","7","","","","","","","","","","","","","","","","","","","","","","","","","","","","","","","","","","","","","","","","","","","","","","","","","","","","","","","","","","","","","","","","","","","","","","","","","","","","","","","","","","","","","","","","","","","SYN004BUFR","","","","","","","","","",""
"01007099999","2021-09-24T01:00:00","78.9166666","11.9333333","7.7","NY ALESUND, SV","FM-12","4","","33","43","","","+0.01","7","69","","29.39","29.37","","39","153","16","5","","","","","","","","","","","","","","","","","","","","","","","","","","","","","","","","","","","","","","","","","","","","","","","","","","","","","","","","","","","","","","","","","","","","","","","","","","","","","","","","","","","","","","","","","","","SYN004BUFR","","","","","","","","","",""
"01007099999","2021-09-24T04:00:00","78.9166666","11.9333333","7.7","NY ALESUND, SV","FM-12","4","","35","43","","","+0.02","8","74","","29.37","29.35","","40","132","","6","","","","","","","","","","","","","","","","","","","","","","","","","","","","","","","","","","","","","","","","","","","","","","","","","","","","","","","","","","","","","","","","","","","","","","","","","","","","","","","","","","","","","","","","","","","SYN004BUFR","","","","","","","","","",""
"01007099999","2021-09-24T05:00:00","78.9166666","11.9333333","7.7","NY ALESUND, SV","FM-12","4","","36","43","","","+0.03","8","77","","29.36","29.34","","40","132","13","9","","","","","","","","","","","","","","","","","","","","","","","","","","","","","","","","","","","","","","","","","","","","","","","","","","","","","","","","","","","","","","","","","","","","","","","","","","","","","","","","","","","","","","","","","","","SYN004BUFR","","","","","","","","","",""
"01007099999","2021-09-24T06:00:00","78.9166666","11.9333333","7.7","NY ALESUND, SV","FM-12","4","","36","44","0.01","","+0.04","7","72","","29.34","29.32","","40","139","16","9","","","","","","","","","","","","","","","","","","","","","","","","","","","","","","","","","","","","","","","","","","","","","","","","","","","","","","","","","","","","","","","","","","","","","","","","","","","","","","","","","","","","","","","","","","","SYN004BUFR","","","","","","","","","",""
"01007099999","2021-09-24T07:00:00","78.9166666","11.9333333","7.7","NY ALESUND, SV","FM-12","4","","36","44","0.00","||RA","+0.02","5","74","FEW:01 33","29.35","29.32","12.43","40","125","13","9","","","","","","","","","","","","","","","","","","","","","","","","","","","","","","","","","","","","","","","","","","","","","","","","","","","","","","","","","","","","","","","","","","","","","","","","","","","","","","","","","","","","","","","","","","","SYN004BUFR","","","","","","","","","",""
"01007099999","2021-09-24T10:00:00","78.9166666","11.9333333","7.7","NY ALESUND, SV","FM-12","4","","36","42","0.01","","-0.02","3","78","","29.37","29.34","","39","104","19","14","","","","","","","","","","","","","","","","","","","","","","","","","","","","","","","","","","","","","","","","","","","","","","","","","","","","","","","","","","","","","","","","","","","","","","","","","","","","","","","","","","","","","","","","","","","SYN004BUFR","","","","","","","","","",""
"01007099999","2021-09-24T12:00:00","78.9166666","11.9333333","7.7","NY ALESUND, SV","FM-12","4","","36","41","","","-0.03","2","81","","29.39","29.36","","39","113","15","12","","","","","","","","","","","","","","","","","","","","","","","","","","","","","","","","","","","","","","","","","","","","","","","","","","","","","","","","","","","","","","","","","","","","","","","","","","","","","","","","","","","","","","","","","","","SYN004BUFR","","","","","","","","","",""
"01007099999","2021-09-24T13:00:00","78.9166666","11.9333333","7.7","NY ALESUND, SV","FM-12","4","","36","42","","","-0.03","2","81","SCT:03 20","29.40","29.37","18.64","39","102","17","9","","","","","","","","","","","","","","","","","","","","","","","","","","","","","","","","","","","","","","","","","","","","","","","","","","","","","","","","","","","","","","","","","","","","","","","","","","","","","","","","","","","","","","","","","","","SYN004BUFR","","","","","","","","","",""
"01007099999","2021-09-24T14:00:00","78.9166666","11.9333333","7.7","NY ALESUND, SV","FM-12","4","","36","41","","","-0.03","1","80","","29.40","29.38","","39","311","","1","","","","","","","","","","","","","","","","","","","","","","","","","","","","","","","","","","","","","","","","","","","","","","","","","","","","","","","","","","","","","","","","","","","","","","","","","","","","","","","","","","","","","","","","","","","SYN004BUFR","","","","","","","","","",""
"01007099999","2021-09-24T15:00:00","78.9166666","11.9333333","7.7","NY ALESUND, SV","FM-12","4","","35","42","","","-0.02","2","75","","29.41","29.38","","39","097","15","11","","","","","","","","","","","","","","","","","","","","","","","","","","","","","","","","","","","","","","","","","","","","","","","","","","","","","","","","","","","","","","","","","","","","","","","","","","","","","","","","","","","","","","","","","","","SYN004BUFR","","","","","","","","","",""
"01007099999","2021-09-24T16:00:00","78.9166666","11.9333333","7.7","NY ALESUND, SV","FM-12","4","","35","42","","","-0.01","2","78","","29.41","29.39","","39","263","","4","","","","","","","","","","","","","","","","","","","","","","","","","","","","","","","","","","","","","","","","","","","","","","","","","","","","","","","","","","","","","","","","","","","","","","","","","","","","","","","","","","","","","","","","","","","SYN004BUFR","","","","","","","","","",""
"01007099999","2021-09-24T18:00:00","78.9166666","11.9333333","7.7","NY ALESUND, SV","FM-12","4","","35","42","","","-0.03","3","76","","29.44","29.41","","39","024","","0","","","","","","","","","","","","","","","","","","","","","","","","","","","","","","","","","","","","","","","","","","","","","","","","","","","","","","","","","","","","","","","","","","","","","","","","","","","","","","","","","","","","","","","","","","","SYN004BUFR","","","","","","","","","",""
"01007099999","2021-09-24T19:00:00","78.9166666","11.9333333","7.7","NY ALESUND, SV","FM-12","4","","36","43","","","-0.04","2","76","SCT:03 33","29.45","29.42","27.96","40","259","15","2","","","","","","","","","","","","","","","","","","","","","","","","","","","","","","","","","","","","","","","","","","","","","","","","","","","","","","","","","","","","","","","","","","","","","","","","","","","","","","","","","","","","","","","","","","","SYN004BUFR","","","","","","","","","",""
"01007099999","2021-09-24T22:00:00","78.9166666","11.9333333","7.7","NY ALESUND, SV","FM-12","4","","35","41","","","-0.04","1","81","","29.50","29.47","","38","354","","0","","","","","","","","","","","","","","","","","","","","","","","","","","","","","","","","","","","","","","","","","","","","","","","","","","","","","","","","","","","","","","","","","","","","","","","","","","","","","","","","","","","","","","","","","","","SYN004BUFR","","","","","","","","","",""
"01007099999","2021-09-24T23:00:00","78.9166666","11.9333333","7.7","NY ALESUND, SV","FM-12","4","","36","40","","","-0.04","2","84","","29.51","29.48","","38","248","","1","","","","","","","","","","","","","","","","","","","","","","","","","","","","","","","","","","","","","","","","","","","","","","","","","","","","","","","","","","","","","","","","","","","","","","","","","","","","","","","","","","","","","","","","","","","SYN004BUFR","","","","","","","","","",""
"01007099999","2021-09-25T00:00:00","78.9166666","11.9333333","7.7","NY ALESUND, SV","FM-12","4","","34","40","","","-0.03","2","77","","29.52","29.49","","37","268","","2","","","","","","","","","","","","","","","","","","","","","","","","","","","","","","","","","","","","","","","","","","","","","","","","","","","","","","","","","","","","","","","","","","","","","","","","","","","","","","","","","","","","","","","","","","","SYN004BUFR","","","","","","","","","",""
"01007099999","2021-09-25T02:00:00","78.9166666","11.9333333","7.7","NY ALESUND, SV","FM-12","4","","34","37","","","-0.03","2","89","","29.54","29.51","","36","121","","3","","","","","","","","","","","","","","","","","","","","","","","","","","","","","","","","","","","","","","","","","","","","","","","","","","","","","","","","","","","","","","","","","","","","","","","","","","","","","","","","","","","","","","","","","","","SYN004BUFR","","","","","","","","","",""
"01007099999","2021-09-25T03:00:00","78.9166666","11.9333333","7.7","NY ALESUND, SV","FM-12","4","","35","39","","","-0.03","2","83","","29.55","29.52","","37","340","","0","","","","","","","","","","","","","","","","","","","","","","","","","","","","","","","","","","","","","","","","","","","","","","","","","","","","","","","","","","","","","","","","","","","","","","","","","","","","","","","","","","","","","","","","","","","SYN004BUFR","","","","","","","","","",""
"01007099999","2021-09-25T09:00:00","78.9166666","11.9333333","7.7","NY ALESUND, SV","FM-12","4","","35","38","","","-0.02","2","88","","29.59","29.56","","37","260","","2","","","","","","","","","","","","","","","","","","","","","","","","","","","","","","","","","","","","","","","","","","","","","","","","","","","","","","","","","","","","","","","","","","","","","","","","","","","","","","","","","","","","","","","","","","","SYN004BUFR","","","","","","","","","",""
"01007099999","2021-09-25T13:00:00","78.9166666","11.9333333","7.7","NY ALESUND, SV","FM-12","4","","35","42","","","","","78","FEW:01 20","29.59","29.57","31.07","39","109","17","13","","","","","","","","","","","","","","","","","","","","","","","","","","","","","","","","","","","","","","","","","","","","","","","","","","","","","","","","","","","","","","","","","","","","","","","","","","","","","","","","","","","","","","","","","","","SYN004BUFR","","","","","","","","","",""
"01007099999","2021-09-25T14:00:00","78.9166666","11.9333333","7.7","NY ALESUND, SV","FM-12","4","","36","40","","","+0.00","7","83","","29.59","29.57","","38","068","15","9","","","","","","","","","","","","","","","","","","","","","","","","","","","","","","","","","","","","","","","","","","","","","","","","","","","","","","","","","","","","","","","","","","","","","","","","","","","","","","","","","","","","","","","","","","","SYN004BUFR","","","","","","","","","",""
"01007099999","2021-09-25T16:00:00","78.9166666","11.9333333","7.7","NY ALESUND, SV","FM-12","4","","34","40","","","+0.01","7","78","","29.59","29.56","","37","173","","3","","","","","","","","","","","","","","","","","","","","","","","","","","","","","","","","","","","","","","","","","","","","","","","","","","","","","","","","","","","","","","","","","","","","","","","","","","","","","","","","","","","","","","","","","","","SYN004BUFR","","","","","","","","","",""
"01007099999","2021-09-25T17:00:00","78.9166666","11.9333333","7.7","NY ALESUND, SV","FM-12","4","","35","39","","","+0.01","8","83","","29.58","29.55","","37","294","","2","","","","","","","","","","","","","","","","","","","","","","","","","","","","","","","","","","","","","","","","","","","","","","","","","","","","","","","","","","","","","","","","","","","","","","","","","","","","","","","","","","","","","","","","","","","SYN004BUFR","","","","","","","","","",""
"01007099999","2021-09-25T18:00:00","78.9166666","11.9333333","7.7","NY ALESUND, SV","FM-12","4","","34","38","","","+0.01","7","85","","29.58","29.55","","36","273","","4","","","","","","","","","","","","","","","","","","","","","","","","","","","","","","","","","","","","","","","","","","","","","","","","","","","","","","","","","","","","","","","","","","","","","","","","","","","","","","","","","","","","","","","","","","","SYN004BUFR","","","","","","","","","",""
"01007099999","2021-09-25T19:00:00","78.9166666","11.9333333","7.7","NY ALESUND, SV","FM-12","4","","33","40","","","+0.01","7","76","FEW:01 20","29.57","29.54","46.60","37","120","12","2","","","","","","","","","","","","","","","","","","","","","","","","","","","","","","","","","","","","","","","","","","","","","","","","","","","","","","","","","","","","","","","","","","","","","","","","","","","","","","","","","","","","","","","","","","","SYN004BUFR","","","","","","","","","",""
"01007099999","2021-09-26T00:00:00","78.9166666","11.9333333","7.7","NY ALESUND, SV","FM-12","4","","32","39","","","+0.02","7","74","","29.55","29.52","","36","133","","5","","","","","","","","","","","","","","","","","","","","","","","","","","","","","","","","","","","","","","","","","","","","","","","","","","","","","","","","","","","","","","","","","","","","","","","","","","","","","","","","","","","","","","","","","","","SYN004BUFR","","","","","","","","","",""
"01007099999","2021-09-26T03:00:00","78.9166666","11.9333333","7.7","NY ALESUND, SV","FM-12","4","","33","38","0.00","","+0.02","7","83","","29.53","29.50","","36","318","","2","","","","","","","","","","","","","","","","","","","","","","","","","","","","","","","","","","","","","","","","","","","","","","","","","","","","","","","","","","","","","","","","","","","","","","","","","","","","","","","","","","","","","","","","","","","SYN004BUFR","","","","","","","","","",""
"01007099999","2021-09-26T06:00:00","78.9166666","11.9333333","7.7","NY ALESUND, SV","FM-12","4","","34","38","0.01","","+0.02","7","86","","29.51","29.49","","36","325","","1","","","","","","","","","","","","","","","","","","","","","","","","","","","","","","","","","","","","","","","","","","","","","","","","","","","","","","","","","","","","","","","","","","","","","","","","","","","","","","","","","","","","","","","","","","","SYN004BUFR","","","","","","","","","",""
"01007099999","2021-09-26T08:00:00","78.9166666","11.9333333","7.7","NY ALESUND, SV","FM-12","4","","34","37","0.00","","+0.01","7","90","","29.52","29.49","","36","286","","1","","","","","","","","","","","","","","","","","","","","","","","","","","","","","","","","","","","","","","","","","","","","","","","","","","","","","","","","","","","","","","","","","","","","","","","","","","","","","","","","","","","","","","","","","","","SYN004BUFR","","","","","","","","","",""
"01007099999","2021-09-26T09:00:00","78.9166666","11.9333333","7.7","NY ALESUND, SV","FM-12","4","","35","37","","","-0.01","2","89","","29.52","29.49","","36","266","","2","","","","","","","","","","","","","","","","","","","","","","","","","","","","","","","","","","","","","","","","","","","","","","","","","","","","","","","","","","","","","","","","","","","","","","","","","","","","","","","","","","","","","","","","","","","SYN004BUFR","","","","","","","","","",""
"01007099999","2021-09-26T10:00:00","78.9166666","11.9333333","7.7","NY ALESUND, SV","FM-12","4","","35","38","","","-0.01","3","90","","29.53","29.50","","37","236","","2","","","","","","","","","","","","","","","","","","","","","","","","","","","","","","","","","","","","","","","","","","","","","","","","","","","","","","","","","","","","","","","","","","","","","","","","","","","","","","","","","","","","","","","","","","","SYN004BUFR","","","","","","","","","",""
"01007099999","2021-09-26T15:00:00","78.9166666","11.9333333","7.7","NY ALESUND, SV","FM-12","4","","36","37","0.01","","-0.02","2","93","","29.57","29.54","","37","116","","2","","","","","","","","","","","","","","","","","","","","","","","","","","","","","","","","","","","","","","","","","","","","","","","","","","","","","","","","","","","","","","","","","","","","","","","","","","","","","","","","","","","","","","","","","","","SYN004BUFR","","","","","","","","","",""
"01007099999","2021-09-26T19:00:00","78.9166666","11.9333333","7.7","NY ALESUND, SV","FM-12","4","","34","36","0.01","||DZ","-0.04","2","91","OVC:08 10","29.62","29.59","15.53","35","303","","5","","","","","","","","","","","","","","","","","","","","","","","","","","","","","","","","","","","","","","","","","","","","","","","","","","","","","","","","","","","","","","","","","","","","","","","","","","","","","","","","","","","","","","","","","","","SYN004BUFR","","","","","","","","","",""
"01007099999","2021-09-26T21:00:00","78.9166666","11.9333333","7.7","NY ALESUND, SV","FM-12","4","","32","35","","","-0.05","2","89","","29.66","29.63","","34","310","13","9","","","","","","","","","","","","","","","","","","","","","","","","","","","","","","","","","","","","","","","","","","","","","","","","","","","","","","","","","","","","","","","","","","","","","","","","","","","","","","","","","","","","","","","","","","","SYN004BUFR","","","","","","","","","",""
"01007099999","2021-09-26T22:00:00","78.9166666","11.9333333","7.7","NY ALESUND, SV","FM-12","4","","31","35","","","-0.06","2","87","","29.68","29.65","","33","309","14","9","","","","","","","","","","","","","","","","","","","","","","","","","","","","","","","","","","","","","","","","","","","","","","","","","","","","","","","","","","","","","","","","","","","","","","","","","","","","","","","","","","","","","","","","","","","SYN004BUFR","","","","","","","","","",""
"01007099999","2021-09-27T03:00:00","78.9166666","11.9333333","7.7","NY ALESUND, SV","FM-12","4","","28","32","","","-0.07","2","86","","29.81","29.78","","31","304","21","16","","","","","","","","","","","","","","","","","","","","","","","","","","","","","","","","","","","","","","","","","","","","","","","","","","","","","","","","","","","","","","","","","","","","","","","","","","","","","","","","","","","","","","","","","","","SYN004BUFR","","","","","","","","","",""
"01007099999","2021-09-27T06:00:00","78.9166666","11.9333333","7.7","NY ALESUND, SV","FM-12","4","","28","31","","","-0.07","1","88","","29.88","29.85","","30","295","18","12","","","","","","","","","","","","","","","","","","","","","","","","","","","","","","","","","","","","","","","","","","","","","","","","","","","","","","","","","","","","","","","","","","","","","","","","","","","","","","","","","","","","","","","","","","","SYN004BUFR","","","","","","","","","",""
"01007099999","2021-09-27T11:00:00","78.9166666","11.9333333","7.7","NY ALESUND, SV","FM-12","4","","27","32","","","-0.09","1","83","","30.03","30.00","","30","299","12","9","","","","","","","","","","","","","","","","","","","","","","","","","","","","","","","","","","","","","","","","","","","","","","","","","","","","","","","","","","","","","","","","","","","","","","","","","","","","","","","","","","","","","","","","","","","SYN004BUFR","","","","","","","","","",""
"01007099999","2021-09-27T13:00:00","78.9166666","11.9333333","7.7","NY ALESUND, SV","FM-12","4","","27","32","","","-0.06","1","81","OVC:08 20","30.06","30.03","9.94","30","312","17","6","","","","","","","","","","","","","","","","","","","","","","","","","","","","","","","","","","","","","","","","","","","","","","","","","","","","","","","","","","","","","","","","","","","","","","","","","","","","","","","","","","","","","","","","","","","SYN004BUFR","","","","","","","","","",""
"01007099999","2021-09-27T14:00:00","78.9166666","11.9333333","7.7","NY ALESUND, SV","FM-12","4","","27","32","","","-0.05","1","82","","30.08","30.05","","30","240","","3","","","","","","","","","","","","","","","","","","","","","","","","","","","","","","","","","","","","","","","","","","","","","","","","","","","","","","","","","","","","","","","","","","","","","","","","","","","","","","","","","","","","","","","","","","","SYN004BUFR","","","","","","","","","",""
"01007099999","2021-09-27T19:00:00","78.9166666","11.9333333","7.7","NY ALESUND, SV","FM-12","4","","27","32","","","-0.02","0","80","OVC:08 20","30.11","30.08","9.94","30","257","","1","","","","","","","","","","","","","","","","","","","","","","","","","","","","","","","","","","","","","","","","","","","","","","","","","","","","","","","","","","","","","","","","","","","","","","","","","","","","","","","","","","","","","","","","","","","SYN004BUFR","","","","","","","","","",""
"01007099999","2021-09-27T20:00:00","78.9166666","11.9333333","7.7","NY ALESUND, SV","FM-12","4","","28","33","","","-0.03","3","82","","30.13","30.10","","31","255","","4","","","","","","","","","","","","","","","","","","","","","","","","","","","","","","","","","","","","","","","","","","","","","","","","","","","","","","","","","","","","","","","","","","","","","","","","","","","","","","","","","","","","","","","","","","","SYN004BUFR","","","","","","","","","",""
"01007099999","2021-09-28T00:00:00","78.9166666","11.9333333","7.7","NY ALESUND, SV","FM-12","4","","29","32","","","+0.02","7","87","","30.10","30.07","","31","235","","2","","","","","","","","","","","","","","","","","","","","","","","","","","","","","","","","","","","","","","","","","","","","","","","","","","","","","","","","","","","","","","","","","","","","","","","","","","","","","","","","","","","","","","","","","","","SYN004BUFR","","","","","","","","","",""
"01007099999","2021-09-28T02:00:00","78.9166666","11.9333333","7.7","NY ALESUND, SV","FM-12","4","","30","32","0.01","","","","91","","30.10","30.07","","31","257","","3","","","","","","","","","","","","","","","","","","","","","","","","","","","","","","","","","","","","","","","","","","","","","","","","","","","","","","","","","","","","","","","","","","","","","","","","","","","","","","","","","","","","","","","","","","","SYN004BUFR","","","","","","","","","",""
"01007099999","2021-09-28T03:00:00","78.9166666","11.9333333","7.7","NY ALESUND, SV","FM-12","4","","31","33","0.02","","-0.00","2","91","","30.10","30.07","","32","233","","3","","","","","","","","","","","","","","","","","","","","","","","","","","","","","","","","","","","","","","","","","","","","","","","","","","","","","","","","","","","","","","","","","","","","","","","","","","","","","","","","","","","","","","","","","","","SYN004BUFR","","","","","","","","","",""
"01007099999","2021-09-28T08:00:00","78.9166666","11.9333333","7.7","NY ALESUND, SV","FM-12","4","","31","32","","","-0.01","3","93","","30.10","30.07","","32","164","","2","","","","","","","","","","","","","","","","","","","","","","","","","","","","","","","","","","","","","","","","","","","","","","","","","","","","","","","","","","","","","","","","","","","","","","","","","","","","","","","","","","","","","","","","","","","SYN004BUFR","","","","","","","","","",""
"01007099999","2021-09-28T10:00:00","78.9166666","11.9333333","7.7","NY ALESUND, SV","FM-12","4","","30","33","","","-0.03","3","90","","30.12","30.09","","32","272","","3","","","","","","","","","","","","","","","","","","","","","","","","","","","","","","","","","","","","","","","","","","","","","","","","","","","","","","","","","","","","","","","","","","","","","","","","","","","","","","","","","","","","","","","","","","","SYN004BUFR","","","","","","","","","",""
"01007099999","2021-09-28T11:00:00","78.9166666","11.9333333","7.7","NY ALESUND, SV","FM-12","4","","28","34","","","-0.04","2","81","","30.14","30.11","","32","238","","5","","","","","","","","","","","","","","","","","","","","","","","","","","","","","","","","","","","","","","","","","","","","","","","","","","","","","","","","","","","","","","","","","","","","","","","","","","","","","","","","","","","","","","","","","","","SYN004BUFR","","","","","","","","","",""
"01007099999","2021-09-28T12:00:00","78.9166666","11.9333333","7.7","NY ALESUND, SV","FM-12","4","","27","33","","","-0.04","2","81","","30.15","30.12","","31","101","","3","","","","","","","","","","","","","","","","","","","","","","","","","","","","","","","","","","","","","","","","","","","","","","","","","","","","","","","","","","","","","","","","","","","","","","","","","","","","","","","","","","","","","","","","","","","SYN004BUFR","","","","","","","","","",""
"01007099999","2021-09-28T16:00:00","78.9166666","11.9333333","7.7","NY ALESUND, SV","FM-12","4","","29","36","","","-0.03","2","75","","30.19","30.16","","33","112","19","14","","","","","","","","","","","","","","","","","","","","","","","","","","","","","","","","","","","","","","","","","","","","","","","","","","","","","","","","","","","","","","","","","","","","","","","","","","","","","","","","","","","","","","","","","","","SYN004BUFR","","","","","","","","","",""
"01007099999","2021-09-28T17:00:00","78.9166666","11.9333333","7.7","NY ALESUND, SV","FM-12","4","","28","36","","","-0.03","2","74","","30.20","30.17","","33","104","17","13","","","","","","","","","","","","","","","","","","","","","","","","","","","","","","","","","","","","","","","","","","","","","","","","","","","","","","","","","","","","","","","","","","","","","","","","","","","","","","","","","","","","","","","","","","","SYN004BUFR","","","","","","","","","",""
"01007099999","2021-09-28T18:00:00","78.9166666","11.9333333","7.7","NY ALESUND, SV","FM-12","4","","28","35","","","-0.03","2","76","","30.20","30.17","","32","120","21","14","","","","","","","","","","","","","","","","","","","","","","","","","","","","","","","","","","","","","","","","","","","","","","","","","","","","","","","","","","","","","","","","","","","","","","","","","","","","","","","","","","","","","","","","","","","SYN004BUFR","","","","","","","","","",""
"01007099999","2021-09-28T21:00:00","78.9166666","11.9333333","7.7","NY ALESUND, SV","FM-12","4","","27","36","","","-0.02","2","71","","30.22","30.19","","33","136","13","8","","","","","","","","","","","","","","","","","","","","","","","","","","","","","","","","","","","","","","","","","","","","","","","","","","","","","","","","","","","","","","","","","","","","","","","","","","","","","","","","","","","","","","","","","","","SYN004BUFR","","","","","","","","","",""
"01007099999","2021-09-28T22:00:00","78.9166666","11.9333333","7.7","NY ALESUND, SV","FM-12","4","","28","36","","","-0.03","2","72","","30.24","30.21","","33","136","12","9","","","","","","","","","","","","","","","","","","","","","","","","","","","","","","","","","","","","","","","","","","","","","","","","","","","","","","","","","","","","","","","","","","","","","","","","","","","","","","","","","","","","","","","","","","","SYN004BUFR","","","","","","","","","",""
"01007099999","2021-09-28T23:00:00","78.9166666","11.9333333","7.7","NY ALESUND, SV","FM-12","4","","27","36","","","-0.03","2","70","","30.24","30.21","","33","141","14","9","","","","","","","","","","","","","","","","","","","","","","","","","","","","","","","","","","","","","","","","","","","","","","","","","","","","","","","","","","","","","","","","","","","","","","","","","","","","","","","","","","","","","","","","","","","SYN004BUFR","","","","","","","","","",""
"01007099999","2021-09-29T00:00:00","78.9166666","11.9333333","7.7","NY ALESUND, SV","FM-12","4","","27","37","","","-0.02","1","68","","30.25","30.22","","33","143","13","10","","","","","","","","","","","","","","","","","","","","","","","","","","","","","","","","","","","","","","","","","","","","","","","","","","","","","","","","","","","","","","","","","","","","","","","","","","","","","","","","","","","","","","","","","","","SYN004BUFR","","","","","","","","","",""
"01007099999","2021-09-29T05:00:00","78.9166666","11.9333333","7.7","NY ALESUND, SV","FM-12","4","","27","36","","","0.00","4","69","","30.26","30.23","","33","112","","2","","","","","","","","","","","","","","","","","","","","","","","","","","","","","","","","","","","","","","","","","","","","","","","","","","","","","","","","","","","","","","","","","","","","","","","","","","","","","","","","","","","","","","","","","","","SYN004BUFR","","","","","","","","","",""
"01007099999","2021-09-29T06:00:00","78.9166666","11.9333333","7.7","NY ALESUND, SV","FM-12","4","","28","37","","","-0.01","2","71","","30.26","30.23","","34","129","14","9","","","","","","","","","","","","","","","","","","","","","","","","","","","","","","","","","","","","","","","","","","","","","","","","","","","","","","","","","","","","","","","","","","","","","","","","","","","","","","","","","","","","","","","","","","","SYN004BUFR","","","","","","","","","",""
"01007099999","2021-09-29T08:00:00","78.9166666","11.9333333","7.7","NY ALESUND, SV","FM-12","4","","29","37","","","-0.01","2","72","","30.27","30.24","","34","301","11","4","","","","","","","","","","","","","","","","","","","","","","","","","","","","","","","","","","","","","","","","","","","","","","","","","","","","","","","","","","","","","","","","","","","","","","","","","","","","","","","","","","","","","","","","","","","SYN004BUFR","","","","","","","","","",""
"01007099999","2021-09-29T09:00:00","78.9166666","11.9333333","7.7","NY ALESUND, SV","FM-12","4","","29","36","","","-0.01","3","77","","30.28","30.25","","33","023","","0","","","","","","","","","","","","","","","","","","","","","","","","","","","","","","","","","","","","","","","","","","","","","","","","","","","","","","","","","","","","","","","","","","","","","","","","","","","","","","","","","","","","","","","","","","","SYN004BUFR","","","","","","","","","",""
"01007099999","2021-09-29T13:00:00","78.9166666","11.9333333","7.7","NY ALESUND, SV","FM-12","4","","31","34","0.04","","-0.04","2","91","OVC:08 10","30.33","30.30","1.86","33","267","11","1","","","","","","","","","","","","","","","","","","","","","","","","","","","","","","","","","","","","","","","","","","","","","","","","","","","","","","","","","","","","","","","","","","","","","","","","","","","","","","","","","","","","","","","","","","","SYN004BUFR","","","","","","","","","",""
"01007099999","2021-09-29T15:00:00","78.9166666","11.9333333","7.7","NY ALESUND, SV","FM-12","4","","31","33","0.03","","-0.01","0","93","","30.33","30.30","","32","251","","2","","","","","","","","","","","","","","","","","","","","","","","","","","","","","","","","","","","","","","","","","","","","","","","","","","","","","","","","","","","","","","","","","","","","","","","","","","","","","","","","","","","","","","","","","","","SYN004BUFR","","","","","","","","","",""
"01007099999","2021-09-29T20:00:00","78.9166666","11.9333333","7.7","NY ALESUND, SV","FM-12","4","","33","41","","","-0.02","2","71","","30.35","30.32","","38","130","28","10","","","","","","","","","","","","","","","","","","","","","","","","","","","","","","","","","","","","","","","","","","","","","","","","","","","","","","","","","","","","","","","","","","","","","","","","","","","","","","","","","","","","","","","","","","","SYN004BUFR","","","","","","","","","",""
"01007099999","2021-09-29T22:00:00","78.9166666","11.9333333","7.7","NY ALESUND, SV","FM-12","4","","34","42","","","-0.03","2","74","","30.37","30.34","","39","103","20","2","","","","","","","","","","","","","","","","","","","","","","","","","","","","","","","","","","","","","","","","","","","","","","","","","","","","","","","","","","","","","","","","","","","","","","","","","","","","","","","","","","","","","","","","","","","SYN004BUFR","","","","","","","","","",""
"01007099999","2021-09-29T23:00:00","78.9166666","11.9333333","7.7","NY ALESUND, SV","FM-12","4","","35","42","","","-0.03","2","77","","30.37","30.35","","39","138","13","8","","","","","","","","","","","","","","","","","","","","","","","","","","","","","","","","","","","","","","","","","","","","","","","","","","","","","","","","","","","","","","","","","","","","","","","","","","","","","","","","","","","","","","","","","","","SYN004BUFR","","","","","","","","","",""
"01007099999","2021-09-30T00:00:00","78.9166666","11.9333333","7.7","NY ALESUND, SV","FM-12","4","","36","41","","","-0.03","2","81","","30.39","30.36","","39","137","16","10","","","","","","","","","","","","","","","","","","","","","","","","","","","","","","","","","","","","","","","","","","","","","","","","","","","","","","","","","","","","","","","","","","","","","","","","","","","","","","","","","","","","","","","","","","","SYN004BUFR","","","","","","","","","",""
"01007099999","2021-09-30T01:00:00","78.9166666","11.9333333","7.7","NY ALESUND, SV","FM-12","4","","36","40","","","-0.03","2","83","","30.40","30.37","","38","138","15","6","","","","","","","","","","","","","","","","","","","","","","","","","","","","","","","","","","","","","","","","","","","","","","","","","","","","","","","","","","","","","","","","","","","","","","","","","","","","","","","","","","","","","","","","","","","SYN004BUFR","","","","","","","","","",""
"01007099999","2021-09-30T03:00:00","78.9166666","11.9333333","7.7","NY ALESUND, SV","FM-12","4","","35","41","","","-0.04","2","79","","30.42","30.39","","38","132","14","8","","","","","","","","","","","","","","","","","","","","","","","","","","","","","","","","","","","","","","","","","","","","","","","","","","","","","","","","","","","","","","","","","","","","","","","","","","","","","","","","","","","","","","","","","","","SYN004BUFR","","","","","","","","","",""
"01007099999","2021-09-30T07:00:00","78.9166666","11.9333333","7.7","NY ALESUND, SV","FM-12","4","","35","40","","","-0.01","2","83","OVC:08 20","30.44","30.41","15.53","38","351","14","2","","","","","","","","","","","","","","","","","","","","","","","","","","","","","","","","","","","","","","","","","","","","","","","","","","","","","","","","","","","","","","","","","","","","","","","","","","","","","","","","","","","","","","","","","","","SYN004BUFR","","","","","","","","","",""
"01007099999","2021-09-30T08:00:00","78.9166666","11.9333333","7.7","NY ALESUND, SV","FM-12","4","","34","40","","","-0.02","3","79","","30.45","30.42","","38","087","","4","","","","","","","","","","","","","","","","","","","","","","","","","","","","","","","","","","","","","","","","","","","","","","","","","","","","","","","","","","","","","","","","","","","","","","","","","","","","","","","","","","","","","","","","","","","SYN004BUFR","","","","","","","","","",""
"01007099999","2021-09-30T10:00:00","78.9166666","11.9333333","7.7","NY ALESUND, SV","FM-12","4","","35","39","","","-0.02","2","85","","30.46","30.43","","37","026","","1","","","","","","","","","","","","","","","","","","","","","","","","","","","","","","","","","","","","","","","","","","","","","","","","","","","","","","","","","","","","","","","","","","","","","","","","","","","","","","","","","","","","","","","","","","","SYN004BUFR","","","","","","","","","",""
"01007099999","2021-09-30T12:00:00","78.9166666","11.9333333","7.7","NY ALESUND, SV","FM-12","4","","33","38","","","-0.01","2","82","","30.47","30.44","","36","121","","7","","","","","","","","","","","","","","","","","","","","","","","","","","","","","","","","","","","","","","","","","","","","","","","","","","","","","","","","","","","","","","","","","","","","","","","","","","","","","","","","","","","","","","","","","","","SYN004BUFR","","","","","","","","","",""
"01007099999","2021-09-30T14:00:00","78.9166666","11.9333333","7.7","NY ALESUND, SV","FM-12","4","","34","37","","","+0.01","8","86","","30.45","30.42","","36","075","","1","","","","","","","","","","","","","","","","","","","","","","","","","","","","","","","","","","","","","","","","","","","","","","","","","","","","","","","","","","","","","","","","","","","","","","","","","","","","","","","","","","","","","","","","","","","SYN004BUFR","","","","","","","","","",""
"01007099999","2021-09-30T16:00:00","78.9166666","11.9333333","7.7","NY ALESUND, SV","FM-12","4","","34","37","","","+0.05","8","88","","30.42","30.39","","36","264","","1","","","","","","","","","","","","","","","","","","","","","","","","","","","","","","","","","","","","","","","","","","","","","","","","","","","","","","","","","","","","","","","","","","","","","","","","","","","","","","","","","","","","","","","","","","","SYN004BUFR","","","","","","","","","",""
"01007099999","2021-09-30T19:00:00","78.9166666","11.9333333","7.7","NY ALESUND, SV","FM-12","4","","33","35","","","+0.04","6","93","FEW:02 7","30.38","30.35","18.64","34","058","","2","","","","","","","","","","","","","","","","","","","","","","","","","","","","","","","","","","","","","","","","","","","","","","","","","","","","","","","","","","","","","","","","","","","","","","","","","","","","","","","","","","","","","","","","","","","SYN004BUFR","","","","","","","","","",""
"01007099999","2021-10-01T01:00:00","78.9166666","11.9333333","7.7","NY ALESUND, SV","FM-12","4","","32","34","","","+0.03","8","94","","30.32","30.29","","33","122","","5","","","","","","","","","","","","","","","","","","","","","","","","","","","","","","","","","","","","","","","","","","","","","","","","","","","","","","","","","","","","","","","","","","","","","","","","","","","","","","","","","","","","","","","","","","","SYN004BUFR","","","","","","","","","",""
"01007099999","2021-10-01T04:00:00","78.9166666","11.9333333","7.7","NY ALESUND, SV","FM-12","4","","32","33","","","+0.05","6","97","","30.28","30.25","","33","143","","3","","","","","","","","","","","","","","","","","","","","","","","","","","","","","","","","","","","","","","","","","","","","","","","","","","","","","","","","","","","","","","","","","","","","","","","","","","","","","","","","","","","","","","","","","","","SYN004BUFR","","","","","","","","","",""
"01007099999","2021-10-01T05:00:00","78.9166666","11.9333333","7.7","NY ALESUND, SV","FM-12","4","","32","33","","","+0.04","7","96","","30.26","30.23","","33","167","","2","","","","","","","","","","","","","","","","","","","","","","","","","","","","","","","","","","","","","","","","","","","","","","","","","","","","","","","","","","","","","","","","","","","","","","","","","","","","","","","","","","","","","","","","","","","SYN004BUFR","","","","","","","","","",""
"01007099999","2021-10-01T09:00:00","78.9166666","11.9333333","7.7","NY ALESUND, SV","FM-12","4","","31","33","","","+0.05","6","94","","30.19","30.16","","32","139","","2","","","","","","","","","","","","","","","","","","","","","","","","","","","","","","","","","","","","","","","","","","","","","","","","","","","","","","","","","","","","","","","","","","","","","","","","","","","","","","","","","","","","","","","","","","","SYN004BUFR","","","","","","","","","",""
"01007099999","2021-10-01T10:00:00","78.9166666","11.9333333","7.7","NY ALESUND, SV","FM-12","4","","31","33","0.00","","+0.04","7","92","","30.19","30.16","","32","321","","0","","","","","","","","","","","","","","","","","","","","","","","","","","","","","","","","","","","","","","","","","","","","","","","","","","","","","","","","","","","","","","","","","","","","","","","","","","","","","","","","","","","","","","","","","","","SYN004BUFR","","","","","","","","","",""
"01007099999","2021-10-01T12:00:00","78.9166666","11.9333333","7.7","NY ALESUND, SV","FM-12","4","","31","36","","","+0.05","8","83","","30.15","30.12","","34","135","","4","","","","","","","","","","","","","","","","","","","","","","","","","","","","","","","","","","","","","","","","","","","","","","","","","","","","","","","","","","","","","","","","","","","","","","","","","","","","","","","","","","","","","","","","","","","SYN004BUFR","","","","","","","","","",""
"01007099999","2021-10-01T13:00:00","78.9166666","11.9333333","7.7","NY ALESUND, SV","FM-12","4","","32","36","","","+0.06","7","84","OVC:08 20","30.12","30.09","27.96","34","261","","7","","","","","","","","","","","","","","","","","","","","","","","","","","","","","","","","","","","","","","","","","","","","","","","","","","","","","","","","","","","","","","","","","","","","","","","","","","","","","","","","","","","","","","","","","","","SYN004BUFR","","","","","","","","","",""
"01007099999","2021-10-01T16:00:00","78.9166666","11.9333333","7.7","NY ALESUND, SV","FM-12","4","","32","36","","","+0.07","7","86","","30.05","30.02","","34","262","","7","","","","","","","","","","","","","","","","","","","","","","","","","","","","","","","","","","","","","","","","","","","","","","","","","","","","","","","","","","","","","","","","","","","","","","","","","","","","","","","","","","","","","","","","","","","SYN004BUFR","","","","","","","","","",""
"01007099999","2021-10-01T20:00:00","78.9166666","11.9333333","7.7","NY ALESUND, SV","FM-12","4","","32","38","","","+0.06","7","76","","29.97","29.94","","36","173","","2","","","","","","","","","","","","","","","","","","","","","","","","","","","","","","","","","","","","","","","","","","","","","","","","","","","","","","","","","","","","","","","","","","","","","","","","","","","","","","","","","","","","","","","","","","","SYN004BUFR","","","","","","","","","",""
"01007099999","2021-10-01T21:00:00","78.9166666","11.9333333","7.7","NY ALESUND, SV","FM-12","4","","32","37","","","+0.06","7","84","","29.96","29.93","","35","260","","5","","","","","","","","","","","","","","","","","","","","","","","","","","","","","","","","","","","","","","","","","","","","","","","","","","","","","","","","","","","","","","","","","","","","","","","","","","","","","","","","","","","","","","","","","","","SYN004BUFR","","","","","","","","","",""
"01007099999","2021-10-02T03:00:00","78.9166666","11.9333333","7.7","NY ALESUND, SV","FM-12","4","","33","37","0.00","","+0.05","6","87","","29.85","29.83","","35","269","","4","","","","","","","","","","","","","","","","","","","","","","","","","","","","","","","","","","","","","","","","","","","","","","","","","","","","","","","","","","","","","","","","","","","","","","","","","","","","","","","","","","","","","","","","","","","SYN004BUFR","","","","","","","","","",""
"01007099999","2021-10-02T04:00:00","78.9166666","11.9333333","7.7","NY ALESUND, SV","FM-12","4","","33","37","","","+0.04","7","86","","29.84","29.81","","35","261","","2","","","","","","","","","","","","","","","","","","","","","","","","","","","","","","","","","","","","","","","","","","","","","","","","","","","","","","","","","","","","","","","","","","","","","","","","","","","","","","","","","","","","","","","","","","","SYN004BUFR","","","","","","","","","",""
"01007099999","2021-10-02T08:00:00","78.9166666","11.9333333","7.7","NY ALESUND, SV","FM-12","4","","33","36","","","+0.03","6","87","","29.80","29.78","","35","239","","1","","","","","","","","","","","","","","","","","","","","","","","","","","","","","","","","","","","","","","","","","","","","","","","","","","","","","","","","","","","","","","","","","","","","","","","","","","","","","","","","","","","","","","","","","","","SYN004BUFR","","","","","","","","","",""
"01007099999","2021-10-02T13:00:00","78.9166666","11.9333333","7.7","NY ALESUND, SV","FM-12","4","","31","35","","","+0.01","8","86","FEW:02 33","29.79","29.76","27.96","33","104","","3","","","","","","","","","","","","","","","","","","","","","","","","","","","","","","","","","","","","","","","","","","","","","","","","","","","","","","","","","","","","","","","","","","","","","","","","","","","","","","","","","","","","","","","","","","","SYN004BUFR","","","","","","","","","",""
"01007099999","2021-10-02T15:00:00","78.9166666","11.9333333","7.7","NY ALESUND, SV","FM-12","4","","31","36","","","+0.02","6","80","","29.78","29.75","","34","173","","3","","","","","","","","","","","","","","","","","","","","","","","","","","","","","","","","","","","","","","","","","","","","","","","","","","","","","","","","","","","","","","","","","","","","","","","","","","","","","","","","","","","","","","","","","","","SYN004BUFR","","","","","","","","","",""
"01007099999","2021-10-02T16:00:00","78.9166666","11.9333333","7.7","NY ALESUND, SV","FM-12","4","","31","37","","","+0.01","5","79","","29.78","29.75","","35","154","","2","","","","","","","","","","","","","","","","","","","","","","","","","","","","","","","","","","","","","","","","","","","","","","","","","","","","","","","","","","","","","","","","","","","","","","","","","","","","","","","","","","","","","","","","","","","SYN004BUFR","","","","","","","","","",""
"01007099999","2021-10-02T17:00:00","78.9166666","11.9333333","7.7","NY ALESUND, SV","FM-12","4","","31","37","","","+0.00","5","80","","29.78","29.75","","35","234","","3","","","","","","","","","","","","","","","","","","","","","","","","","","","","","","","","","","","","","","","","","","","","","","","","","","","","","","","","","","","","","","","","","","","","","","","","","","","","","","","","","","","","","","","","","","","SYN004BUFR","","","","","","","","","",""
"01007099999","2021-10-02T18:00:00","78.9166666","11.9333333","7.7","NY ALESUND, SV","FM-12","4","","31","36","","","-0.01","2","82","","29.79","29.76","","34","136","","1","","","","","","","","","","","","","","","","","","","","","","","","","","","","","","","","","","","","","","","","","","","","","","","","","","","","","","","","","","","","","","","","","","","","","","","","","","","","","","","","","","","","","","","","","","","SYN004BUFR","","","","","","","","","",""
"01007099999","2021-10-02T19:00:00","78.9166666","11.9333333","7.7","NY ALESUND, SV","FM-12","4","","31","35","","","-0.01","2","86","SCT:04 33","29.79","29.76","24.85","33","180","","2","","","","","","","","","","","","","","","","","","","","","","","","","","","","","","","","","","","","","","","","","","","","","","","","","","","","","","","","","","","","","","","","","","","","","","","","","","","","","","","","","","","","","","","","","","","SYN004BUFR","","","","","","","","","",""
"01007099999","2021-10-02T20:00:00","78.9166666","11.9333333","7.7","NY ALESUND, SV","FM-12","4","","31","36","","","-0.02","2","79","","29.80","29.77","","34","336","","0","","","","","","","","","","","","","","","","","","","","","","","","","","","","","","","","","","","","","","","","","","","","","","","","","","","","","","","","","","","","","","","","","","","","","","","","","","","","","","","","","","","","","","","","","","","SYN004BUFR","","","","","","","","","",""
"01007099999","2021-10-02T21:00:00","78.9166666","11.9333333","7.7","NY ALESUND, SV","FM-12","4","","31","35","","","-0.02","2","85","","29.81","29.78","","33","069","","1","","","","","","","","","","","","","","","","","","","","","","","","","","","","","","","","","","","","","","","","","","","","","","","","","","","","","","","","","","","","","","","","","","","","","","","","","","","","","","","","","","","","","","","","","","","SYN004BUFR","","","","","","","","","",""
"01007099999","2021-10-02T22:00:00","78.9166666","11.9333333","7.7","NY ALESUND, SV","FM-12","4","","31","36","","","-0.03","2","81","","29.82","29.79","","34","037","","1","","","","","","","","","","","","","","","","","","","","","","","","","","","","","","","","","","","","","","","","","","","","","","","","","","","","","","","","","","","","","","","","","","","","","","","","","","","","","","","","","","","","","","","","","","","SYN004BUFR","","","","","","","","","",""
"01007099999","2021-10-03T00:00:00","78.9166666","11.9333333","7.7","NY ALESUND, SV","FM-12","4","","31","36","","","-0.03","2","81","","29.84","29.81","","34","135","","3","","","","","","","","","","","","","","","","","","","","","","","","","","","","","","","","","","","","","","","","","","","","","","","","","","","","","","","","","","","","","","","","","","","","","","","","","","","","","","","","","","","","","","","","","","","SYN004BUFR","","","","","","","","","",""
"01007099999","2021-10-03T02:00:00","78.9166666","11.9333333","7.7","NY ALESUND, SV","FM-12","4","","31","36","","","-0.01","2","81","","29.85","29.82","","34","065","","1","","","","","","","","","","","","","","","","","","","","","","","","","","","","","","","","","","","","","","","","","","","","","","","","","","","","","","","","","","","","","","","","","","","","","","","","","","","","","","","","","","","","","","","","","","","SYN004BUFR","","","","","","","","","",""
"01007099999","2021-10-03T03:00:00","78.9166666","11.9333333","7.7","NY ALESUND, SV","FM-12","4","","31","35","","","-0.01","2","87","","29.85","29.82","","33","310","","1","","","","","","","","","","","","","","","","","","","","","","","","","","","","","","","","","","","","","","","","","","","","","","","","","","","","","","","","","","","","","","","","","","","","","","","","","","","","","","","","","","","","","","","","","","","SYN004BUFR","","","","","","","","","",""
"01007099999","2021-10-03T05:00:00","78.9166666","11.9333333","7.7","NY ALESUND, SV","FM-12","4","","32","36","","","-0.01","2","85","","29.86","29.83","","34","105","","2","","","","","","","","","","","","","","","","","","","","","","","","","","","","","","","","","","","","","","","","","","","","","","","","","","","","","","","","","","","","","","","","","","","","","","","","","","","","","","","","","","","","","","","","","","","SYN004BUFR","","","","","","","","","",""
"01007099999","2021-10-03T06:00:00","78.9166666","11.9333333","7.7","NY ALESUND, SV","FM-12","4","","32","37","","","-0.01","0","83","","29.86","29.83","","35","004","","0","","","","","","","","","","","","","","","","","","","","","","","","","","","","","","","","","","","","","","","","","","","","","","","","","","","","","","","","","","","","","","","","","","","","","","","","","","","","","","","","","","","","","","","","","","","SYN004BUFR","","","","","","","","","",""
"01007099999","2021-10-03T08:00:00","78.9166666","11.9333333","7.7","NY ALESUND, SV","FM-12","4","","33","37","","","+0.01","7","85","","29.85","29.83","","35","311","","2","","","","","","","","","","","","","","","","","","","","","","","","","","","","","","","","","","","","","","","","","","","","","","","","","","","","","","","","","","","","","","","","","","","","","","","","","","","","","","","","","","","","","","","","","","","SYN004BUFR","","","","","","","","","",""
"01007099999","2021-10-03T13:00:00","78.9166666","11.9333333","7.7","NY ALESUND, SV","FM-12","4","","33","38","","","+0.02","7","82","SCT:03 33","29.84","29.81","21.75","36","330","","1","","","","","","","","","","","","","","","","","","","","","","","","","","","","","","","","","","","","","","","","","","","","","","","","","","","","","","","","","","","","","","","","","","","","","","","","","","","","","","","","","","","","","","","","","","","SYN004BUFR","","","","","","","","","",""
"01007099999","2021-10-03T14:00:00","78.9166666","11.9333333","7.7","NY ALESUND, SV","FM-12","4","","34","38","","","+0.02","7","87","","29.83","29.80","","36","236","","2","","","","","","","","","","","","","","","","","","","","","","","","","","","","","","","","","","","","","","","","","","","","","","","","","","","","","","","","","","","","","","","","","","","","","","","","","","","","","","","","","","","","","","","","","","","SYN004BUFR","","","","","","","","","",""
"01007099999","2021-10-03T15:00:00","78.9166666","11.9333333","7.7","NY ALESUND, SV","FM-12","4","","33","39","","","+0.03","7","80","","29.83","29.80","","37","253","","0","","","","","","","","","","","","","","","","","","","","","","","","","","","","","","","","","","","","","","","","","","","","","","","","","","","","","","","","","","","","","","","","","","","","","","","","","","","","","","","","","","","","","","","","","","","SYN004BUFR","","","","","","","","","",""
"01007099999","2021-10-03T16:00:00","78.9166666","11.9333333","7.7","NY ALESUND, SV","FM-12","4","","34","37","","","+0.02","7","89","","29.82","29.79","","36","126","","2","","","","","","","","","","","","","","","","","","","","","","","","","","","","","","","","","","","","","","","","","","","","","","","","","","","","","","","","","","","","","","","","","","","","","","","","","","","","","","","","","","","","","","","","","","","SYN004BUFR","","","","","","","","","",""
"01007099999","2021-10-03T17:00:00","78.9166666","11.9333333","7.7","NY ALESUND, SV","FM-12","4","","33","37","","","+0.02","7","87","","29.81","29.78","","35","277","","2","","","","","","","","","","","","","","","","","","","","","","","","","","","","","","","","","","","","","","","","","","","","","","","","","","","","","","","","","","","","","","","","","","","","","","","","","","","","","","","","","","","","","","","","","","","SYN004BUFR","","","","","","","","","",""
"01007099999","2021-10-03T18:00:00","78.9166666","11.9333333","7.7","NY ALESUND, SV","FM-12","4","","33","37","","","+0.02","7","86","","29.80","29.78","","35","281","","2","","","","","","","","","","","","","","","","","","","","","","","","","","","","","","","","","","","","","","","","","","","","","","","","","","","","","","","","","","","","","","","","","","","","","","","","","","","","","","","","","","","","","","","","","","","SYN004BUFR","","","","","","","","","",""
"01007099999","2021-10-03T19:00:00","78.9166666","11.9333333","7.7","NY ALESUND, SV","FM-12","4","","33","39","","","+0.02","7","80","OVC:08 20","29.80","29.77","15.53","37","141","","1","","","","","","","","","","","","","","","","","","","","","","","","","","","","","","","","","","","","","","","","","","","","","","","","","","","","","","","","","","","","","","","","","","","","","","","","","","","","","","","","","","","","","","","","","","","SYN004BUFR","","","","","","","","","",""
"01007099999","2021-10-03T20:00:00","78.9166666","11.9333333","7.7","NY ALESUND, SV","FM-12","4","","34","36","","","+0.02","7","89","","29.79","29.76","","35","294","","3","","","","","","","","","","","","","","","","","","","","","","","","","","","","","","","","","","","","","","","","","","","","","","","","","","","","","","","","","","","","","","","","","","","","","","","","","","","","","","","","","","","","","","","","","","","SYN004BUFR","","","","","","","","","",""
"01007099999","2021-10-03T21:00:00","78.9166666","11.9333333","7.7","NY ALESUND, SV","FM-12","4","","33","37","","","+0.02","7","86","","29.79","29.76","","35","312","","1","","","","","","","","","","","","","","","","","","","","","","","","","","","","","","","","","","","","","","","","","","","","","","","","","","","","","","","","","","","","","","","","","","","","","","","","","","","","","","","","","","","","","","","","","","","SYN004BUFR","","","","","","","","","",""
"01007099999","2021-10-04T00:00:00","78.9166666","11.9333333","7.7","NY ALESUND, SV","FM-12","4","","33","38","","","+0.03","8","82","","29.76","29.73","","36","260","","3","","","","","","","","","","","","","","","","","","","","","","","","","","","","","","","","","","","","","","","","","","","","","","","","","","","","","","","","","","","","","","","","","","","","","","","","","","","","","","","","","","","","","","","","","","","SYN004BUFR","","","","","","","","","",""
"01007099999","2021-10-04T02:00:00","78.9166666","11.9333333","7.7","NY ALESUND, SV","FM-12","4","","32","38","","","+0.03","7","78","","29.74","29.71","","36","139","12","9","","","","","","","","","","","","","","","","","","","","","","","","","","","","","","","","","","","","","","","","","","","","","","","","","","","","","","","","","","","","","","","","","","","","","","","","","","","","","","","","","","","","","","","","","","","SYN004BUFR","","","","","","","","","",""
"01007099999","2021-10-04T03:00:00","78.9166666","11.9333333","7.7","NY ALESUND, SV","FM-12","4","","33","37","","","+0.04","8","83","","29.72","29.70","","35","246","","1","","","","","","","","","","","","","","","","","","","","","","","","","","","","","","","","","","","","","","","","","","","","","","","","","","","","","","","","","","","","","","","","","","","","","","","","","","","","","","","","","","","","","","","","","","","SYN004BUFR","","","","","","","","","",""
"01007099999","2021-10-04T10:00:00","78.9166666","11.9333333","7.7","NY ALESUND, SV","FM-12","4","","32","37","","","+0.03","7","82","","29.64","29.61","","35","011","","1","","","","","","","","","","","","","","","","","","","","","","","","","","","","","","","","","","","","","","","","","","","","","","","","","","","","","","","","","","","","","","","","","","","","","","","","","","","","","","","","","","","","","","","","","","","SYN004BUFR","","","","","","","","","",""
"01007099999","2021-10-04T11:00:00","78.9166666","11.9333333","7.7","NY ALESUND, SV","FM-12","4","","33","39","0.01","","+0.04","8","80","","29.61","29.58","","37","122","","3","","","","","","","","","","","","","","","","","","","","","","","","","","","","","","","","","","","","","","","","","","","","","","","","","","","","","","","","","","","","","","","","","","","","","","","","","","","","","","","","","","","","","","","","","","","SYN004BUFR","","","","","","","","","",""
"01007099999","2021-10-04T16:00:00","78.9166666","11.9333333","7.7","NY ALESUND, SV","FM-12","4","","34","40","","","+0.07","7","79","","29.51","29.48","","37","123","15","6","","","","","","","","","","","","","","","","","","","","","","","","","","","","","","","","","","","","","","","","","","","","","","","","","","","","","","","","","","","","","","","","","","","","","","","","","","","","","","","","","","","","","","","","","","","SYN004BUFR","","","","","","","","","",""
"01007099999","2021-10-04T17:00:00","78.9166666","11.9333333","7.7","NY ALESUND, SV","FM-12","4","","33","40","","","+0.06","7","74","","29.48","29.46","","37","129","","6","","","","","","","","","","","","","","","","","","","","","","","","","","","","","","","","","","","","","","","","","","","","","","","","","","","","","","","","","","","","","","","","","","","","","","","","","","","","","","","","","","","","","","","","","","","SYN004BUFR","","","","","","","","","",""
"01007099999","2021-10-04T18:00:00","78.9166666","11.9333333","7.7","NY ALESUND, SV","FM-12","4","","33","41","","","+0.07","8","72","","29.46","29.43","","38","135","14","5","","","","","","","","","","","","","","","","","","","","","","","","","","","","","","","","","","","","","","","","","","","","","","","","","","","","","","","","","","","","","","","","","","","","","","","","","","","","","","","","","","","","","","","","","","","SYN004BUFR","","","","","","","","","",""
"01007099999","2021-10-04T20:00:00","78.9166666","11.9333333","7.7","NY ALESUND, SV","FM-12","4","","32","38","","","+0.08","7","81","","29.41","29.38","","36","322","","6","","","","","","","","","","","","","","","","","","","","","","","","","","","","","","","","","","","","","","","","","","","","","","","","","","","","","","","","","","","","","","","","","","","","","","","","","","","","","","","","","","","","","","","","","","","SYN004BUFR","","","","","","","","","",""
"01007099999","2021-10-04T21:00:00","78.9166666","11.9333333","7.7","NY ALESUND, SV","FM-12","4","","31","39","","","+0.06","6","74","","29.40","29.37","","36","034","","3","","","","","","","","","","","","","","","","","","","","","","","","","","","","","","","","","","","","","","","","","","","","","","","","","","","","","","","","","","","","","","","","","","","","","","","","","","","","","","","","","","","","","","","","","","","SYN004BUFR","","","","","","","","","",""
"01007099999","2021-10-04T23:00:00","78.9166666","11.9333333","7.7","NY ALESUND, SV","FM-12","4","","31","38","","","+0.04","8","76","","29.37","29.34","","35","280","","6","","","","","","","","","","","","","","","","","","","","","","","","","","","","","","","","","","","","","","","","","","","","","","","","","","","","","","","","","","","","","","","","","","","","","","","","","","","","","","","","","","","","","","","","","","","SYN004BUFR","","","","","","","","","",""
"01007099999","2021-10-05T02:00:00","78.9166666","11.9333333","7.7","NY ALESUND, SV","FM-12","4","","32","39","","","+0.03","6","78","","29.34","29.31","","36","153","","3","","","","","","","","","","","","","","","","","","","","","","","","","","","","","","","","","","","","","","","","","","","","","","","","","","","","","","","","","","","","","","","","","","","","","","","","","","","","","","","","","","","","","","","","","","","SYN004BUFR","","","","","","","","","",""
"01007099999","2021-10-05T05:00:00","78.9166666","11.9333333","7.7","NY ALESUND, SV","FM-12","4","","32","39","","","+0.01","7","78","","29.33","29.30","","36","132","23","15","","","","","","","","","","","","","","","","","","","","","","","","","","","","","","","","","","","","","","","","","","","","","","","","","","","","","","","","","","","","","","","","","","","","","","","","","","","","","","","","","","","","","","","","","","","SYN004BUFR","","","","","","","","","",""
"01007099999","2021-10-05T06:00:00","78.9166666","11.9333333","7.7","NY ALESUND, SV","FM-12","4","","32","38","","","+0.01","7","78","","29.33","29.30","","36","135","19","15","","","","","","","","","","","","","","","","","","","","","","","","","","","","","","","","","","","","","","","","","","","","","","","","","","","","","","","","","","","","","","","","","","","","","","","","","","","","","","","","","","","","","","","","","","","SYN004BUFR","","","","","","","","","",""
"01007099999","2021-10-05T07:00:00","78.9166666","11.9333333","7.7","NY ALESUND, SV","FM-12","4","","33","38","","||RA","+0.01","7","80","OVC:08 10","29.32","29.30","4.35","36","134","21","14","","","","","","","","","","","","","","","","","","","","","","","","","","","","","","","","","","","","","","","","","","","","","","","","","","","","","","","","","","","","","","","","","","","","","","","","","","","","","","","","","","","","","","","","","","","SYN004BUFR","","","","","","","","","",""
"01007099999","2021-10-05T08:00:00","78.9166666","11.9333333","7.7","NY ALESUND, SV","FM-12","4","","33","38","0.00","","+0.01","8","79","","29.31","29.29","","36","131","17","9","","","","","","","","","","","","","","","","","","","","","","","","","","","","","","","","","","","","","","","","","","","","","","","","","","","","","","","","","","","","","","","","","","","","","","","","","","","","","","","","","","","","","","","","","","","SYN004BUFR","","","","","","","","","",""
"01007099999","2021-10-05T12:00:00","78.9166666","11.9333333","7.7","NY ALESUND, SV","FM-12","4","","32","39","0.00","","+0.01","8","76","","29.30","29.27","","36","102","20","16","","","","","","","","","","","","","","","","","","","","","","","","","","","","","","","","","","","","","","","","","","","","","","","","","","","","","","","","","","","","","","","","","","","","","","","","","","","","","","","","","","","","","","","","","","","SYN004BUFR","","","","","","","","","",""
"01007099999","2021-10-05T13:00:00","78.9166666","11.9333333","7.7","NY ALESUND, SV","FM-12","4","","32","39","","","+0.03","7","76","OVC:08 20","29.28","29.26","18.64","36","108","20","17","","","","","","","","","","","","","","","","","","","","","","","","","","","","","","","","","","","","","","","","","","","","","","","","","","","","","","","","","","","","","","","","","","","","","","","","","","","","","","","","","","","","","","","","","","","SYN004BUFR","","","","","","","","","",""
"01007099999","2021-10-05T15:00:00","78.9166666","11.9333333","7.7","NY ALESUND, SV","FM-12","4","","31","39","","","+0.05","7","74","","29.25","29.22","","36","097","25","16","","","","","","","","","","","","","","","","","","","","","","","","","","","","","","","","","","","","","","","","","","","","","","","","","","","","","","","","","","","","","","","","","","","","","","","","","","","","","","","","","","","","","","","","","","","SYN004BUFR","","","","","","","","","",""
"01007099999","2021-10-05T16:00:00","78.9166666","11.9333333","7.7","NY ALESUND, SV","FM-12","4","","32","40","","","+0.05","7","74","","29.23","29.21","","37","100","27","17","","","","","","","","","","","","","","","","","","","","","","","","","","","","","","","","","","","","","","","","","","","","","","","","","","","","","","","","","","","","","","","","","","","","","","","","","","","","","","","","","","","","","","","","","","","SYN004BUFR","","","","","","","","","",""
"01007099999","2021-10-05T18:00:00","78.9166666","11.9333333","7.7","NY ALESUND, SV","FM-12","4","","31","40","","","+0.03","6","71","","29.22","29.19","","36","100","23","16","","","","","","","","","","","","","","","","","","","","","","","","","","","","","","","","","","","","","","","","","","","","","","","","","","","","","","","","","","","","","","","","","","","","","","","","","","","","","","","","","","","","","","","","","","","SYN004BUFR","","","","","","","","","",""
"01007099999","2021-10-05T20:00:00","78.9166666","11.9333333","7.7","NY ALESUND, SV","FM-12","4","","32","38","0.00","","+0.01","5","79","","29.22","29.19","","36","111","20","15","","","","","","","","","","","","","","","","","","","","","","","","","","","","","","","","","","","","","","","","","","","","","","","","","","","","","","","","","","","","","","","","","","","","","","","","","","","","","","","","","","","","","","","","","","","SYN004BUFR","","","","","","","","","",""
"01007099999","2021-10-05T22:00:00","78.9166666","11.9333333","7.7","NY ALESUND, SV","FM-12","4","","32","37","0.01","","+0.01","8","83","","29.21","29.18","","35","189","","3","","","","","","","","","","","","","","","","","","","","","","","","","","","","","","","","","","","","","","","","","","","","","","","","","","","","","","","","","","","","","","","","","","","","","","","","","","","","","","","","","","","","","","","","","","","SYN004BUFR","","","","","","","","","",""
"01007099999","2021-10-05T23:00:00","78.9166666","11.9333333","7.7","NY ALESUND, SV","FM-12","4","","32","37","0.00","","+0.01","7","82","","29.20","29.18","","35","058","13","3","","","","","","","","","","","","","","","","","","","","","","","","","","","","","","","","","","","","","","","","","","","","","","","","","","","","","","","","","","","","","","","","","","","","","","","","","","","","","","","","","","","","","","","","","","","SYN004BUFR","","","","","","","","","",""
"01007099999","2021-10-06T01:00:00","78.9166666","11.9333333","7.7","NY ALESUND, SV","FM-12","4","","33","36","","","+0.02","7","89","","29.18","29.15","","35","264","20","6","","","","","","","","","","","","","","","","","","","","","","","","","","","","","","","","","","","","","","","","","","","","","","","","","","","","","","","","","","","","","","","","","","","","","","","","","","","","","","","","","","","","","","","","","","","SYN004BUFR","","","","","","","","","",""
"01007099999","2021-10-06T03:00:00","78.9166666","11.9333333","7.7","NY ALESUND, SV","FM-12","4","","31","36","","","+0.02","7","81","","29.17","29.14","","34","266","","3","","","","","","","","","","","","","","","","","","","","","","","","","","","","","","","","","","","","","","","","","","","","","","","","","","","","","","","","","","","","","","","","","","","","","","","","","","","","","","","","","","","","","","","","","","","SYN004BUFR","","","","","","","","","",""
"01007099999","2021-10-06T05:00:00","78.9166666","11.9333333","7.7","NY ALESUND, SV","FM-12","4","","32","36","","","+0.01","7","86","","29.17","29.14","","34","136","","4","","","","","","","","","","","","","","","","","","","","","","","","","","","","","","","","","","","","","","","","","","","","","","","","","","","","","","","","","","","","","","","","","","","","","","","","","","","","","","","","","","","","","","","","","","","SYN004BUFR","","","","","","","","","",""
"01007099999","2021-10-06T06:00:00","78.9166666","11.9333333","7.7","NY ALESUND, SV","FM-12","4","","32","36","","","-0.00","2","86","","29.17","29.15","","34","010","","1","","","","","","","","","","","","","","","","","","","","","","","","","","","","","","","","","","","","","","","","","","","","","","","","","","","","","","","","","","","","","","","","","","","","","","","","","","","","","","","","","","","","","","","","","","","SYN004BUFR","","","","","","","","","",""
"01007099999","2021-10-06T09:00:00","78.9166666","11.9333333","7.7","NY ALESUND, SV","FM-12","4","","32","35","","","-0.03","2","88","","29.20","29.18","","34","266","","3","","","","","","","","","","","","","","","","","","","","","","","","","","","","","","","","","","","","","","","","","","","","","","","","","","","","","","","","","","","","","","","","","","","","","","","","","","","","","","","","","","","","","","","","","","","SYN004BUFR","","","","","","","","","",""
"01007099999","2021-10-06T10:00:00","78.9166666","11.9333333","7.7","NY ALESUND, SV","FM-12","4","","32","35","","","-0.04","2","87","","29.21","29.19","","34","287","","1","","","","","","","","","","","","","","","","","","","","","","","","","","","","","","","","","","","","","","","","","","","","","","","","","","","","","","","","","","","","","","","","","","","","","","","","","","","","","","","","","","","","","","","","","","","SYN004BUFR","","","","","","","","","",""
"01007099999","2021-10-06T12:00:00","78.9166666","11.9333333","7.7","NY ALESUND, SV","FM-12","4","","31","35","0.01","","-0.05","3","88","","29.25","29.22","","33","258","","2","","","","","","","","","","","","","","","","","","","","","","","","","","","","","","","","","","","","","","","","","","","","","","","","","","","","","","","","","","","","","","","","","","","","","","","","","","","","","","","","","","","","","","","","","","","SYN004BUFR","","","","","","","","","",""
"01007099999","2021-10-06T13:00:00","78.9166666","11.9333333","7.7","NY ALESUND, SV","FM-12","4","","31","36","","","-0.05","2","83","FEW:01 10","29.27","29.24","37.28","34","234","","4","","","","","","","","","","","","","","","","","","","","","","","","","","","","","","","","","","","","","","","","","","","","","","","","","","","","","","","","","","","","","","","","","","","","","","","","","","","","","","","","","","","","","","","","","","","SYN004BUFR","","","","","","","","","",""
"01007099999","2021-10-06T16:00:00","78.9166666","11.9333333","7.7","NY ALESUND, SV","FM-12","4","","26","37","","","-0.06","2","64","","29.32","29.30","","33","346","15","7","","","","","","","","","","","","","","","","","","","","","","","","","","","","","","","","","","","","","","","","","","","","","","","","","","","","","","","","","","","","","","","","","","","","","","","","","","","","","","","","","","","","","","","","","","","SYN004BUFR","","","","","","","","","",""
"01007099999","2021-10-06T19:00:00","78.9166666","11.9333333","7.7","NY ALESUND, SV","FM-12","4","","27","35","","","-0.07","2","72","FEW:01 10","29.40","29.37","18.64","32","327","23","14","","","","","","","","","","","","","","","","","","","","","","","","","","","","","","","","","","","","","","","","","","","","","","","","","","","","","","","","","","","","","","","","","","","","","","","","","","","","","","","","","","","","","","","","","","","SYN004BUFR","","","","","","","","","",""
"01007099999","2021-10-06T20:00:00","78.9166666","11.9333333","7.7","NY ALESUND, SV","FM-12","4","","28","35","","","-0.07","2","77","","29.42","29.39","","32","322","21","16","","","","","","","","","","","","","","","","","","","","","","","","","","","","","","","","","","","","","","","","","","","","","","","","","","","","","","","","","","","","","","","","","","","","","","","","","","","","","","","","","","","","","","","","","","","SYN004BUFR","","","","","","","","","",""
"01007099999","2021-10-06T23:00:00","78.9166666","11.9333333","7.7","NY ALESUND, SV","FM-12","4","","30","33","","","-0.07","2","87","","29.49","29.46","","32","329","21","15","","","","","","","","","","","","","","","","","","","","","","","","","","","","","","","","","","","","","","","","","","","","","","","","","","","","","","","","","","","","","","","","","","","","","","","","","","","","","","","","","","","","","","","","","","","SYN004BUFR","","","","","","","","","",""
"01007099999","2021-10-07T00:00:00","78.9166666","11.9333333","7.7","NY ALESUND, SV","FM-12","4","","30","33","","","-0.08","2","87","","29.52","29.49","","32","336","22","15","","","","","","","","","","","","","","","","","","","","","","","","","","","","","","","","","","","","","","","","","","","","","","","","","","","","","","","","","","","","","","","","","","","","","","","","","","","","","","","","","","","","","","","","","","","SYN004BUFR","","","","","","","","","",""
"01007099999","2021-10-07T02:00:00","78.9166666","11.9333333","7.7","NY ALESUND, SV","FM-12","4","","29","33","","","-0.11","3","85","","29.60","29.57","","31","340","22","15","","","","","","","","","","","","","","","","","","","","","","","","","","","","","","","","","","","","","","","","","","","","","","","","","","","","","","","","","","","","","","","","","","","","","","","","","","","","","","","","","","","","","","","","","","","SYN004BUFR","","","","","","","","","",""
"01007099999","2021-10-07T03:00:00","78.9166666","11.9333333","7.7","NY ALESUND, SV","FM-12","4","","28","33","","","-0.12","2","81","","29.64","29.61","","31","350","23","14","","","","","","","","","","","","","","","","","","","","","","","","","","","","","","","","","","","","","","","","","","","","","","","","","","","","","","","","","","","","","","","","","","","","","","","","","","","","","","","","","","","","","","","","","","","SYN004BUFR","","","","","","","","","",""
"01007099999","2021-10-07T04:00:00","78.9166666","11.9333333","7.7","NY ALESUND, SV","FM-12","4","","29","32","","","-0.11","2","87","","29.67","29.65","","31","338","25","16","","","","","","","","","","","","","","","","","","","","","","","","","","","","","","","","","","","","","","","","","","","","","","","","","","","","","","","","","","","","","","","","","","","","","","","","","","","","","","","","","","","","","","","","","","","SYN004BUFR","","","","","","","","","",""
"01007099999","2021-10-07T07:00:00","78.9166666","11.9333333","7.7","NY ALESUND, SV","FM-12","4","","24","31","","","-0.12","2","76","OVC:08 10","29.79","29.76","9.32","29","346","30","18","","","","","","","","","","","","","","","","","","","","","","","","","","","","","","","","","","","","","","","","","","","","","","","","","","","","","","","","","","","","","","","","","","","","","","","","","","","","","","","","","","","","","","","","","","","SYN004BUFR","","","","","","","","","",""
"01007099999","2021-10-07T08:00:00","78.9166666","11.9333333","7.7","NY ALESUND, SV","FM-12","4","","24","31","","","-0.12","2","76","","29.83","29.80","","29","343","30","16","","","","","","","","","","","","","","","","","","","","","","","","","","","","","","","","","","","","","","","","","","","","","","","","","","","","","","","","","","","","","","","","","","","","","","","","","","","","","","","","","","","","","","","","","","","SYN004BUFR","","","","","","","","","",""
"01007099999","2021-10-07T09:00:00","78.9166666","11.9333333","7.7","NY ALESUND, SV","FM-12","4","","23","31","","","-0.11","1","73","","29.86","29.83","","28","344","27","17","","","","","","","","","","","","","","","","","","","","","","","","","","","","","","","","","","","","","","","","","","","","","","","","","","","","","","","","","","","","","","","","","","","","","","","","","","","","","","","","","","","","","","","","","","","SYN004BUFR","","","","","","","","","",""
"01007099999","2021-10-07T10:00:00","78.9166666","11.9333333","7.7","NY ALESUND, SV","FM-12","4","","24","30","","","-0.10","1","77","","29.89","29.86","","28","347","26","17","","","","","","","","","","","","","","","","","","","","","","","","","","","","","","","","","","","","","","","","","","","","","","","","","","","","","","","","","","","","","","","","","","","","","","","","","","","","","","","","","","","","","","","","","","","SYN004BUFR","","","","","","","","","",""
"01007099999","2021-10-07T11:00:00","78.9166666","11.9333333","7.7","NY ALESUND, SV","FM-12","4","","22","30","","","-0.10","2","73","","29.93","29.90","","27","347","26","17","","","","","","","","","","","","","","","","","","","","","","","","","","","","","","","","","","","","","","","","","","","","","","","","","","","","","","","","","","","","","","","","","","","","","","","","","","","","","","","","","","","","","","","","","","","SYN004BUFR","","","","","","","","","",""
"01007099999","2021-10-07T14:00:00","78.9166666","11.9333333","7.7","NY ALESUND, SV","FM-12","4","","19","30","","","-0.08","1","65","","30.01","29.98","","26","343","25","14","","","","","","","","","","","","","","","","","","","","","","","","","","","","","","","","","","","","","","","","","","","","","","","","","","","","","","","","","","","","","","","","","","","","","","","","","","","","","","","","","","","","","","","","","","","SYN004BUFR","","","","","","","","","",""
"01007099999","2021-10-07T17:00:00","78.9166666","11.9333333","7.7","NY ALESUND, SV","FM-12","4","","16","28","","","-0.06","2","60","","30.07","30.04","","24","335","15","9","","","","","","","","","","","","","","","","","","","","","","","","","","","","","","","","","","","","","","","","","","","","","","","","","","","","","","","","","","","","","","","","","","","","","","","","","","","","","","","","","","","","","","","","","","","SYN004BUFR","","","","","","","","","",""
"01007099999","2021-10-07T21:00:00","78.9166666","11.9333333","7.7","NY ALESUND, SV","FM-12","4","","14","26","","","-0.06","2","62","","30.16","30.13","","22","129","14","11","","","","","","","","","","","","","","","","","","","","","","","","","","","","","","","","","","","","","","","","","","","","","","","","","","","","","","","","","","","","","","","","","","","","","","","","","","","","","","","","","","","","","","","","","","","SYN004BUFR","","","","","","","","","",""
"01007099999","2021-10-07T23:00:00","78.9166666","11.9333333","7.7","NY ALESUND, SV","FM-12","4","","15","25","","","-0.07","2","63","","30.20","30.17","","22","130","17","13","","","","","","","","","","","","","","","","","","","","","","","","","","","","","","","","","","","","","","","","","","","","","","","","","","","","","","","","","","","","","","","","","","","","","","","","","","","","","","","","","","","","","","","","","","","SYN004BUFR","","","","","","","","","",""
"01007099999","2021-10-08T00:00:00","78.9166666","11.9333333","7.7","NY ALESUND, SV","FM-12","4","","14","26","","","-0.06","2","60","","30.22","30.19","","22","128","19","13","","","","","","","","","","","","","","","","","","","","","","","","","","","","","","","","","","","","","","","","","","","","","","","","","","","","","","","","","","","","","","","","","","","","","","","","","","","","","","","","","","","","","","","","","","","SYN004BUFR","","","","","","","","","",""
"01007099999","2021-10-08T01:00:00","78.9166666","11.9333333","7.7","NY ALESUND, SV","FM-12","4","","13","25","","","-0.05","2","60","","30.23","30.20","","22","137","15","11","","","","","","","","","","","","","","","","","","","","","","","","","","","","","","","","","","","","","","","","","","","","","","","","","","","","","","","","","","","","","","","","","","","","","","","","","","","","","","","","","","","","","","","","","","","SYN004BUFR","","","","","","","","","",""
"01007099999","2021-10-08T02:00:00","78.9166666","11.9333333","7.7","NY ALESUND, SV","FM-12","4","","13","24","","","-0.04","2","63","","30.24","30.21","","21","161","18","6","","","","","","","","","","","","","","","","","","","","","","","","","","","","","","","","","","","","","","","","","","","","","","","","","","","","","","","","","","","","","","","","","","","","","","","","","","","","","","","","","","","","","","","","","","","SYN004BUFR","","","","","","","","","",""
"01007099999","2021-10-08T07:00:00","78.9166666","11.9333333","7.7","NY ALESUND, SV","FM-12","4","","12","23","","","-0.03","2","63","","30.30","30.27","46.60","20","133","13","9","","","","","","","","","","","","","","","","","","","","","","","","","","","","","","","","","","","","","","","","","","","","","","","","","","","","","","","","","","","","","","","","","","","","","","","","","","","","","","","","","","","","","","","","","","","SYN004BUFR","","","","","","","","","",""
"01007099999","2021-10-08T08:00:00","78.9166666","11.9333333","7.7","NY ALESUND, SV","FM-12","4","","11","22","","","-0.03","2","63","","30.31","30.28","","19","138","11","7","","","","","","","","","","","","","","","","","","","","","","","","","","","","","","","","","","","","","","","","","","","","","","","","","","","","","","","","","","","","","","","","","","","","","","","","","","","","","","","","","","","","","","","","","","","SYN004BUFR","","","","","","","","","",""
"01007099999","2021-10-08T10:00:00","78.9166666","11.9333333","7.7","NY ALESUND, SV","FM-12","4","","11","23","","","-0.04","2","60","","30.33","30.30","","20","126","14","11","","","","","","","","","","","","","","","","","","","","","","","","","","","","","","","","","","","","","","","","","","","","","","","","","","","","","","","","","","","","","","","","","","","","","","","","","","","","","","","","","","","","","","","","","","","SYN004BUFR","","","","","","","","","",""
"01007099999","2021-10-08T11:00:00","78.9166666","11.9333333","7.7","NY ALESUND, SV","FM-12","4","","12","23","","","-0.03","2","64","","30.34","30.31","","20","143","11","7","","","","","","","","","","","","","","","","","","","","","","","","","","","","","","","","","","","","","","","","","","","","","","","","","","","","","","","","","","","","","","","","","","","","","","","","","","","","","","","","","","","","","","","","","","","SYN004BUFR","","","","","","","","","",""
"01007099999","2021-10-08T14:00:00","78.9166666","11.9333333","7.7","NY ALESUND, SV","FM-12","4","","11","23","","","-0.02","2","60","","30.36","30.33","","20","137","","2","","","","","","","","","","","","","","","","","","","","","","","","","","","","","","","","","","","","","","","","","","","","","","","","","","","","","","","","","","","","","","","","","","","","","","","","","","","","","","","","","","","","","","","","","","","SYN004BUFR","","","","","","","","","",""
"01007099999","2021-10-08T20:00:00","78.9166666","11.9333333","7.7","NY ALESUND, SV","FM-12","4","","10","22","","","+0.01","7","60","","30.36","30.33","","19","141","","4","","","","","","","","","","","","","","","","","","","","","","","","","","","","","","","","","","","","","","","","","","","","","","","","","","","","","","","","","","","","","","","","","","","","","","","","","","","","","","","","","","","","","","","","","","","SYN004BUFR","","","","","","","","","",""
"01007099999","2021-10-08T22:00:00","78.9166666","11.9333333","7.7","NY ALESUND, SV","FM-12","4","","9","21","","","0.00","4","59","","30.36","30.33","","18","155","","2","","","","","","","","","","","","","","","","","","","","","","","","","","","","","","","","","","","","","","","","","","","","","","","","","","","","","","","","","","","","","","","","","","","","","","","","","","","","","","","","","","","","","","","","","","","SYN004BUFR","","","","","","","","","",""
"01007099999","2021-10-09T00:00:00","78.9166666","11.9333333","7.7","NY ALESUND, SV","FM-12","4","","11","22","","","+0.01","7","63","","30.35","30.32","","19","118","","6","","","","","","","","","","","","","","","","","","","","","","","","","","","","","","","","","","","","","","","","","","","","","","","","","","","","","","","","","","","","","","","","","","","","","","","","","","","","","","","","","","","","","","","","","","","SYN004BUFR","","","","","","","","","",""
"01007099999","2021-10-09T01:00:00","78.9166666","11.9333333","7.7","NY ALESUND, SV","FM-12","4","","11","21","","","+0.01","7","65","","30.34","30.31","","18","146","","7","","","","","","","","","","","","","","","","","","","","","","","","","","","","","","","","","","","","","","","","","","","","","","","","","","","","","","","","","","","","","","","","","","","","","","","","","","","","","","","","","","","","","","","","","","","SYN004BUFR","","","","","","","","","",""
"01007099999","2021-10-09T03:00:00","78.9166666","11.9333333","7.7","NY ALESUND, SV","FM-12","4","","11","21","","","+0.02","7","66","","30.33","30.30","","18","220","","2","","","","","","","","","","","","","","","","","","","","","","","","","","","","","","","","","","","","","","","","","","","","","","","","","","","","","","","","","","","","","","","","","","","","","","","","","","","","","","","","","","","","","","","","","","","SYN004BUFR","","","","","","","","","",""
"01007099999","2021-10-09T09:00:00","78.9166666","11.9333333","7.7","NY ALESUND, SV","FM-12","4","","11","20","","","+0.02","7","69","","30.28","30.25","","18","132","","7","","","","","","","","","","","","","","","","","","","","","","","","","","","","","","","","","","","","","","","","","","","","","","","","","","","","","","","","","","","","","","","","","","","","","","","","","","","","","","","","","","","","","","","","","","","SYN004BUFR","","","","","","","","","",""
"01007099999","2021-10-09T10:00:00","78.9166666","11.9333333","7.7","NY ALESUND, SV","FM-12","4","","11","20","","","+0.01","7","66","","30.28","30.25","","18","141","11","6","","","","","","","","","","","","","","","","","","","","","","","","","","","","","","","","","","","","","","","","","","","","","","","","","","","","","","","","","","","","","","","","","","","","","","","","","","","","","","","","","","","","","","","","","","","SYN004BUFR","","","","","","","","","",""
"01007099999","2021-10-09T11:00:00","78.9166666","11.9333333","7.7","NY ALESUND, SV","FM-12","4","","10","21","","","+0.01","7","64","","30.27","30.24","","18","159","","3","","","","","","","","","","","","","","","","","","","","","","","","","","","","","","","","","","","","","","","","","","","","","","","","","","","","","","","","","","","","","","","","","","","","","","","","","","","","","","","","","","","","","","","","","","","SYN004BUFR","","","","","","","","","",""
"01007099999","2021-10-09T14:00:00","78.9166666","11.9333333","7.7","NY ALESUND, SV","FM-12","4","","12","20","","","+0.04","7","71","","30.24","30.21","","18","154","","3","","","","","","","","","","","","","","","","","","","","","","","","","","","","","","","","","","","","","","","","","","","","","","","","","","","","","","","","","","","","","","","","","","","","","","","","","","","","","","","","","","","","","","","","","","","SYN004BUFR","","","","","","","","","",""
"01007099999","2021-10-09T16:00:00","78.9166666","11.9333333","7.7","NY ALESUND, SV","FM-12","4","","13","21","","","+0.05","7","69","","30.20","30.17","","19","175","","2","","","","","","","","","","","","","","","","","","","","","","","","","","","","","","","","","","","","","","","","","","","","","","","","","","","","","","","","","","","","","","","","","","","","","","","","","","","","","","","","","","","","","","","","","","","SYN004BUFR","","","","","","","","","",""
"01007099999","2021-10-09T17:00:00","78.9166666","11.9333333","7.7","NY ALESUND, SV","FM-12","4","","12","20","","","+0.05","7","72","","30.19","30.16","","18","140","","8","","","","","","","","","","","","","","","","","","","","","","","","","","","","","","","","","","","","","","","","","","","","","","","","","","","","","","","","","","","","","","","","","","","","","","","","","","","","","","","","","","","","","","","","","","","SYN004BUFR","","","","","","","","","",""
"01007099999","2021-10-09T18:00:00","78.9166666","11.9333333","7.7","NY ALESUND, SV","FM-12","4","","12","20","","","+0.05","7","69","","30.17","30.14","","18","160","","4","","","","","","","","","","","","","","","","","","","","","","","","","","","","","","","","","","","","","","","","","","","","","","","","","","","","","","","","","","","","","","","","","","","","","","","","","","","","","","","","","","","","","","","","","","","SYN004BUFR","","","","","","","","","",""
"01007099999","2021-10-09T19:00:00","78.9166666","11.9333333","7.7","NY ALESUND, SV","FM-12","4","","12","22","","","+0.05","7","65","","30.15","30.12","46.60","19","276","","2","","","","","","","","","","","","","","","","","","","","","","","","","","","","","","","","","","","","","","","","","","","","","","","","","","","","","","","","","","","","","","","","","","","","","","","","","","","","","","","","","","","","","","","","","","","SYN004BUFR","","","","","","","","","",""
"01007099999","2021-10-09T21:00:00","78.9166666","11.9333333","7.7","NY ALESUND, SV","FM-12","4","","11","21","","","+0.05","7","66","","30.12","30.09","","18","180","","2","","","","","","","","","","","","","","","","","","","","","","","","","","","","","","","","","","","","","","","","","","","","","","","","","","","","","","","","","","","","","","","","","","","","","","","","","","","","","","","","","","","","","","","","","","","SYN004BUFR","","","","","","","","","",""
"01007099999","2021-10-09T23:00:00","78.9166666","11.9333333","7.7","NY ALESUND, SV","FM-12","4","","11","20","","","+0.04","7","68","","30.09","30.06","","18","252","","4","","","","","","","","","","","","","","","","","","","","","","","","","","","","","","","","","","","","","","","","","","","","","","","","","","","","","","","","","","","","","","","","","","","","","","","","","","","","","","","","","","","","","","","","","","","SYN004BUFR","","","","","","","","","",""
"01007099999","2021-10-10T00:00:00","78.9166666","11.9333333","7.7","NY ALESUND, SV","FM-12","4","","12","19","","","+0.04","7","72","","30.08","30.05","","17","217","","2","","","","","","","","","","","","","","","","","","","","","","","","","","","","","","","","","","","","","","","","","","","","","","","","","","","","","","","","","","","","","","","","","","","","","","","","","","","","","","","","","","","","","","","","","","","SYN004BUFR","","","","","","","","","",""
"01007099999","2021-10-10T01:00:00","78.9166666","11.9333333","7.7","NY ALESUND, SV","FM-12","4","","11","19","","","+0.05","7","69","","30.06","30.03","","17","249","","3","","","","","","","","","","","","","","","","","","","","","","","","","","","","","","","","","","","","","","","","","","","","","","","","","","","","","","","","","","","","","","","","","","","","","","","","","","","","","","","","","","","","","","","","","","","SYN004BUFR","","","","","","","","","",""
"01007099999","2021-10-10T03:00:00","78.9166666","11.9333333","7.7","NY ALESUND, SV","FM-12","4","","13","20","","","+0.04","7","71","","30.04","30.01","","18","146","","4","","","","","","","","","","","","","","","","","","","","","","","","","","","","","","","","","","","","","","","","","","","","","","","","","","","","","","","","","","","","","","","","","","","","","","","","","","","","","","","","","","","","","","","","","","","SYN004BUFR","","","","","","","","","",""
"01007099999","2021-10-10T04:00:00","78.9166666","11.9333333","7.7","NY ALESUND, SV","FM-12","4","","11","20","","","+0.04","7","67","","30.02","29.99","","18","245","","2","","","","","","","","","","","","","","","","","","","","","","","","","","","","","","","","","","","","","","","","","","","","","","","","","","","","","","","","","","","","","","","","","","","","","","","","","","","","","","","","","","","","","","","","","","","SYN004BUFR","","","","","","","","","",""
"01007099999","2021-10-10T06:00:00","78.9166666","11.9333333","7.7","NY ALESUND, SV","FM-12","4","","12","21","","","+0.04","7","69","","29.99","29.96","","19","198","","3","","","","","","","","","","","","","","","","","","","","","","","","","","","","","","","","","","","","","","","","","","","","","","","","","","","","","","","","","","","","","","","","","","","","","","","","","","","","","","","","","","","","","","","","","","","SYN004BUFR","","","","","","","","","",""
"01007099999","2021-10-10T10:00:00","78.9166666","11.9333333","7.7","NY ALESUND, SV","FM-12","4","","12","20","","","+0.01","7","71","","29.98","29.95","","18","207","","2","","","","","","","","","","","","","","","","","","","","","","","","","","","","","","","","","","","","","","","","","","","","","","","","","","","","","","","","","","","","","","","","","","","","","","","","","","","","","","","","","","","","","","","","","","","SYN004BUFR","","","","","","","","","",""
"01007099999","2021-10-10T11:00:00","78.9166666","11.9333333","7.7","NY ALESUND, SV","FM-12","4","","12","21","","","+0.00","7","68","","29.97","29.94","","19","199","","3","","","","","","","","","","","","","","","","","","","","","","","","","","","","","","","","","","","","","","","","","","","","","","","","","","","","","","","","","","","","","","","","","","","","","","","","","","","","","","","","","","","","","","","","","","","SYN004BUFR","","","","","","","","","",""
"01007099999","2021-10-10T12:00:00","78.9166666","11.9333333","7.7","NY ALESUND, SV","FM-12","4","","12","22","","","+0.01","8","65","","29.97","29.94","","19","150","","3","","","","","","","","","","","","","","","","","","","","","","","","","","","","","","","","","","","","","","","","","","","","","","","","","","","","","","","","","","","","","","","","","","","","","","","","","","","","","","","","","","","","","","","","","","","SYN004BUFR","","","","","","","","","",""
"01007099999","2021-10-10T13:00:00","78.9166666","11.9333333","7.7","NY ALESUND, SV","FM-12","4","","13","22","","","+0.01","7","69","82","29.96","29.93","46.60","19","246","","4","","","","","","","","","","","","","","","","","","","","","","","","","","","","","","","","","","","","","","","","","","","","","","","","","","","","","","","","","","","","","","","","","","","","","","","","","","","","","","","","","","","","","","","","","","","SYN004BUFR","","","","","","","","","",""
"01007099999","2021-10-10T19:00:00","78.9166666","11.9333333","7.7","NY ALESUND, SV","FM-12","4","","13","21","","","+0.02","7","70","82","29.91","29.88","46.60","19","235","13","4","","","","","","","","","","","","","","","","","","","","","","","","","","","","","","","","","","","","","","","","","","","","","","","","","","","","","","","","","","","","","","","","","","","","","","","","","","","","","","","","","","","","","","","","","","","SYN004BUFR","","","","","","","","","",""
"01007099999","2021-10-10T20:00:00","78.9166666","11.9333333","7.7","NY ALESUND, SV","FM-12","4","","13","22","","","+0.02","7","68","","29.91","29.88","","19","247","","5","","","","","","","","","","","","","","","","","","","","","","","","","","","","","","","","","","","","","","","","","","","","","","","","","","","","","","","","","","","","","","","","","","","","","","","","","","","","","","","","","","","","","","","","","","","SYN004BUFR","","","","","","","","","",""
"01007099999","2021-10-10T23:00:00","78.9166666","11.9333333","7.7","NY ALESUND, SV","FM-12","4","","14","22","","","+0.01","7","73","","29.90","29.87","","20","148","","7","","","","","","","","","","","","","","","","","","","","","","","","","","","","","","","","","","","","","","","","","","","","","","","","","","","","","","","","","","","","","","","","","","","","","","","","","","","","","","","","","","","","","","","","","","","SYN004BUFR","","","","","","","","","",""
"01007099999","2021-10-11T00:00:00","78.9166666","11.9333333","7.7","NY ALESUND, SV","FM-12","4","","14","23","","","+0.01","7","69","","29.89","29.86","","20","117","","4","","","","","","","","","","","","","","","","","","","","","","","","","","","","","","","","","","","","","","","","","","","","","","","","","","","","","","","","","","","","","","","","","","","","","","","","","","","","","","","","","","","","","","","","","","","SYN004BUFR","","","","","","","","","",""
"01007099999","2021-10-11T02:00:00","78.9166666","11.9333333","7.7","NY ALESUND, SV","FM-12","4","","14","23","","","+0.01","7","68","","29.88","29.85","","20","141","","6","","","","","","","","","","","","","","","","","","","","","","","","","","","","","","","","","","","","","","","","","","","","","","","","","","","","","","","","","","","","","","","","","","","","","","","","","","","","","","","","","","","","","","","","","","","SYN004BUFR","","","","","","","","","",""
"01007099999","2021-10-11T03:00:00","78.9166666","11.9333333","7.7","NY ALESUND, SV","FM-12","4","","15","23","","","+0.01","7","72","","29.88","29.85","","21","142","11","6","","","","","","","","","","","","","","","","","","","","","","","","","","","","","","","","","","","","","","","","","","","","","","","","","","","","","","","","","","","","","","","","","","","","","","","","","","","","","","","","","","","","","","","","","","","SYN004BUFR","","","","","","","","","",""
"01007099999","2021-10-11T08:00:00","78.9166666","11.9333333","7.7","NY ALESUND, SV","FM-12","4","","17","24","","","+0.00","5","77","","29.87","29.84","","22","162","","8","","","","","","","","","","","","","","","","","","","","","","","","","","","","","","","","","","","","","","","","","","","","","","","","","","","","","","","","","","","","","","","","","","","","","","","","","","","","","","","","","","","","","","","","","","","SYN004BUFR","","","","","","","","","",""
"01007099999","2021-10-11T14:00:00","78.9166666","11.9333333","7.7","NY ALESUND, SV","FM-12","4","","20","26","","","0.00","4","81","","29.88","29.85","","24","253","","3","","","","","","","","","","","","","","","","","","","","","","","","","","","","","","","","","","","","","","","","","","","","","","","","","","","","","","","","","","","","","","","","","","","","","","","","","","","","","","","","","","","","","","","","","","","SYN004BUFR","","","","","","","","","",""
"01007099999","2021-10-11T15:00:00","78.9166666","11.9333333","7.7","NY ALESUND, SV","FM-12","4","","21","27","","","+0.01","8","78","","29.87","29.84","","25","258","","3","","","","","","","","","","","","","","","","","","","","","","","","","","","","","","","","","","","","","","","","","","","","","","","","","","","","","","","","","","","","","","","","","","","","","","","","","","","","","","","","","","","","","","","","","","","SYN004BUFR","","","","","","","","","",""
"01007099999","2021-10-11T18:00:00","78.9166666","11.9333333","7.7","NY ALESUND, SV","FM-12","4","","22","27","","","-0.00","2","84","","29.87","29.84","","25","257","","6","","","","","","","","","","","","","","","","","","","","","","","","","","","","","","","","","","","","","","","","","","","","","","","","","","","","","","","","","","","","","","","","","","","","","","","","","","","","","","","","","","","","","","","","","","","SYN004BUFR","","","","","","","","","",""
"01007099999","2021-10-12T01:00:00","78.9166666","11.9333333","7.7","NY ALESUND, SV","FM-12","4","","23","29","","","+0.01","7","78","","29.86","29.83","","27","248","","3","","","","","","","","","","","","","","","","","","","","","","","","","","","","","","","","","","","","","","","","","","","","","","","","","","","","","","","","","","","","","","","","","","","","","","","","","","","","","","","","","","","","","","","","","","","SYN004BUFR","","","","","","","","","",""
"01007099999","2021-10-12T04:00:00","78.9166666","11.9333333","7.7","NY ALESUND, SV","FM-12","4","","24","28","","","+0.01","7","83","","29.85","29.82","","27","242","","2","","","","","","","","","","","","","","","","","","","","","","","","","","","","","","","","","","","","","","","","","","","","","","","","","","","","","","","","","","","","","","","","","","","","","","","","","","","","","","","","","","","","","","","","","","","SYN004BUFR","","","","","","","","","",""
"01007099999","2021-10-12T06:00:00","78.9166666","11.9333333","7.7","NY ALESUND, SV","FM-12","4","","21","31","","","","","66","","29.85","29.82","","28","111","24","19","","","","","","","","","","","","","","","","","","","","","","","","","","","","","","","","","","","","","","","","","","","","","","","","","","","","","","","","","","","","","","","","","","","","","","","","","","","","","","","","","","","","","","","","","","","SYN004BUFR","","","","","","","","","",""
"01007099999","2021-10-12T07:00:00","78.9166666","11.9333333","7.7","NY ALESUND, SV","FM-12","4","","20","30","","","-0.00","2","66","BKN:07 20","29.85","29.82","46.60","27","088","21","14","","","","","","","","","","","","","","","","","","","","","","","","","","","","","","","","","","","","","","","","","","","","","","","","","","","","","","","","","","","","","","","","","","","","","","","","","","","","","","","","","","","","","","","","","","","SYN004BUFR","","","","","","","","","",""
"01007099999","2021-10-12T09:00:00","78.9166666","11.9333333","7.7","NY ALESUND, SV","FM-12","4","","20","29","","","+0.01","7","71","","29.85","29.82","","26","138","16","5","","","","","","","","","","","","","","","","","","","","","","","","","","","","","","","","","","","","","","","","","","","","","","","","","","","","","","","","","","","","","","","","","","","","","","","","","","","","","","","","","","","","","","","","","","","SYN004BUFR","","","","","","","","","",""
"01007099999","2021-10-12T10:00:00","78.9166666","11.9333333","7.7","NY ALESUND, SV","FM-12","4","","19","29","","","+0.01","7","67","","29.84","29.81","","26","161","","4","","","","","","","","","","","","","","","","","","","","","","","","","","","","","","","","","","","","","","","","","","","","","","","","","","","","","","","","","","","","","","","","","","","","","","","","","","","","","","","","","","","","","","","","","","","SYN004BUFR","","","","","","","","","",""
"01007099999","2021-10-12T11:00:00","78.9166666","11.9333333","7.7","NY ALESUND, SV","FM-12","4","","20","29","","","+0.01","7","71","","29.84","29.81","","26","266","","4","","","","","","","","","","","","","","","","","","","","","","","","","","","","","","","","","","","","","","","","","","","","","","","","","","","","","","","","","","","","","","","","","","","","","","","","","","","","","","","","","","","","","","","","","","","SYN004BUFR","","","","","","","","","",""
"01007099999","2021-10-12T12:00:00","78.9166666","11.9333333","7.7","NY ALESUND, SV","FM-12","4","","20","30","","","+0.01","7","67","","29.84","29.81","","27","086","11","9","","","","","","","","","","","","","","","","","","","","","","","","","","","","","","","","","","","","","","","","","","","","","","","","","","","","","","","","","","","","","","","","","","","","","","","","","","","","","","","","","","","","","","","","","","","SYN004BUFR","","","","","","","","","",""
"01007099999","2021-10-12T13:00:00","78.9166666","11.9333333","7.7","NY ALESUND, SV","FM-12","4","","21","31","","","+0.01","7","66","SCT:04 33","29.83","29.80","34.18","28","082","14","11","","","","","","","","","","","","","","","","","","","","","","","","","","","","","","","","","","","","","","","","","","","","","","","","","","","","","","","","","","","","","","","","","","","","","","","","","","","","","","","","","","","","","","","","","","","SYN004BUFR","","","","","","","","","",""
"01007099999","2021-10-12T14:00:00","78.9166666","11.9333333","7.7","NY ALESUND, SV","FM-12","4","","20","31","","","+0.02","7","65","","29.82","29.79","","27","096","13","9","","","","","","","","","","","","","","","","","","","","","","","","","","","","","","","","","","","","","","","","","","","","","","","","","","","","","","","","","","","","","","","","","","","","","","","","","","","","","","","","","","","","","","","","","","","SYN004BUFR","","","","","","","","","",""
"01007099999","2021-10-12T15:00:00","78.9166666","11.9333333","7.7","NY ALESUND, SV","FM-12","4","","19","30","","","+0.02","7","64","","29.82","29.79","","26","093","13","10","","","","","","","","","","","","","","","","","","","","","","","","","","","","","","","","","","","","","","","","","","","","","","","","","","","","","","","","","","","","","","","","","","","","","","","","","","","","","","","","","","","","","","","","","","","SYN004BUFR","","","","","","","","","",""
"01007099999","2021-10-12T16:00:00","78.9166666","11.9333333","7.7","NY ALESUND, SV","FM-12","4","","18","27","","","+0.02","7","68","","29.81","29.78","","24","154","11","6","","","","","","","","","","","","","","","","","","","","","","","","","","","","","","","","","","","","","","","","","","","","","","","","","","","","","","","","","","","","","","","","","","","","","","","","","","","","","","","","","","","","","","","","","","","SYN004BUFR","","","","","","","","","",""
"01007099999","2021-10-12T17:00:00","78.9166666","11.9333333","7.7","NY ALESUND, SV","FM-12","4","","18","28","","","+0.01","7","64","","29.80","29.78","","25","145","","5","","","","","","","","","","","","","","","","","","","","","","","","","","","","","","","","","","","","","","","","","","","","","","","","","","","","","","","","","","","","","","","","","","","","","","","","","","","","","","","","","","","","","","","","","","","SYN004BUFR","","","","","","","","","",""
"01007099999","2021-10-12T18:00:00","78.9166666","11.9333333","7.7","NY ALESUND, SV","FM-12","4","","18","28","","","+0.02","7","66","","29.80","29.77","","25","166","","5","","","","","","","","","","","","","","","","","","","","","","","","","","","","","","","","","","","","","","","","","","","","","","","","","","","","","","","","","","","","","","","","","","","","","","","","","","","","","","","","","","","","","","","","","","","SYN004BUFR","","","","","","","","","",""
"01007099999","2021-10-12T19:00:00","78.9166666","11.9333333","7.7","NY ALESUND, SV","FM-12","4","","18","27","","","+0.01","7","67","FEW:02 49","29.80","29.77","15.53","24","258","13","3","","","","","","","","","","","","","","","","","","","","","","","","","","","","","","","","","","","","","","","","","","","","","","","","","","","","","","","","","","","","","","","","","","","","","","","","","","","","","","","","","","","","","","","","","","","SYN004BUFR","","","","","","","","","",""
"01007099999","2021-10-12T23:00:00","78.9166666","11.9333333","7.7","NY ALESUND, SV","FM-12","4","","24","27","0.02","","+0.01","7","90","","29.80","29.77","","26","231","","3","","","","","","","","","","","","","","","","","","","","","","","","","","","","","","","","","","","","","","","","","","","","","","","","","","","","","","","","","","","","","","","","","","","","","","","","","","","","","","","","","","","","","","","","","","","SYN004BUFR","","","","","","","","","",""
"01007099999","2021-10-13T00:00:00","78.9166666","11.9333333","7.7","NY ALESUND, SV","FM-12","4","","24","27","0.01","","+0.01","7","90","","29.79","29.76","","26","252","","2","","","","","","","","","","","","","","","","","","","","","","","","","","","","","","","","","","","","","","","","","","","","","","","","","","","","","","","","","","","","","","","","","","","","","","","","","","","","","","","","","","","","","","","","","","","SYN004BUFR","","","","","","","","","",""
"01007099999","2021-10-13T01:00:00","78.9166666","11.9333333","7.7","NY ALESUND, SV","FM-12","4","","24","27","0.00","","+0.02","7","90","","29.79","29.76","","26","167","","2","","","","","","","","","","","","","","","","","","","","","","","","","","","","","","","","","","","","","","","","","","","","","","","","","","","","","","","","","","","","","","","","","","","","","","","","","","","","","","","","","","","","","","","","","","","SYN004BUFR","","","","","","","","","",""
"01007099999","2021-10-13T02:00:00","78.9166666","11.9333333","7.7","NY ALESUND, SV","FM-12","4","","24","26","0.01","","+0.01","7","92","","29.78","29.75","","25","253","","3","","","","","","","","","","","","","","","","","","","","","","","","","","","","","","","","","","","","","","","","","","","","","","","","","","","","","","","","","","","","","","","","","","","","","","","","","","","","","","","","","","","","","","","","","","","SYN004BUFR","","","","","","","","","",""
"01007099999","2021-10-13T03:00:00","78.9166666","11.9333333","7.7","NY ALESUND, SV","FM-12","4","","25","27","0.01","","+0.01","7","91","","29.78","29.75","","26","237","","1","","","","","","","","","","","","","","","","","","","","","","","","","","","","","","","","","","","","","","","","","","","","","","","","","","","","","","","","","","","","","","","","","","","","","","","","","","","","","","","","","","","","","","","","","","","SYN004BUFR","","","","","","","","","",""
"01007099999","2021-10-13T04:00:00","78.9166666","11.9333333","7.7","NY ALESUND, SV","FM-12","4","","24","27","0.00","","+0.01","7","90","","29.78","29.75","","26","247","","4","","","","","","","","","","","","","","","","","","","","","","","","","","","","","","","","","","","","","","","","","","","","","","","","","","","","","","","","","","","","","","","","","","","","","","","","","","","","","","","","","","","","","","","","","","","SYN004BUFR","","","","","","","","","",""
"01007099999","2021-10-13T06:00:00","78.9166666","11.9333333","7.7","NY ALESUND, SV","FM-12","4","","25","27","0.02","","-0.00","2","93","","29.78","29.75","","26","245","","1","","","","","","","","","","","","","","","","","","","","","","","","","","","","","","","","","","","","","","","","","","","","","","","","","","","","","","","","","","","","","","","","","","","","","","","","","","","","","","","","","","","","","","","","","","","SYN004BUFR","","","","","","","","","",""
"01007099999","2021-10-13T07:00:00","78.9166666","11.9333333","7.7","NY ALESUND, SV","FM-12","4","","25","27","0.00","","-0.01","2","91","OVC:08 20","29.79","29.76","12.43","26","292","","1","","","","","","","","","","","","","","","","","","","","","","","","","","","","","","","","","","","","","","","","","","","","","","","","","","","","","","","","","","","","","","","","","","","","","","","","","","","","","","","","","","","","","","","","","","","SYN004BUFR","","","","","","","","","",""
"01007099999","2021-10-13T08:00:00","78.9166666","11.9333333","7.7","NY ALESUND, SV","FM-12","4","","26","27","","","-0.01","2","92","","29.79","29.76","","27","192","","1","","","","","","","","","","","","","","","","","","","","","","","","","","","","","","","","","","","","","","","","","","","","","","","","","","","","","","","","","","","","","","","","","","","","","","","","","","","","","","","","","","","","","","","","","","","SYN004BUFR","","","","","","","","","",""
"01007099999","2021-10-13T10:00:00","78.9166666","11.9333333","7.7","NY ALESUND, SV","FM-12","4","","24","33","","","-0.02","3","70","","29.81","29.78","","30","129","20","15","","","","","","","","","","","","","","","","","","","","","","","","","","","","","","","","","","","","","","","","","","","","","","","","","","","","","","","","","","","","","","","","","","","","","","","","","","","","","","","","","","","","","","","","","","","SYN004BUFR","","","","","","","","","",""
"01007099999","2021-10-13T11:00:00","78.9166666","11.9333333","7.7","NY ALESUND, SV","FM-12","4","","24","33","","","-0.02","2","68","","29.81","29.78","","30","138","21","13","","","","","","","","","","","","","","","","","","","","","","","","","","","","","","","","","","","","","","","","","","","","","","","","","","","","","","","","","","","","","","","","","","","","","","","","","","","","","","","","","","","","","","","","","","","SYN004BUFR","","","","","","","","","",""
"01007099999","2021-10-13T15:00:00","78.9166666","11.9333333","7.7","NY ALESUND, SV","FM-12","4","","24","31","","","-0.01","2","74","","29.82","29.79","","29","121","23","17","","","","","","","","","","","","","","","","","","","","","","","","","","","","","","","","","","","","","","","","","","","","","","","","","","","","","","","","","","","","","","","","","","","","","","","","","","","","","","","","","","","","","","","","","","","SYN004BUFR","","","","","","","","","",""
"01007099999","2021-10-13T16:00:00","78.9166666","11.9333333","7.7","NY ALESUND, SV","FM-12","4","","24","31","","","-0.01","2","76","","29.82","29.79","","29","145","19","6","","","","","","","","","","","","","","","","","","","","","","","","","","","","","","","","","","","","","","","","","","","","","","","","","","","","","","","","","","","","","","","","","","","","","","","","","","","","","","","","","","","","","","","","","","","SYN004BUFR","","","","","","","","","",""
"01007099999","2021-10-13T20:00:00","78.9166666","11.9333333","7.7","NY ALESUND, SV","FM-12","4","","22","29","","","+0.01","8","76","","29.80","29.78","","27","143","16","5","","","","","","","","","","","","","","","","","","","","","","","","","","","","","","","","","","","","","","","","","","","","","","","","","","","","","","","","","","","","","","","","","","","","","","","","","","","","","","","","","","","","","","","","","","","SYN004BUFR","","","","","","","","","",""
"01007099999","2021-10-13T22:00:00","78.9166666","11.9333333","7.7","NY ALESUND, SV","FM-12","4","","20","28","","","+0.03","7","71","","29.79","29.76","","25","141","","6","","","","","","","","","","","","","","","","","","","","","","","","","","","","","","","","","","","","","","","","","","","","","","","","","","","","","","","","","","","","","","","","","","","","","","","","","","","","","","","","","","","","","","","","","","","SYN004BUFR","","","","","","","","","",""
"01007099999","2021-10-13T23:00:00","78.9166666","11.9333333","7.7","NY ALESUND, SV","FM-12","4","","22","29","","","+0.03","7","73","","29.78","29.75","","27","123","14","8","","","","","","","","","","","","","","","","","","","","","","","","","","","","","","","","","","","","","","","","","","","","","","","","","","","","","","","","","","","","","","","","","","","","","","","","","","","","","","","","","","","","","","","","","","","SYN004BUFR","","","","","","","","","",""
"01007099999","2021-10-14T00:00:00","78.9166666","11.9333333","7.7","NY ALESUND, SV","FM-12","4","","22","30","","","+0.02","7","73","","29.77","29.74","","27","103","16","13","","","","","","","","","","","","","","","","","","","","","","","","","","","","","","","","","","","","","","","","","","","","","","","","","","","","","","","","","","","","","","","","","","","","","","","","","","","","","","","","","","","","","","","","","","","SYN004BUFR","","","","","","","","","",""
"01007099999","2021-10-14T01:00:00","78.9166666","11.9333333","7.7","NY ALESUND, SV","FM-12","4","","21","29","","","+0.03","7","72","","29.76","29.73","","26","151","14","7","","","","","","","","","","","","","","","","","","","","","","","","","","","","","","","","","","","","","","","","","","","","","","","","","","","","","","","","","","","","","","","","","","","","","","","","","","","","","","","","","","","","","","","","","","","SYN004BUFR","","","","","","","","","",""
"01007099999","2021-10-14T03:00:00","78.9166666","11.9333333","7.7","NY ALESUND, SV","FM-12","4","","20","27","","","+0.04","7","74","","29.73","29.70","","25","142","13","11","","","","","","","","","","","","","","","","","","","","","","","","","","","","","","","","","","","","","","","","","","","","","","","","","","","","","","","","","","","","","","","","","","","","","","","","","","","","","","","","","","","","","","","","","","","SYN004BUFR","","","","","","","","","",""
"01007099999","2021-10-14T04:00:00","78.9166666","11.9333333","7.7","NY ALESUND, SV","FM-12","4","","20","27","","","+0.04","7","74","","29.72","29.69","","25","137","13","11","","","","","","","","","","","","","","","","","","","","","","","","","","","","","","","","","","","","","","","","","","","","","","","","","","","","","","","","","","","","","","","","","","","","","","","","","","","","","","","","","","","","","","","","","","","SYN004BUFR","","","","","","","","","",""
"01007099999","2021-10-14T05:00:00","78.9166666","11.9333333","7.7","NY ALESUND, SV","FM-12","4","","19","27","","","+0.04","7","71","","29.71","29.68","","24","151","13","4","","","","","","","","","","","","","","","","","","","","","","","","","","","","","","","","","","","","","","","","","","","","","","","","","","","","","","","","","","","","","","","","","","","","","","","","","","","","","","","","","","","","","","","","","","","SYN004BUFR","","","","","","","","","",""
"01007099999","2021-10-14T06:00:00","78.9166666","11.9333333","7.7","NY ALESUND, SV","FM-12","4","","19","27","","","+0.03","7","72","","29.70","29.67","","24","146","12","9","","","","","","","","","","","","","","","","","","","","","","","","","","","","","","","","","","","","","","","","","","","","","","","","","","","","","","","","","","","","","","","","","","","","","","","","","","","","","","","","","","","","","","","","","","","SYN004BUFR","","","","","","","","","",""
"01007099999","2021-10-14T12:00:00","78.9166666","11.9333333","7.7","NY ALESUND, SV","FM-12","4","","14","26","","","+0.01","7","60","","29.66","29.63","","22","133","","6","","","","","","","","","","","","","","","","","","","","","","","","","","","","","","","","","","","","","","","","","","","","","","","","","","","","","","","","","","","","","","","","","","","","","","","","","","","","","","","","","","","","","","","","","","","SYN004BUFR","","","","","","","","","",""
"01007099999","2021-10-14T13:00:00","78.9166666","11.9333333","7.7","NY ALESUND, SV","FM-12","4","","14","26","","","+0.02","7","61","BKN:07 82","29.65","29.62","46.60","22","146","11","6","","","","","","","","","","","","","","","","","","","","","","","","","","","","","","","","","","","","","","","","","","","","","","","","","","","","","","","","","","","","","","","","","","","","","","","","","","","","","","","","","","","","","","","","","","","SYN004BUFR","","","","","","","","","",""
"01007099999","2021-10-14T14:00:00","78.9166666","11.9333333","7.7","NY ALESUND, SV","FM-12","4","","15","26","","","+0.02","7","62","","29.64","29.61","","23","128","","8","","","","","","","","","","","","","","","","","","","","","","","","","","","","","","","","","","","","","","","","","","","","","","","","","","","","","","","","","","","","","","","","","","","","","","","","","","","","","","","","","","","","","","","","","","","SYN004BUFR","","","","","","","","","",""
"01007099999","2021-10-14T15:00:00","78.9166666","11.9333333","7.7","NY ALESUND, SV","FM-12","4","","15","25","","","+0.02","7","66","","29.64","29.61","","22","126","15","11","","","","","","","","","","","","","","","","","","","","","","","","","","","","","","","","","","","","","","","","","","","","","","","","","","","","","","","","","","","","","","","","","","","","","","","","","","","","","","","","","","","","","","","","","","","SYN004BUFR","","","","","","","","","",""
"01007099999","2021-10-14T16:00:00","78.9166666","11.9333333","7.7","NY ALESUND, SV","FM-12","4","","15","25","","","+0.01","7","66","","29.63","29.60","","22","137","15","11","","","","","","","","","","","","","","","","","","","","","","","","","","","","","","","","","","","","","","","","","","","","","","","","","","","","","","","","","","","","","","","","","","","","","","","","","","","","","","","","","","","","","","","","","","","SYN004BUFR","","","","","","","","","",""
"01007099999","2021-10-14T20:00:00","78.9166666","11.9333333","7.7","NY ALESUND, SV","FM-12","4","","17","27","","","","","65","","29.63","29.60","","24","144","22","15","","","","","","","","","","","","","","","","","","","","","","","","","","","","","","","","","","","","","","","","","","","","","","","","","","","","","","","","","","","","","","","","","","","","","","","","","","","","","","","","","","","","","","","","","","","SYN004BUFR","","","","","","","","","",""
"01007099999","2021-10-14T21:00:00","78.9166666","11.9333333","7.7","NY ALESUND, SV","FM-12","4","","16","25","","","+0.01","7","67","","29.62","29.59","","22","152","17","9","","","","","","","","","","","","","","","","","","","","","","","","","","","","","","","","","","","","","","","","","","","","","","","","","","","","","","","","","","","","","","","","","","","","","","","","","","","","","","","","","","","","","","","","","","","SYN004BUFR","","","","","","","","","",""
"01007099999","2021-10-14T22:00:00","78.9166666","11.9333333","7.7","NY ALESUND, SV","FM-12","4","","14","24","","","+0.01","7","64","","29.62","29.59","","21","110","","5","","","","","","","","","","","","","","","","","","","","","","","","","","","","","","","","","","","","","","","","","","","","","","","","","","","","","","","","","","","","","","","","","","","","","","","","","","","","","","","","","","","","","","","","","","","SYN004BUFR","","","","","","","","","",""
"01007099999","2021-10-14T23:00:00","78.9166666","11.9333333","7.7","NY ALESUND, SV","FM-12","4","","15","25","","","+0.01","7","66","","29.62","29.59","","22","134","14","11","","","","","","","","","","","","","","","","","","","","","","","","","","","","","","","","","","","","","","","","","","","","","","","","","","","","","","","","","","","","","","","","","","","","","","","","","","","","","","","","","","","","","","","","","","","SYN004BUFR","","","","","","","","","",""
"01007099999","2021-10-15T01:00:00","78.9166666","11.9333333","7.7","NY ALESUND, SV","FM-12","4","","17","27","","","+0.01","7","66","","29.62","29.59","","24","129","16","12","","","","","","","","","","","","","","","","","","","","","","","","","","","","","","","","","","","","","","","","","","","","","","","","","","","","","","","","","","","","","","","","","","","","","","","","","","","","","","","","","","","","","","","","","","","SYN004BUFR","","","","","","","","","",""
"01007099999","2021-10-15T04:00:00","78.9166666","11.9333333","7.7","NY ALESUND, SV","FM-12","4","","17","27","","","-0.01","2","67","","29.63","29.60","","24","134","17","11","","","","","","","","","","","","","","","","","","","","","","","","","","","","","","","","","","","","","","","","","","","","","","","","","","","","","","","","","","","","","","","","","","","","","","","","","","","","","","","","","","","","","","","","","","","SYN004BUFR","","","","","","","","","",""
"01007099999","2021-10-15T05:00:00","78.9166666","11.9333333","7.7","NY ALESUND, SV","FM-12","4","","17","27","","","-0.02","2","66","","29.63","29.60","","24","133","18","14","","","","","","","","","","","","","","","","","","","","","","","","","","","","","","","","","","","","","","","","","","","","","","","","","","","","","","","","","","","","","","","","","","","","","","","","","","","","","","","","","","","","","","","","","","","SYN004BUFR","","","","","","","","","",""
"01007099999","2021-10-15T07:00:00","78.9166666","11.9333333","7.7","NY ALESUND, SV","FM-12","4","","17","28","","","-0.01","2","65","82","29.64","29.61","18.64","25","138","19","14","","","","","","","","","","","","","","","","","","","","","","","","","","","","","","","","","","","","","","","","","","","","","","","","","","","","","","","","","","","","","","","","","","","","","","","","","","","","","","","","","","","","","","","","","","","SYN004BUFR","","","","","","","","","",""
"01007099999","2021-10-15T09:00:00","78.9166666","11.9333333","7.7","NY ALESUND, SV","FM-12","4","","17","28","","","-0.02","2","64","","29.66","29.63","","25","126","20","16","","","","","","","","","","","","","","","","","","","","","","","","","","","","","","","","","","","","","","","","","","","","","","","","","","","","","","","","","","","","","","","","","","","","","","","","","","","","","","","","","","","","","","","","","","","SYN004BUFR","","","","","","","","","",""
"01007099999","2021-10-15T10:00:00","78.9166666","11.9333333","7.7","NY ALESUND, SV","FM-12","4","","17","26","","","-0.03","2","68","","29.67","29.64","","23","124","19","15","","","","","","","","","","","","","","","","","","","","","","","","","","","","","","","","","","","","","","","","","","","","","","","","","","","","","","","","","","","","","","","","","","","","","","","","","","","","","","","","","","","","","","","","","","","SYN004BUFR","","","","","","","","","",""
"01007099999","2021-10-15T11:00:00","78.9166666","11.9333333","7.7","NY ALESUND, SV","FM-12","4","","17","26","","","-0.03","3","69","","29.69","29.66","","23","126","18","14","","","","","","","","","","","","","","","","","","","","","","","","","","","","","","","","","","","","","","","","","","","","","","","","","","","","","","","","","","","","","","","","","","","","","","","","","","","","","","","","","","","","","","","","","","","SYN004BUFR","","","","","","","","","",""
"01007099999","2021-10-15T13:00:00","78.9166666","11.9333333","7.7","NY ALESUND, SV","FM-12","4","","16","27","","","-0.04","2","64","SCT:03 82","29.72","29.69","46.60","24","120","25","19","","","","","","","","","","","","","","","","","","","","","","","","","","","","","","","","","","","","","","","","","","","","","","","","","","","","","","","","","","","","","","","","","","","","","","","","","","","","","","","","","","","","","","","","","","","SYN004BUFR","","","","","","","","","",""
"01007099999","2021-10-15T14:00:00","78.9166666","11.9333333","7.7","NY ALESUND, SV","FM-12","4","","15","26","","","-0.05","2","63","","29.73","29.70","","23","138","29","22","","","","","","","","","","","","","","","","","","","","","","","","","","","","","","","","","","","","","","","","","","","","","","","","","","","","","","","","","","","","","","","","","","","","","","","","","","","","","","","","","","","","","","","","","","","SYN004BUFR","","","","","","","","","",""
"01007099999","2021-10-15T16:00:00","78.9166666","11.9333333","7.7","NY ALESUND, SV","FM-12","4","","14","24","","","-0.03","1","64","","29.75","29.72","","21","142","25","14","","","","","","","","","","","","","","","","","","","","","","","","","","","","","","","","","","","","","","","","","","","","","","","","","","","","","","","","","","","","","","","","","","","","","","","","","","","","","","","","","","","","","","","","","","","SYN004BUFR","","","","","","","","","",""
"01007099999","2021-10-15T18:00:00","78.9166666","11.9333333","7.7","NY ALESUND, SV","FM-12","4","","15","28","","","-0.01","2","58","","29.76","29.73","","24","142","21","15","","","","","","","","","","","","","","","","","","","","","","","","","","","","","","","","","","","","","","","","","","","","","","","","","","","","","","","","","","","","","","","","","","","","","","","","","","","","","","","","","","","","","","","","","","","SYN004BUFR","","","","","","","","","",""
"01007099999","2021-10-15T20:00:00","78.9166666","11.9333333","7.7","NY ALESUND, SV","FM-12","4","","17","27","","","-0.04","3","64","","29.80","29.77","","24","137","22","18","","","","","","","","","","","","","","","","","","","","","","","","","","","","","","","","","","","","","","","","","","","","","","","","","","","","","","","","","","","","","","","","","","","","","","","","","","","","","","","","","","","","","","","","","","","SYN004BUFR","","","","","","","","","",""
"01007099999","2021-10-15T21:00:00","78.9166666","11.9333333","7.7","NY ALESUND, SV","FM-12","4","","17","28","","","-0.06","3","65","","29.82","29.79","","25","133","23","19","","","","","","","","","","","","","","","","","","","","","","","","","","","","","","","","","","","","","","","","","","","","","","","","","","","","","","","","","","","","","","","","","","","","","","","","","","","","","","","","","","","","","","","","","","","SYN004BUFR","","","","","","","","","",""
"01007099999","2021-10-16T00:00:00","78.9166666","11.9333333","7.7","NY ALESUND, SV","FM-12","4","","15","27","","","-0.05","3","60","","29.87","29.84","","23","140","22","14","","","","","","","","","","","","","","","","","","","","","","","","","","","","","","","","","","","","","","","","","","","","","","","","","","","","","","","","","","","","","","","","","","","","","","","","","","","","","","","","","","","","","","","","","","","SYN004BUFR","","","","","","","","","",""
"01007099999","2021-10-16T01:00:00","78.9166666","11.9333333","7.7","NY ALESUND, SV","FM-12","4","","17","27","","","-0.04","2","66","","29.88","29.85","","24","119","23","19","","","","","","","","","","","","","","","","","","","","","","","","","","","","","","","","","","","","","","","","","","","","","","","","","","","","","","","","","","","","","","","","","","","","","","","","","","","","","","","","","","","","","","","","","","","SYN004BUFR","","","","","","","","","",""
"01007099999","2021-10-16T02:00:00","78.9166666","11.9333333","7.7","NY ALESUND, SV","FM-12","4","","16","27","","","-0.05","1","64","","29.89","29.86","","24","117","26","20","","","","","","","","","","","","","","","","","","","","","","","","","","","","","","","","","","","","","","","","","","","","","","","","","","","","","","","","","","","","","","","","","","","","","","","","","","","","","","","","","","","","","","","","","","","SYN004BUFR","","","","","","","","","",""
"01007099999","2021-10-16T03:00:00","78.9166666","11.9333333","7.7","NY ALESUND, SV","FM-12","4","","16","27","","","-0.04","2","63","","29.91","29.88","","24","113","27","21","","","","","","","","","","","","","","","","","","","","","","","","","","","","","","","","","","","","","","","","","","","","","","","","","","","","","","","","","","","","","","","","","","","","","","","","","","","","","","","","","","","","","","","","","","","SYN004BUFR","","","","","","","","","",""
"01007099999","2021-10-16T04:00:00","78.9166666","11.9333333","7.7","NY ALESUND, SV","FM-12","4","","16","27","","","-0.04","2","64","","29.92","29.89","","24","110","28","21","","","","","","","","","","","","","","","","","","","","","","","","","","","","","","","","","","","","","","","","","","","","","","","","","","","","","","","","","","","","","","","","","","","","","","","","","","","","","","","","","","","","","","","","","","","SYN004BUFR","","","","","","","","","",""
"01007099999","2021-10-16T05:00:00","78.9166666","11.9333333","7.7","NY ALESUND, SV","FM-12","4","","15","26","","","-0.03","2","64","","29.93","29.90","","23","120","27","17","","","","","","","","","","","","","","","","","","","","","","","","","","","","","","","","","","","","","","","","","","","","","","","","","","","","","","","","","","","","","","","","","","","","","","","","","","","","","","","","","","","","","","","","","","","SYN004BUFR","","","","","","","","","",""
"01007099999","2021-10-16T08:00:00","78.9166666","11.9333333","7.7","NY ALESUND, SV","FM-12","4","","15","25","","","-0.02","2","67","","29.95","29.92","","22","119","21","16","","","","","","","","","","","","","","","","","","","","","","","","","","","","","","","","","","","","","","","","","","","","","","","","","","","","","","","","","","","","","","","","","","","","","","","","","","","","","","","","","","","","","","","","","","","SYN004BUFR","","","","","","","","","",""
"01007099999","2021-10-16T09:00:00","78.9166666","11.9333333","7.7","NY ALESUND, SV","FM-12","4","","15","24","","","-0.03","2","66","","29.97","29.94","","21","130","23","16","","","","","","","","","","","","","","","","","","","","","","","","","","","","","","","","","","","","","","","","","","","","","","","","","","","","","","","","","","","","","","","","","","","","","","","","","","","","","","","","","","","","","","","","","","","SYN004BUFR","","","","","","","","","",""
"01007099999","2021-10-16T11:00:00","78.9166666","11.9333333","7.7","NY ALESUND, SV","FM-12","4","","14","28","","","-0.04","2","57","","29.99","29.96","","24","077","23","13","","","","","","","","","","","","","","","","","","","","","","","","","","","","","","","","","","","","","","","","","","","","","","","","","","","","","","","","","","","","","","","","","","","","","","","","","","","","","","","","","","","","","","","","","","","SYN004BUFR","","","","","","","","","",""
"01007099999","2021-10-16T14:00:00","78.9166666","11.9333333","7.7","NY ALESUND, SV","FM-12","4","","13","25","","","-0.05","2","59","","30.04","30.01","","22","092","21","14","","","","","","","","","","","","","","","","","","","","","","","","","","","","","","","","","","","","","","","","","","","","","","","","","","","","","","","","","","","","","","","","","","","","","","","","","","","","","","","","","","","","","","","","","","","SYN004BUFR","","","","","","","","","",""
"01007099999","2021-10-16T18:00:00","78.9166666","11.9333333","7.7","NY ALESUND, SV","FM-12","4","","13","23","","","-0.02","2","65","","30.07","30.04","","20","143","16","13","","","","","","","","","","","","","","","","","","","","","","","","","","","","","","","","","","","","","","","","","","","","","","","","","","","","","","","","","","","","","","","","","","","","","","","","","","","","","","","","","","","","","","","","","","","SYN004BUFR","","","","","","","","","",""
"01007099999","2021-10-17T00:00:00","78.9166666","11.9333333","7.7","NY ALESUND, SV","FM-12","4","","10","22","","","-0.05","2","60","","30.16","30.13","","19","143","16","12","","","","","","","","","","","","","","","","","","","","","","","","","","","","","","","","","","","","","","","","","","","","","","","","","","","","","","","","","","","","","","","","","","","","","","","","","","","","","","","","","","","","","","","","","","","SYN004BUFR","","","","","","","","","",""
"01007099999","2021-10-17T01:00:00","78.9166666","11.9333333","7.7","NY ALESUND, SV","FM-12","4","","8","23","","","-0.04","2","54","","30.17","30.14","","19","175","13","2","","","","","","","","","","","","","","","","","","","","","","","","","","","","","","","","","","","","","","","","","","","","","","","","","","","","","","","","","","","","","","","","","","","","","","","","","","","","","","","","","","","","","","","","","","","SYN004BUFR","","","","","","","","","",""
"01007099999","2021-10-17T04:00:00","78.9166666","11.9333333","7.7","NY ALESUND, SV","FM-12","4","","9","23","","","-0.01","2","57","","30.18","30.15","","19","157","12","1","","","","","","","","","","","","","","","","","","","","","","","","","","","","","","","","","","","","","","","","","","","","","","","","","","","","","","","","","","","","","","","","","","","","","","","","","","","","","","","","","","","","","","","","","","","SYN004BUFR","","","","","","","","","",""
"01007099999","2021-10-17T06:00:00","78.9166666","11.9333333","7.7","NY ALESUND, SV","FM-12","4","","12","22","","","-0.02","2","66","","30.20","30.17","","19","198","","2","","","","","","","","","","","","","","","","","","","","","","","","","","","","","","","","","","","","","","","","","","","","","","","","","","","","","","","","","","","","","","","","","","","","","","","","","","","","","","","","","","","","","","","","","","","SYN004BUFR","","","","","","","","","",""
"01007099999","2021-10-17T07:00:00","78.9166666","11.9333333","7.7","NY ALESUND, SV","FM-12","4","","11","21","","","-0.03","2","63","FEW:02 20","30.21","30.18","46.60","18","184","15","2","","","","","","","","","","","","","","","","","","","","","","","","","","","","","","","","","","","","","","","","","","","","","","","","","","","","","","","","","","","","","","","","","","","","","","","","","","","","","","","","","","","","","","","","","","","SYN004BUFR","","","","","","","","","",""
"01007099999","2021-10-17T08:00:00","78.9166666","11.9333333","7.7","NY ALESUND, SV","FM-12","4","","14","20","","","-0.02","2","75","","30.21","30.18","","18","254","","5","","","","","","","","","","","","","","","","","","","","","","","","","","","","","","","","","","","","","","","","","","","","","","","","","","","","","","","","","","","","","","","","","","","","","","","","","","","","","","","","","","","","","","","","","","","SYN004BUFR","","","","","","","","","",""
"01007099999","2021-10-17T10:00:00","78.9166666","11.9333333","7.7","NY ALESUND, SV","FM-12","4","","15","24","","","-0.02","2","68","","30.23","30.20","","21","008","18","7","","","","","","","","","","","","","","","","","","","","","","","","","","","","","","","","","","","","","","","","","","","","","","","","","","","","","","","","","","","","","","","","","","","","","","","","","","","","","","","","","","","","","","","","","","","SYN004BUFR","","","","","","","","","",""
"01007099999","2021-10-17T12:00:00","78.9166666","11.9333333","7.7","NY ALESUND, SV","FM-12","4","","14","24","","","-0.03","2","65","","30.25","30.22","","21","352","18","11","","","","","","","","","","","","","","","","","","","","","","","","","","","","","","","","","","","","","","","","","","","","","","","","","","","","","","","","","","","","","","","","","","","","","","","","","","","","","","","","","","","","","","","","","","","SYN004BUFR","","","","","","","","","",""
"01007099999","2021-10-17T16:00:00","78.9166666","11.9333333","7.7","NY ALESUND, SV","FM-12","4","","11","20","","","-0.01","2","69","","30.26","30.23","","18","167","12","4","","","","","","","","","","","","","","","","","","","","","","","","","","","","","","","","","","","","","","","","","","","","","","","","","","","","","","","","","","","","","","","","","","","","","","","","","","","","","","","","","","","","","","","","","","","SYN004BUFR","","","","","","","","","",""
"01007099999","2021-10-17T21:00:00","78.9166666","11.9333333","7.7","NY ALESUND, SV","FM-12","4","","8","17","","","-0.01","2","68","","30.27","30.24","","15","248","","2","","","","","","","","","","","","","","","","","","","","","","","","","","","","","","","","","","","","","","","","","","","","","","","","","","","","","","","","","","","","","","","","","","","","","","","","","","","","","","","","","","","","","","","","","","","SYN004BUFR","","","","","","","","","",""
"01007099999","2021-10-17T23:00:00","78.9166666","11.9333333","7.7","NY ALESUND, SV","FM-12","4","","5","16","","","-0.01","2","61","","30.28","30.25","","13","135","","2","","","","","","","","","","","","","","","","","","","","","","","","","","","","","","","","","","","","","","","","","","","","","","","","","","","","","","","","","","","","","","","","","","","","","","","","","","","","","","","","","","","","","","","","","","","SYN004BUFR","","","","","","","","","",""
"01007099999","2021-10-18T00:00:00","78.9166666","11.9333333","7.7","NY ALESUND, SV","FM-12","4","","9","18","","","-0.01","2","69","","30.28","30.25","","16","160","","2","","","","","","","","","","","","","","","","","","","","","","","","","","","","","","","","","","","","","","","","","","","","","","","","","","","","","","","","","","","","","","","","","","","","","","","","","","","","","","","","","","","","","","","","","","","SYN004BUFR","","","","","","","","","",""
"01007099999","2021-10-18T01:00:00","78.9166666","11.9333333","7.7","NY ALESUND, SV","FM-12","4","","10","18","","","-0.01","2","69","","30.28","30.25","","16","307","","2","","","","","","","","","","","","","","","","","","","","","","","","","","","","","","","","","","","","","","","","","","","","","","","","","","","","","","","","","","","","","","","","","","","","","","","","","","","","","","","","","","","","","","","","","","","SYN004BUFR","","","","","","","","","",""
"01007099999","2021-10-18T04:00:00","78.9166666","11.9333333","7.7","NY ALESUND, SV","FM-12","4","","10","18","","","-0.00","2","72","","30.28","30.25","","16","246","","3","","","","","","","","","","","","","","","","","","","","","","","","","","","","","","","","","","","","","","","","","","","","","","","","","","","","","","","","","","","","","","","","","","","","","","","","","","","","","","","","","","","","","","","","","","","SYN004BUFR","","","","","","","","","",""
"01007099999","2021-10-18T06:00:00","78.9166666","11.9333333","7.7","NY ALESUND, SV","FM-12","4","","8","15","","","+0.01","7","75","","30.27","30.24","","13","269","","1","","","","","","","","","","","","","","","","","","","","","","","","","","","","","","","","","","","","","","","","","","","","","","","","","","","","","","","","","","","","","","","","","","","","","","","","","","","","","","","","","","","","","","","","","","","SYN004BUFR","","","","","","","","","",""
"01007099999","2021-10-18T08:00:00","78.9166666","11.9333333","7.7","NY ALESUND, SV","FM-12","4","","11","17","","","","","75","","30.28","30.25","","15","341","","0","","","","","","","","","","","","","","","","","","","","","","","","","","","","","","","","","","","","","","","","","","","","","","","","","","","","","","","","","","","","","","","","","","","","","","","","","","","","","","","","","","","","","","","","","","","SYN004BUFR","","","","","","","","","",""
"01007099999","2021-10-18T09:00:00","78.9166666","11.9333333","7.7","NY ALESUND, SV","FM-12","4","","9","17","","","-0.01","2","72","","30.28","30.25","","15","139","","4","","","","","","","","","","","","","","","","","","","","","","","","","","","","","","","","","","","","","","","","","","","","","","","","","","","","","","","","","","","","","","","","","","","","","","","","","","","","","","","","","","","","","","","","","","","SYN004BUFR","","","","","","","","","",""
"01007099999","2021-10-18T10:00:00","78.9166666","11.9333333","7.7","NY ALESUND, SV","FM-12","4","","9","17","","","-0.01","2","73","","30.29","30.26","","15","161","","4","","","","","","","","","","","","","","","","","","","","","","","","","","","","","","","","","","","","","","","","","","","","","","","","","","","","","","","","","","","","","","","","","","","","","","","","","","","","","","","","","","","","","","","","","","","SYN004BUFR","","","","","","","","","",""
"01007099999","2021-10-18T11:00:00","78.9166666","11.9333333","7.7","NY ALESUND, SV","FM-12","4","","9","17","","","-0.00","2","69","","30.28","30.25","","15","169","","5","","","","","","","","","","","","","","","","","","","","","","","","","","","","","","","","","","","","","","","","","","","","","","","","","","","","","","","","","","","","","","","","","","","","","","","","","","","","","","","","","","","","","","","","","","","SYN004BUFR","","","","","","","","","",""
"01007099999","2021-10-18T14:00:00","78.9166666","11.9333333","7.7","NY ALESUND, SV","FM-12","4","","8","17","","","+0.01","7","69","","30.27","30.24","","15","160","","3","","","","","","","","","","","","","","","","","","","","","","","","","","","","","","","","","","","","","","","","","","","","","","","","","","","","","","","","","","","","","","","","","","","","","","","","","","","","","","","","","","","","","","","","","","","SYN004BUFR","","","","","","","","","",""
"01007099999","2021-10-18T22:00:00","78.9166666","11.9333333","7.7","NY ALESUND, SV","FM-12","4","","7","18","","","-0.01","2","60","","30.26","30.23","","15","151","","2","","","","","","","","","","","","","","","","","","","","","","","","","","","","","","","","","","","","","","","","","","","","","","","","","","","","","","","","","","","","","","","","","","","","","","","","","","","","","","","","","","","","","","","","","","","SYN004BUFR","","","","","","","","","",""
"01007099999","2021-10-18T23:00:00","78.9166666","11.9333333","7.7","NY ALESUND, SV","FM-12","4","","6","16","","","-0.01","2","63","","30.27","30.24","","14","241","","3","","","","","","","","","","","","","","","","","","","","","","","","","","","","","","","","","","","","","","","","","","","","","","","","","","","","","","","","","","","","","","","","","","","","","","","","","","","","","","","","","","","","","","","","","","","SYN004BUFR","","","","","","","","","",""
"01007099999","2021-10-19T01:00:00","78.9166666","11.9333333","7.7","NY ALESUND, SV","FM-12","4","","7","17","","","-0.00","2","63","","30.27","30.24","","15","261","","5","","","","","","","","","","","","","","","","","","","","","","","","","","","","","","","","","","","","","","","","","","","","","","","","","","","","","","","","","","","","","","","","","","","","","","","","","","","","","","","","","","","","","","","","","","","SYN004BUFR","","","","","","","","","",""
"01007099999","2021-10-19T03:00:00","78.9166666","11.9333333","7.7","NY ALESUND, SV","FM-12","4","","7","18","","","+0.01","7","60","","30.26","30.23","","15","165","","6","","","","","","","","","","","","","","","","","","","","","","","","","","","","","","","","","","","","","","","","","","","","","","","","","","","","","","","","","","","","","","","","","","","","","","","","","","","","","","","","","","","","","","","","","","","SYN004BUFR","","","","","","","","","",""
"01007099999","2021-10-19T04:00:00","78.9166666","11.9333333","7.7","NY ALESUND, SV","FM-12","4","","5","18","","","+0.01","7","57","","30.26","30.23","","15","256","","5","","","","","","","","","","","","","","","","","","","","","","","","","","","","","","","","","","","","","","","","","","","","","","","","","","","","","","","","","","","","","","","","","","","","","","","","","","","","","","","","","","","","","","","","","","","SYN004BUFR","","","","","","","","","",""
"01007099999","2021-10-19T05:00:00","78.9166666","11.9333333","7.7","NY ALESUND, SV","FM-12","4","","5","18","","","","","56","","30.26","30.23","","15","142","","4","","","","","","","","","","","","","","","","","","","","","","","","","","","","","","","","","","","","","","","","","","","","","","","","","","","","","","","","","","","","","","","","","","","","","","","","","","","","","","","","","","","","","","","","","","","SYN004BUFR","","","","","","","","","",""
"01007099999","2021-10-19T06:00:00","78.9166666","11.9333333","7.7","NY ALESUND, SV","FM-12","4","","4","18","","","+0.01","7","55","","30.25","30.22","","15","245","","4","","","","","","","","","","","","","","","","","","","","","","","","","","","","","","","","","","","","","","","","","","","","","","","","","","","","","","","","","","","","","","","","","","","","","","","","","","","","","","","","","","","","","","","","","","","SYN004BUFR","","","","","","","","","",""
"01007099999","2021-10-19T08:00:00","78.9166666","11.9333333","7.7","NY ALESUND, SV","FM-12","4","","4","19","","","+0.00","5","52","","30.26","30.23","","15","160","","4","","","","","","","","","","","","","","","","","","","","","","","","","","","","","","","","","","","","","","","","","","","","","","","","","","","","","","","","","","","","","","","","","","","","","","","","","","","","","","","","","","","","","","","","","","","SYN004BUFR","","","","","","","","","",""
"01007099999","2021-10-19T09:00:00","78.9166666","11.9333333","7.7","NY ALESUND, SV","FM-12","4","","6","18","","","-0.01","2","58","","30.27","30.24","","15","129","12","5","","","","","","","","","","","","","","","","","","","","","","","","","","","","","","","","","","","","","","","","","","","","","","","","","","","","","","","","","","","","","","","","","","","","","","","","","","","","","","","","","","","","","","","","","","","SYN004BUFR","","","","","","","","","",""
"01007099999","2021-10-19T10:00:00","78.9166666","11.9333333","7.7","NY ALESUND, SV","FM-12","4","","4","18","","","-0.01","2","55","","30.27","30.24","","15","323","","1","","","","","","","","","","","","","","","","","","","","","","","","","","","","","","","","","","","","","","","","","","","","","","","","","","","","","","","","","","","","","","","","","","","","","","","","","","","","","","","","","","","","","","","","","","","SYN004BUFR","","","","","","","","","",""
"01007099999","2021-10-19T12:00:00","78.9166666","11.9333333","7.7","NY ALESUND, SV","FM-12","4","","4","18","","","+0.01","7","56","","30.26","30.23","","15","292","","1","","","","","","","","","","","","","","","","","","","","","","","","","","","","","","","","","","","","","","","","","","","","","","","","","","","","","","","","","","","","","","","","","","","","","","","","","","","","","","","","","","","","","","","","","","","SYN004BUFR","","","","","","","","","",""
"01007099999","2021-10-19T19:00:00","78.9166666","11.9333333","7.7","NY ALESUND, SV","FM-12","4","","3","15","","","+0.03","7","58","","30.19","30.16","46.60","12","182","","2","","","","","","","","","","","","","","","","","","","","","","","","","","","","","","","","","","","","","","","","","","","","","","","","","","","","","","","","","","","","","","","","","","","","","","","","","","","","","","","","","","","","","","","","","","","SYN004BUFR","","","","","","","","","",""
"01007099999","2021-10-19T22:00:00","78.9166666","11.9333333","7.7","NY ALESUND, SV","FM-12","4","","4","15","","","+0.04","7","60","","30.15","30.12","","13","138","","6","","","","","","","","","","","","","","","","","","","","","","","","","","","","","","","","","","","","","","","","","","","","","","","","","","","","","","","","","","","","","","","","","","","","","","","","","","","","","","","","","","","","","","","","","","","SYN004BUFR","","","","","","","","","",""
"01007099999","2021-10-20T01:00:00","78.9166666","11.9333333","7.7","NY ALESUND, SV","FM-12","4","","6","17","","","+0.06","7","62","","30.10","30.07","","14","130","12","5","","","","","","","","","","","","","","","","","","","","","","","","","","","","","","","","","","","","","","","","","","","","","","","","","","","","","","","","","","","","","","","","","","","","","","","","","","","","","","","","","","","","","","","","","","","SYN004BUFR","","","","","","","","","",""
"01007099999","2021-10-20T03:00:00","78.9166666","11.9333333","7.7","NY ALESUND, SV","FM-12","4","","7","18","","","+0.06","7","63","","30.06","30.03","","15","134","12","7","","","","","","","","","","","","","","","","","","","","","","","","","","","","","","","","","","","","","","","","","","","","","","","","","","","","","","","","","","","","","","","","","","","","","","","","","","","","","","","","","","","","","","","","","","","SYN004BUFR","","","","","","","","","",""
"01007099999","2021-10-20T04:00:00","78.9166666","11.9333333","7.7","NY ALESUND, SV","FM-12","4","","8","18","","","+0.07","8","65","","30.02","29.99","","15","229","","2","","","","","","","","","","","","","","","","","","","","","","","","","","","","","","","","","","","","","","","","","","","","","","","","","","","","","","","","","","","","","","","","","","","","","","","","","","","","","","","","","","","","","","","","","","","SYN004BUFR","","","","","","","","","",""
"01007099999","2021-10-20T05:00:00","78.9166666","11.9333333","7.7","NY ALESUND, SV","FM-12","4","","10","18","","","+0.08","7","69","","30.00","29.97","","16","143","","7","","","","","","","","","","","","","","","","","","","","","","","","","","","","","","","","","","","","","","","","","","","","","","","","","","","","","","","","","","","","","","","","","","","","","","","","","","","","","","","","","","","","","","","","","","","SYN004BUFR","","","","","","","","","",""
"01007099999","2021-10-20T06:00:00","78.9166666","11.9333333","7.7","NY ALESUND, SV","FM-12","4","","10","19","","","+0.08","6","66","","29.98","29.95","","17","141","","5","","","","","","","","","","","","","","","","","","","","","","","","","","","","","","","","","","","","","","","","","","","","","","","","","","","","","","","","","","","","","","","","","","","","","","","","","","","","","","","","","","","","","","","","","","","SYN004BUFR","","","","","","","","","",""
"01007099999","2021-10-20T09:00:00","78.9166666","11.9333333","7.7","NY ALESUND, SV","FM-12","4","","10","20","","","+0.06","8","64","","29.92","29.89","","17","144","","5","","","","","","","","","","","","","","","","","","","","","","","","","","","","","","","","","","","","","","","","","","","","","","","","","","","","","","","","","","","","","","","","","","","","","","","","","","","","","","","","","","","","","","","","","","","SYN004BUFR","","","","","","","","","",""
"01007099999","2021-10-20T10:00:00","78.9166666","11.9333333","7.7","NY ALESUND, SV","FM-12","4","","11","19","","","+0.06","7","71","","29.90","29.87","","17","173","","6","","","","","","","","","","","","","","","","","","","","","","","","","","","","","","","","","","","","","","","","","","","","","","","","","","","","","","","","","","","","","","","","","","","","","","","","","","","","","","","","","","","","","","","","","","","SYN004BUFR","","","","","","","","","",""
"01007099999","2021-10-20T11:00:00","78.9166666","11.9333333","7.7","NY ALESUND, SV","FM-12","4","","12","20","","","+0.06","6","69","","29.88","29.85","","18","170","","4","","","","","","","","","","","","","","","","","","","","","","","","","","","","","","","","","","","","","","","","","","","","","","","","","","","","","","","","","","","","","","","","","","","","","","","","","","","","","","","","","","","","","","","","","","","SYN004BUFR","","","","","","","","","",""
"01007099999","2021-10-20T12:00:00","78.9166666","11.9333333","7.7","NY ALESUND, SV","FM-12","4","","12","21","","","+0.05","7","66","","29.87","29.84","","19","121","","3","","","","","","","","","","","","","","","","","","","","","","","","","","","","","","","","","","","","","","","","","","","","","","","","","","","","","","","","","","","","","","","","","","","","","","","","","","","","","","","","","","","","","","","","","","","SYN004BUFR","","","","","","","","","",""
"01007099999","2021-10-20T14:00:00","78.9166666","11.9333333","7.7","NY ALESUND, SV","FM-12","4","","13","21","","","+0.06","7","70","","29.83","29.80","","19","138","","6","","","","","","","","","","","","","","","","","","","","","","","","","","","","","","","","","","","","","","","","","","","","","","","","","","","","","","","","","","","","","","","","","","","","","","","","","","","","","","","","","","","","","","","","","","","SYN004BUFR","","","","","","","","","",""
"01007099999","2021-10-20T16:00:00","78.9166666","11.9333333","7.7","NY ALESUND, SV","FM-12","4","","13","22","","","+0.06","5","69","","29.79","29.76","","19","156","19","10","","","","","","","","","","","","","","","","","","","","","","","","","","","","","","","","","","","","","","","","","","","","","","","","","","","","","","","","","","","","","","","","","","","","","","","","","","","","","","","","","","","","","","","","","","","SYN004BUFR","","","","","","","","","",""
"01007099999","2021-10-20T21:00:00","78.9166666","11.9333333","7.7","NY ALESUND, SV","FM-12","4","","11","22","","","+0.02","7","62","","29.75","29.72","","19","144","15","9","","","","","","","","","","","","","","","","","","","","","","","","","","","","","","","","","","","","","","","","","","","","","","","","","","","","","","","","","","","","","","","","","","","","","","","","","","","","","","","","","","","","","","","","","","","SYN004BUFR","","","","","","","","","",""
"01007099999","2021-10-20T23:00:00","78.9166666","11.9333333","7.7","NY ALESUND, SV","FM-12","4","","9","23","","","+0.01","5","56","","29.75","29.72","","19","339","","2","","","","","","","","","","","","","","","","","","","","","","","","","","","","","","","","","","","","","","","","","","","","","","","","","","","","","","","","","","","","","","","","","","","","","","","","","","","","","","","","","","","","","","","","","","","SYN004BUFR","","","","","","","","","",""
"01007099999","2021-10-21T00:00:00","78.9166666","11.9333333","7.7","NY ALESUND, SV","FM-12","4","","9","21","","","+0.00","5","60","","29.75","29.72","","18","265","","4","","","","","","","","","","","","","","","","","","","","","","","","","","","","","","","","","","","","","","","","","","","","","","","","","","","","","","","","","","","","","","","","","","","","","","","","","","","","","","","","","","","","","","","","","","","SYN004BUFR","","","","","","","","","",""
"01007099999","2021-10-21T04:00:00","78.9166666","11.9333333","7.7","NY ALESUND, SV","FM-12","4","","9","19","","","+0.01","7","64","","29.73","29.70","","16","277","","4","","","","","","","","","","","","","","","","","","","","","","","","","","","","","","","","","","","","","","","","","","","","","","","","","","","","","","","","","","","","","","","","","","","","","","","","","","","","","","","","","","","","","","","","","","","SYN004BUFR","","","","","","","","","",""
"01007099999","2021-10-21T05:00:00","78.9166666","11.9333333","7.7","NY ALESUND, SV","FM-12","4","","8","20","","","+0.01","7","59","","29.73","29.70","","17","146","","1","","","","","","","","","","","","","","","","","","","","","","","","","","","","","","","","","","","","","","","","","","","","","","","","","","","","","","","","","","","","","","","","","","","","","","","","","","","","","","","","","","","","","","","","","","","SYN004BUFR","","","","","","","","","",""
"01007099999","2021-10-21T08:00:00","78.9166666","11.9333333","7.7","NY ALESUND, SV","FM-12","4","","8","20","","","+0.00","5","59","","29.72","29.70","","17","133","","2","","","","","","","","","","","","","","","","","","","","","","","","","","","","","","","","","","","","","","","","","","","","","","","","","","","","","","","","","","","","","","","","","","","","","","","","","","","","","","","","","","","","","","","","","","","SYN004BUFR","","","","","","","","","",""
"01007099999","2021-10-21T09:00:00","78.9166666","11.9333333","7.7","NY ALESUND, SV","FM-12","4","","9","20","","","0.00","4","62","","29.73","29.70","","17","126","","6","","","","","","","","","","","","","","","","","","","","","","","","","","","","","","","","","","","","","","","","","","","","","","","","","","","","","","","","","","","","","","","","","","","","","","","","","","","","","","","","","","","","","","","","","","","SYN004BUFR","","","","","","","","","",""
"01007099999","2021-10-21T10:00:00","78.9166666","11.9333333","7.7","NY ALESUND, SV","FM-12","4","","10","21","","","","","64","","29.73","29.70","","18","138","","6","","","","","","","","","","","","","","","","","","","","","","","","","","","","","","","","","","","","","","","","","","","","","","","","","","","","","","","","","","","","","","","","","","","","","","","","","","","","","","","","","","","","","","","","","","","SYN004BUFR","","","","","","","","","",""
"01007099999","2021-10-21T11:00:00","78.9166666","11.9333333","7.7","NY ALESUND, SV","FM-12","4","","15","20","0.00","","+0.01","8","81","","29.72","29.69","","19","151","","4","","","","","","","","","","","","","","","","","","","","","","","","","","","","","","","","","","","","","","","","","","","","","","","","","","","","","","","","","","","","","","","","","","","","","","","","","","","","","","","","","","","","","","","","","","","SYN004BUFR","","","","","","","","","",""
"01007099999","2021-10-21T13:00:00","78.9166666","11.9333333","7.7","NY ALESUND, SV","FM-12","4","","19","22","0.03","","+0.01","7","91","VV:09","29.71","29.68","0.31","21","136","","4","","","","","","","","","","","","","","","","","","","","","","","","","","","","","","","","","","","","","","","","","","","","","","","","","","","","","","","","","","","","","","","","","","","","","","","","","","","","","","","","","","","","","","","","","","","SYN004BUFR","","","","","","","","","",""
"01007099999","2021-10-21T14:00:00","78.9166666","11.9333333","7.7","NY ALESUND, SV","FM-12","4","","19","22","","","+0.01","8","89","","29.71","29.68","","21","141","","5","","","","","","","","","","","","","","","","","","","","","","","","","","","","","","","","","","","","","","","","","","","","","","","","","","","","","","","","","","","","","","","","","","","","","","","","","","","","","","","","","","","","","","","","","","","SYN004BUFR","","","","","","","","","",""
"01007099999","2021-10-21T16:00:00","78.9166666","11.9333333","7.7","NY ALESUND, SV","FM-12","4","","21","24","","","+0.02","8","90","","29.69","29.66","","23","135","","3","","","","","","","","","","","","","","","","","","","","","","","","","","","","","","","","","","","","","","","","","","","","","","","","","","","","","","","","","","","","","","","","","","","","","","","","","","","","","","","","","","","","","","","","","","","SYN004BUFR","","","","","","","","","",""
"01007099999","2021-10-21T17:00:00","78.9166666","11.9333333","7.7","NY ALESUND, SV","FM-12","4","","22","25","","","+0.02","8","88","","29.68","29.65","","24","061","","2","","","","","","","","","","","","","","","","","","","","","","","","","","","","","","","","","","","","","","","","","","","","","","","","","","","","","","","","","","","","","","","","","","","","","","","","","","","","","","","","","","","","","","","","","","","SYN004BUFR","","","","","","","","","",""
"01007099999","2021-10-21T20:00:00","78.9166666","11.9333333","7.7","NY ALESUND, SV","FM-12","4","","21","26","0.00","","0.00","4","81","","29.69","29.66","","24","263","15","10","","","","","","","","","","","","","","","","","","","","","","","","","","","","","","","","","","","","","","","","","","","","","","","","","","","","","","","","","","","","","","","","","","","","","","","","","","","","","","","","","","","","","","","","","","","SYN004BUFR","","","","","","","","","",""
"01007099999","2021-10-21T21:00:00","78.9166666","11.9333333","7.7","NY ALESUND, SV","FM-12","4","","20","27","","","-0.01","0","76","","29.69","29.66","","25","271","14","5","","","","","","","","","","","","","","","","","","","","","","","","","","","","","","","","","","","","","","","","","","","","","","","","","","","","","","","","","","","","","","","","","","","","","","","","","","","","","","","","","","","","","","","","","","","SYN004BUFR","","","","","","","","","",""
"01007099999","2021-10-22T01:00:00","78.9166666","11.9333333","7.7","NY ALESUND, SV","FM-12","4","","19","25","","","-0.00","2","78","","29.70","29.67","","23","298","13","10","","","","","","","","","","","","","","","","","","","","","","","","","","","","","","","","","","","","","","","","","","","","","","","","","","","","","","","","","","","","","","","","","","","","","","","","","","","","","","","","","","","","","","","","","","","SYN004BUFR","","","","","","","","","",""
"01007099999","2021-10-22T04:00:00","78.9166666","11.9333333","7.7","NY ALESUND, SV","FM-12","4","","18","25","","","+0.01","7","74","","29.69","29.66","","23","323","19","13","","","","","","","","","","","","","","","","","","","","","","","","","","","","","","","","","","","","","","","","","","","","","","","","","","","","","","","","","","","","","","","","","","","","","","","","","","","","","","","","","","","","","","","","","","","SYN004BUFR","","","","","","","","","",""
"01007099999","2021-10-22T05:00:00","78.9166666","11.9333333","7.7","NY ALESUND, SV","FM-12","4","","17","25","","","+0.00","7","72","","29.69","29.66","","23","339","16","10","","","","","","","","","","","","","","","","","","","","","","","","","","","","","","","","","","","","","","","","","","","","","","","","","","","","","","","","","","","","","","","","","","","","","","","","","","","","","","","","","","","","","","","","","","","SYN004BUFR","","","","","","","","","",""
"01007099999","2021-10-22T06:00:00","78.9166666","11.9333333","7.7","NY ALESUND, SV","FM-12","4","","17","24","","","0.00","4","76","","29.69","29.66","","22","259","13","7","","","","","","","","","","","","","","","","","","","","","","","","","","","","","","","","","","","","","","","","","","","","","","","","","","","","","","","","","","","","","","","","","","","","","","","","","","","","","","","","","","","","","","","","","","","SYN004BUFR","","","","","","","","","",""
"01007099999","2021-10-22T07:00:00","78.9166666","11.9333333","7.7","NY ALESUND, SV","FM-12","4","","17","24","","","0.00","4","76","FEW:02 33","29.69","29.66","31.07","22","264","21","7","","","","","","","","","","","","","","","","","","","","","","","","","","","","","","","","","","","","","","","","","","","","","","","","","","","","","","","","","","","","","","","","","","","","","","","","","","","","","","","","","","","","","","","","","","","SYN004BUFR","","","","","","","","","",""
"01007099999","2021-10-22T09:00:00","78.9166666","11.9333333","7.7","NY ALESUND, SV","FM-12","4","","17","24","","","-0.01","3","76","","29.70","29.67","","22","269","","4","","","","","","","","","","","","","","","","","","","","","","","","","","","","","","","","","","","","","","","","","","","","","","","","","","","","","","","","","","","","","","","","","","","","","","","","","","","","","","","","","","","","","","","","","","","SYN004BUFR","","","","","","","","","",""
"01007099999","2021-10-22T10:00:00","78.9166666","11.9333333","7.7","NY ALESUND, SV","FM-12","4","","17","24","","","-0.02","2","73","","29.71","29.68","","22","258","","3","","","","","","","","","","","","","","","","","","","","","","","","","","","","","","","","","","","","","","","","","","","","","","","","","","","","","","","","","","","","","","","","","","","","","","","","","","","","","","","","","","","","","","","","","","","SYN004BUFR","","","","","","","","","",""
"01007099999","2021-10-22T11:00:00","78.9166666","11.9333333","7.7","NY ALESUND, SV","FM-12","4","","16","22","","","-0.02","2","78","","29.71","29.68","","20","248","","4","","","","","","","","","","","","","","","","","","","","","","","","","","","","","","","","","","","","","","","","","","","","","","","","","","","","","","","","","","","","","","","","","","","","","","","","","","","","","","","","","","","","","","","","","","","SYN004BUFR","","","","","","","","","",""
"01007099999","2021-10-22T14:00:00","78.9166666","11.9333333","7.7","NY ALESUND, SV","FM-12","4","","15","23","","","-0.02","2","73","","29.74","29.71","","21","241","","3","","","","","","","","","","","","","","","","","","","","","","","","","","","","","","","","","","","","","","","","","","","","","","","","","","","","","","","","","","","","","","","","","","","","","","","","","","","","","","","","","","","","","","","","","","","SYN004BUFR","","","","","","","","","",""
"01007099999","2021-10-22T17:00:00","78.9166666","11.9333333","7.7","NY ALESUND, SV","FM-12","4","","12","21","","","-0.02","2","69","","29.76","29.73","","18","356","","1","","","","","","","","","","","","","","","","","","","","","","","","","","","","","","","","","","","","","","","","","","","","","","","","","","","","","","","","","","","","","","","","","","","","","","","","","","","","","","","","","","","","","","","","","","","SYN004BUFR","","","","","","","","","",""
"01007099999","2021-10-22T18:00:00","78.9166666","11.9333333","7.7","NY ALESUND, SV","FM-12","4","","12","22","","","-0.02","2","65","","29.76","29.73","","19","262","","4","","","","","","","","","","","","","","","","","","","","","","","","","","","","","","","","","","","","","","","","","","","","","","","","","","","","","","","","","","","","","","","","","","","","","","","","","","","","","","","","","","","","","","","","","","","SYN004BUFR","","","","","","","","","",""
"01007099999","2021-10-23T01:00:00","78.9166666","11.9333333","7.7","NY ALESUND, SV","FM-12","4","","10","21","","","0.00","4","62","","29.80","29.77","","18","239","","3","","","","","","","","","","","","","","","","","","","","","","","","","","","","","","","","","","","","","","","","","","","","","","","","","","","","","","","","","","","","","","","","","","","","","","","","","","","","","","","","","","","","","","","","","","","SYN004BUFR","","","","","","","","","",""
"01007099999","2021-10-23T03:00:00","78.9166666","11.9333333","7.7","NY ALESUND, SV","FM-12","4","","11","20","","","-0.01","2","69","","29.81","29.78","","18","144","","6","","","","","","","","","","","","","","","","","","","","","","","","","","","","","","","","","","","","","","","","","","","","","","","","","","","","","","","","","","","","","","","","","","","","","","","","","","","","","","","","","","","","","","","","","","","SYN004BUFR","","","","","","","","","",""
"01007099999","2021-10-23T08:00:00","78.9166666","11.9333333","7.7","NY ALESUND, SV","FM-12","4","","12","20","","","-0.03","3","70","","29.84","29.81","","18","235","","3","","","","","","","","","","","","","","","","","","","","","","","","","","","","","","","","","","","","","","","","","","","","","","","","","","","","","","","","","","","","","","","","","","","","","","","","","","","","","","","","","","","","","","","","","","","SYN004BUFR","","","","","","","","","",""
"01007099999","2021-10-23T09:00:00","78.9166666","11.9333333","7.7","NY ALESUND, SV","FM-12","4","","11","20","","","-0.04","2","66","","29.85","29.82","","18","278","","3","","","","","","","","","","","","","","","","","","","","","","","","","","","","","","","","","","","","","","","","","","","","","","","","","","","","","","","","","","","","","","","","","","","","","","","","","","","","","","","","","","","","","","","","","","","SYN004BUFR","","","","","","","","","",""
"01007099999","2021-10-23T11:00:00","78.9166666","11.9333333","7.7","NY ALESUND, SV","FM-12","4","","10","18","","","-0.04","2","73","","29.88","29.85","","16","224","","4","","","","","","","","","","","","","","","","","","","","","","","","","","","","","","","","","","","","","","","","","","","","","","","","","","","","","","","","","","","","","","","","","","","","","","","","","","","","","","","","","","","","","","","","","","","SYN004BUFR","","","","","","","","","",""
"01007099999","2021-10-23T13:00:00","78.9166666","11.9333333","7.7","NY ALESUND, SV","FM-12","4","","11","20","","","-0.05","2","68","82","29.92","29.89","40.39","18","273","","3","","","","","","","","","","","","","","","","","","","","","","","","","","","","","","","","","","","","","","","","","","","","","","","","","","","","","","","","","","","","","","","","","","","","","","","","","","","","","","","","","","","","","","","","","","","SYN004BUFR","","","","","","","","","",""
"01007099999","2021-10-23T14:00:00","78.9166666","11.9333333","7.7","NY ALESUND, SV","FM-12","4","","11","20","","","-0.05","2","66","","29.93","29.90","","18","136","","4","","","","","","","","","","","","","","","","","","","","","","","","","","","","","","","","","","","","","","","","","","","","","","","","","","","","","","","","","","","","","","","","","","","","","","","","","","","","","","","","","","","","","","","","","","","SYN004BUFR","","","","","","","","","",""
"01007099999","2021-10-23T15:00:00","78.9166666","11.9333333","7.7","NY ALESUND, SV","FM-12","4","","12","20","","","-0.05","2","70","","29.95","29.92","","18","149","","7","","","","","","","","","","","","","","","","","","","","","","","","","","","","","","","","","","","","","","","","","","","","","","","","","","","","","","","","","","","","","","","","","","","","","","","","","","","","","","","","","","","","","","","","","","","SYN004BUFR","","","","","","","","","",""
"01007099999","2021-10-23T16:00:00","78.9166666","11.9333333","7.7","NY ALESUND, SV","FM-12","4","","12","20","","","-0.04","2","71","","29.96","29.93","","18","142","","5","","","","","","","","","","","","","","","","","","","","","","","","","","","","","","","","","","","","","","","","","","","","","","","","","","","","","","","","","","","","","","","","","","","","","","","","","","","","","","","","","","","","","","","","","","","SYN004BUFR","","","","","","","","","",""
"01007099999","2021-10-23T17:00:00","78.9166666","11.9333333","7.7","NY ALESUND, SV","FM-12","4","","12","20","","","-0.04","2","71","","29.97","29.94","","18","122","","2","","","","","","","","","","","","","","","","","","","","","","","","","","","","","","","","","","","","","","","","","","","","","","","","","","","","","","","","","","","","","","","","","","","","","","","","","","","","","","","","","","","","","","","","","","","SYN004BUFR","","","","","","","","","",""
"01007099999","2021-10-23T20:00:00","78.9166666","11.9333333","7.7","NY ALESUND, SV","FM-12","4","","16","22","","","-0.04","2","76","","30.01","29.98","","20","171","","2","","","","","","","","","","","","","","","","","","","","","","","","","","","","","","","","","","","","","","","","","","","","","","","","","","","","","","","","","","","","","","","","","","","","","","","","","","","","","","","","","","","","","","","","","","","SYN004BUFR","","","","","","","","","",""
"01007099999","2021-10-23T22:00:00","78.9166666","11.9333333","7.7","NY ALESUND, SV","FM-12","4","","15","22","","","-0.04","2","73","","30.04","30.01","","20","242","","2","","","","","","","","","","","","","","","","","","","","","","","","","","","","","","","","","","","","","","","","","","","","","","","","","","","","","","","","","","","","","","","","","","","","","","","","","","","","","","","","","","","","","","","","","","","SYN004BUFR","","","","","","","","","",""
"01007099999","2021-10-24T01:00:00","78.9166666","11.9333333","7.7","NY ALESUND, SV","FM-12","4","","13","20","","","-0.04","3","74","","30.08","30.05","","18","245","","6","","","","","","","","","","","","","","","","","","","","","","","","","","","","","","","","","","","","","","","","","","","","","","","","","","","","","","","","","","","","","","","","","","","","","","","","","","","","","","","","","","","","","","","","","","","SYN004BUFR","","","","","","","","","",""
"01007099999","2021-10-24T02:00:00","78.9166666","11.9333333","7.7","NY ALESUND, SV","FM-12","4","","12","21","","","-0.04","2","70","","30.08","30.05","","19","144","","4","","","","","","","","","","","","","","","","","","","","","","","","","","","","","","","","","","","","","","","","","","","","","","","","","","","","","","","","","","","","","","","","","","","","","","","","","","","","","","","","","","","","","","","","","","","SYN004BUFR","","","","","","","","","",""
"01007099999","2021-10-24T03:00:00","78.9166666","11.9333333","7.7","NY ALESUND, SV","FM-12","4","","11","20","","","-0.04","1","67","","30.09","30.06","","18","147","","5","","","","","","","","","","","","","","","","","","","","","","","","","","","","","","","","","","","","","","","","","","","","","","","","","","","","","","","","","","","","","","","","","","","","","","","","","","","","","","","","","","","","","","","","","","","SYN004BUFR","","","","","","","","","",""
"01007099999","2021-10-24T04:00:00","78.9166666","11.9333333","7.7","NY ALESUND, SV","FM-12","4","","11","19","","","-0.03","2","70","","30.10","30.07","","17","195","","2","","","","","","","","","","","","","","","","","","","","","","","","","","","","","","","","","","","","","","","","","","","","","","","","","","","","","","","","","","","","","","","","","","","","","","","","","","","","","","","","","","","","","","","","","","","SYN004BUFR","","","","","","","","","",""
"01007099999","2021-10-24T05:00:00","78.9166666","11.9333333","7.7","NY ALESUND, SV","FM-12","4","","11","18","","","-0.02","1","75","","30.10","30.07","","16","250","","6","","","","","","","","","","","","","","","","","","","","","","","","","","","","","","","","","","","","","","","","","","","","","","","","","","","","","","","","","","","","","","","","","","","","","","","","","","","","","","","","","","","","","","","","","","","SYN004BUFR","","","","","","","","","",""
"01007099999","2021-10-24T06:00:00","78.9166666","11.9333333","7.7","NY ALESUND, SV","FM-12","4","","14","22","","","-0.02","2","72","","30.11","30.08","","20","145","","3","","","","","","","","","","","","","","","","","","","","","","","","","","","","","","","","","","","","","","","","","","","","","","","","","","","","","","","","","","","","","","","","","","","","","","","","","","","","","","","","","","","","","","","","","","","SYN004BUFR","","","","","","","","","",""
"01007099999","2021-10-24T09:00:00","78.9166666","11.9333333","7.7","NY ALESUND, SV","FM-12","4","","11","20","","","-0.01","2","69","","30.13","30.10","","18","137","","5","","","","","","","","","","","","","","","","","","","","","","","","","","","","","","","","","","","","","","","","","","","","","","","","","","","","","","","","","","","","","","","","","","","","","","","","","","","","","","","","","","","","","","","","","","","SYN004BUFR","","","","","","","","","",""
"01007099999","2021-10-24T10:00:00","78.9166666","11.9333333","7.7","NY ALESUND, SV","FM-12","4","","10","19","","","-0.02","3","68","","30.14","30.11","","17","153","","3","","","","","","","","","","","","","","","","","","","","","","","","","","","","","","","","","","","","","","","","","","","","","","","","","","","","","","","","","","","","","","","","","","","","","","","","","","","","","","","","","","","","","","","","","","","SYN004BUFR","","","","","","","","","",""
"01007099999","2021-10-24T12:00:00","78.9166666","11.9333333","7.7","NY ALESUND, SV","FM-12","4","","13","20","","","-0.02","1","72","","30.15","30.12","","18","310","","2","","","","","","","","","","","","","","","","","","","","","","","","","","","","","","","","","","","","","","","","","","","","","","","","","","","","","","","","","","","","","","","","","","","","","","","","","","","","","","","","","","","","","","","","","","","SYN004BUFR","","","","","","","","","",""
"01007099999","2021-10-24T14:00:00","78.9166666","11.9333333","7.7","NY ALESUND, SV","FM-12","4","","14","20","","","-0.00","0","76","","30.14","30.11","","18","154","","8","","","","","","","","","","","","","","","","","","","","","","","","","","","","","","","","","","","","","","","","","","","","","","","","","","","","","","","","","","","","","","","","","","","","","","","","","","","","","","","","","","","","","","","","","","","SYN004BUFR","","","","","","","","","",""
"01007099999","2021-10-24T16:00:00","78.9166666","11.9333333","7.7","NY ALESUND, SV","FM-12","4","","13","21","","","+0.00","5","70","","30.15","30.12","","19","135","","7","","","","","","","","","","","","","","","","","","","","","","","","","","","","","","","","","","","","","","","","","","","","","","","","","","","","","","","","","","","","","","","","","","","","","","","","","","","","","","","","","","","","","","","","","","","SYN004BUFR","","","","","","","","","",""
"01007099999","2021-10-25T05:00:00","78.9166666","11.9333333","7.7","NY ALESUND, SV","FM-12","4","","11","20","","","+0.01","7","66","","30.13","30.10","","18","144","14","10","","","","","","","","","","","","","","","","","","","","","","","","","","","","","","","","","","","","","","","","","","","","","","","","","","","","","","","","","","","","","","","","","","","","","","","","","","","","","","","","","","","","","","","","","","","SYN004BUFR","","","","","","","","","",""
"01007099999","2021-10-25T06:00:00","78.9166666","11.9333333","7.7","NY ALESUND, SV","FM-12","4","","11","21","","","+0.01","7","66","","30.13","30.10","","18","139","15","11","","","","","","","","","","","","","","","","","","","","","","","","","","","","","","","","","","","","","","","","","","","","","","","","","","","","","","","","","","","","","","","","","","","","","","","","","","","","","","","","","","","","","","","","","","","SYN004BUFR","","","","","","","","","",""
"01007099999","2021-10-25T07:00:00","78.9166666","11.9333333","7.7","NY ALESUND, SV","FM-12","4","","11","21","","","-0.00","2","65","SCT:03 49","30.14","30.11","12.43","18","135","13","10","","","","","","","","","","","","","","","","","","","","","","","","","","","","","","","","","","","","","","","","","","","","","","","","","","","","","","","","","","","","","","","","","","","","","","","","","","","","","","","","","","","","","","","","","","","SYN004BUFR","","","","","","","","","",""
"01007099999","2021-10-25T08:00:00","78.9166666","11.9333333","7.7","NY ALESUND, SV","FM-12","4","","11","20","","","-0.01","2","68","","30.14","30.11","","18","137","18","9","","","","","","","","","","","","","","","","","","","","","","","","","","","","","","","","","","","","","","","","","","","","","","","","","","","","","","","","","","","","","","","","","","","","","","","","","","","","","","","","","","","","","","","","","","","SYN004BUFR","","","","","","","","","",""
"01007099999","2021-10-25T09:00:00","78.9166666","11.9333333","7.7","NY ALESUND, SV","FM-12","4","","11","20","","","-0.02","2","67","","30.16","30.13","","18","122","15","7","","","","","","","","","","","","","","","","","","","","","","","","","","","","","","","","","","","","","","","","","","","","","","","","","","","","","","","","","","","","","","","","","","","","","","","","","","","","","","","","","","","","","","","","","","","SYN004BUFR","","","","","","","","","",""
"01007099999","2021-10-25T12:00:00","78.9166666","11.9333333","7.7","NY ALESUND, SV","FM-12","4","","4","16","","","-0.01","0","60","","30.17","30.14","","13","148","","7","","","","","","","","","","","","","","","","","","","","","","","","","","","","","","","","","","","","","","","","","","","","","","","","","","","","","","","","","","","","","","","","","","","","","","","","","","","","","","","","","","","","","","","","","","","SYN004BUFR","","","","","","","","","",""
"01007099999","2021-10-25T14:00:00","78.9166666","11.9333333","7.7","NY ALESUND, SV","FM-12","4","","6","18","","","","","60","","30.17","30.14","","15","134","13","9","","","","","","","","","","","","","","","","","","","","","","","","","","","","","","","","","","","","","","","","","","","","","","","","","","","","","","","","","","","","","","","","","","","","","","","","","","","","","","","","","","","","","","","","","","","SYN004BUFR","","","","","","","","","",""
"01007099999","2021-10-25T15:00:00","78.9166666","11.9333333","7.7","NY ALESUND, SV","FM-12","4","","8","18","","","-0.01","2","62","","30.18","30.15","","15","154","12","5","","","","","","","","","","","","","","","","","","","","","","","","","","","","","","","","","","","","","","","","","","","","","","","","","","","","","","","","","","","","","","","","","","","","","","","","","","","","","","","","","","","","","","","","","","","SYN004BUFR","","","","","","","","","",""
"01007099999","2021-10-25T18:00:00","78.9166666","11.9333333","7.7","NY ALESUND, SV","FM-12","4","","13","22","","","+0.00","7","67","","30.17","30.14","","19","101","21","14","","","","","","","","","","","","","","","","","","","","","","","","","","","","","","","","","","","","","","","","","","","","","","","","","","","","","","","","","","","","","","","","","","","","","","","","","","","","","","","","","","","","","","","","","","","SYN004BUFR","","","","","","","","","",""
"01007099999","2021-10-25T20:00:00","78.9166666","11.9333333","7.7","NY ALESUND, SV","FM-12","4","","9","21","","","0.00","4","61","","30.17","30.14","","18","129","17","11","","","","","","","","","","","","","","","","","","","","","","","","","","","","","","","","","","","","","","","","","","","","","","","","","","","","","","","","","","","","","","","","","","","","","","","","","","","","","","","","","","","","","","","","","","","SYN004BUFR","","","","","","","","","",""
"01007099999","2021-10-25T23:00:00","78.9166666","11.9333333","7.7","NY ALESUND, SV","FM-12","4","","12","22","","","-0.01","2","66","","30.18","30.15","","19","127","23","10","","","","","","","","","","","","","","","","","","","","","","","","","","","","","","","","","","","","","","","","","","","","","","","","","","","","","","","","","","","","","","","","","","","","","","","","","","","","","","","","","","","","","","","","","","","SYN004BUFR","","","","","","","","","",""
"01007099999","2021-10-26T04:00:00","78.9166666","11.9333333","7.7","NY ALESUND, SV","FM-12","4","","11","21","","","+0.00","8","64","","30.16","30.13","","18","163","26","6","","","","","","","","","","","","","","","","","","","","","","","","","","","","","","","","","","","","","","","","","","","","","","","","","","","","","","","","","","","","","","","","","","","","","","","","","","","","","","","","","","","","","","","","","","","SYN004BUFR","","","","","","","","","",""
"01007099999","2021-10-26T06:00:00","78.9166666","11.9333333","7.7","NY ALESUND, SV","FM-12","4","","9","19","","","+0.01","5","65","","30.15","30.12","","16","261","","5","","","","","","","","","","","","","","","","","","","","","","","","","","","","","","","","","","","","","","","","","","","","","","","","","","","","","","","","","","","","","","","","","","","","","","","","","","","","","","","","","","","","","","","","","","","SYN004BUFR","","","","","","","","","",""
"01007099999","2021-10-26T08:00:00","78.9166666","11.9333333","7.7","NY ALESUND, SV","FM-12","4","","10","21","","","-0.01","3","64","","30.16","30.13","","18","123","19","10","","","","","","","","","","","","","","","","","","","","","","","","","","","","","","","","","","","","","","","","","","","","","","","","","","","","","","","","","","","","","","","","","","","","","","","","","","","","","","","","","","","","","","","","","","","SYN004BUFR","","","","","","","","","",""
"01007099999","2021-10-26T09:00:00","78.9166666","11.9333333","7.7","NY ALESUND, SV","FM-12","4","","9","20","","","-0.01","3","63","","30.16","30.13","","17","129","21","12","","","","","","","","","","","","","","","","","","","","","","","","","","","","","","","","","","","","","","","","","","","","","","","","","","","","","","","","","","","","","","","","","","","","","","","","","","","","","","","","","","","","","","","","","","","SYN004BUFR","","","","","","","","","",""
"01007099999","2021-10-26T10:00:00","78.9166666","11.9333333","7.7","NY ALESUND, SV","FM-12","4","","9","20","","","-0.01","0","61","","30.16","30.13","","17","139","22","11","","","","","","","","","","","","","","","","","","","","","","","","","","","","","","","","","","","","","","","","","","","","","","","","","","","","","","","","","","","","","","","","","","","","","","","","","","","","","","","","","","","","","","","","","","","SYN004BUFR","","","","","","","","","",""
"01007099999","2021-10-26T11:00:00","78.9166666","11.9333333","7.7","NY ALESUND, SV","FM-12","4","","9","20","","","-0.01","2","61","","30.16","30.13","","17","218","15","3","","","","","","","","","","","","","","","","","","","","","","","","","","","","","","","","","","","","","","","","","","","","","","","","","","","","","","","","","","","","","","","","","","","","","","","","","","","","","","","","","","","","","","","","","","","SYN004BUFR","","","","","","","","","",""
"01007099999","2021-10-26T13:00:00","78.9166666","11.9333333","7.7","NY ALESUND, SV","FM-12","4","","8","19","","","-0.00","0","63","SCT:04 66","30.16","30.13","34.18","16","125","15","10","","","","","","","","","","","","","","","","","","","","","","","","","","","","","","","","","","","","","","","","","","","","","","","","","","","","","","","","","","","","","","","","","","","","","","","","","","","","","","","","","","","","","","","","","","","SYN004BUFR","","","","","","","","","",""
"01007099999","2021-10-26T14:00:00","78.9166666","11.9333333","7.7","NY ALESUND, SV","FM-12","4","","9","20","","","+0.01","8","62","","30.16","30.13","","17","130","17","10","","","","","","","","","","","","","","","","","","","","","","","","","","","","","","","","","","","","","","","","","","","","","","","","","","","","","","","","","","","","","","","","","","","","","","","","","","","","","","","","","","","","","","","","","","","SYN004BUFR","","","","","","","","","",""
"01007099999","2021-10-26T15:00:00","78.9166666","11.9333333","7.7","NY ALESUND, SV","FM-12","4","","7","19","","","+0.01","7","59","","30.15","30.12","","16","207","14","3","","","","","","","","","","","","","","","","","","","","","","","","","","","","","","","","","","","","","","","","","","","","","","","","","","","","","","","","","","","","","","","","","","","","","","","","","","","","","","","","","","","","","","","","","","","SYN004BUFR","","","","","","","","","",""
"01007099999","2021-10-26T16:00:00","78.9166666","11.9333333","7.7","NY ALESUND, SV","FM-12","4","","6","18","","","+0.02","7","60","","30.14","30.11","","15","130","19","8","","","","","","","","","","","","","","","","","","","","","","","","","","","","","","","","","","","","","","","","","","","","","","","","","","","","","","","","","","","","","","","","","","","","","","","","","","","","","","","","","","","","","","","","","","","SYN004BUFR","","","","","","","","","",""
"01007099999","2021-10-26T17:00:00","78.9166666","11.9333333","7.7","NY ALESUND, SV","FM-12","4","","9","19","","","+0.01","7","64","","30.14","30.11","","16","135","19","12","","","","","","","","","","","","","","","","","","","","","","","","","","","","","","","","","","","","","","","","","","","","","","","","","","","","","","","","","","","","","","","","","","","","","","","","","","","","","","","","","","","","","","","","","","","SYN004BUFR","","","","","","","","","",""
"01007099999","2021-10-26T18:00:00","78.9166666","11.9333333","7.7","NY ALESUND, SV","FM-12","4","","8","19","","","+0.01","7","64","","30.14","30.11","","16","145","21","9","","","","","","","","","","","","","","","","","","","","","","","","","","","","","","","","","","","","","","","","","","","","","","","","","","","","","","","","","","","","","","","","","","","","","","","","","","","","","","","","","","","","","","","","","","","SYN004BUFR","","","","","","","","","",""
"01007099999","2021-10-26T19:00:00","78.9166666","11.9333333","7.7","NY ALESUND, SV","FM-12","4","","9","18","","","+0.01","7","69","","30.14","30.11","46.60","16","142","19","12","","","","","","","","","","","","","","","","","","","","","","","","","","","","","","","","","","","","","","","","","","","","","","","","","","","","","","","","","","","","","","","","","","","","","","","","","","","","","","","","","","","","","","","","","","","SYN004BUFR","","","","","","","","","",""
"01007099999","2021-10-26T21:00:00","78.9166666","11.9333333","7.7","NY ALESUND, SV","FM-12","4","","10","19","","","+0.01","8","68","","30.12","30.09","","17","147","17","11","","","","","","","","","","","","","","","","","","","","","","","","","","","","","","","","","","","","","","","","","","","","","","","","","","","","","","","","","","","","","","","","","","","","","","","","","","","","","","","","","","","","","","","","","","","SYN004BUFR","","","","","","","","","",""
"01007099999","2021-10-26T22:00:00","78.9166666","11.9333333","7.7","NY ALESUND, SV","FM-12","4","","11","18","","","+0.02","7","71","","30.11","30.09","","16","148","17","13","","","","","","","","","","","","","","","","","","","","","","","","","","","","","","","","","","","","","","","","","","","","","","","","","","","","","","","","","","","","","","","","","","","","","","","","","","","","","","","","","","","","","","","","","","","SYN004BUFR","","","","","","","","","",""
"01007099999","2021-10-26T23:00:00","78.9166666","11.9333333","7.7","NY ALESUND, SV","FM-12","4","","11","18","","","+0.03","8","72","","30.10","30.07","","16","148","17","11","","","","","","","","","","","","","","","","","","","","","","","","","","","","","","","","","","","","","","","","","","","","","","","","","","","","","","","","","","","","","","","","","","","","","","","","","","","","","","","","","","","","","","","","","","","SYN004BUFR","","","","","","","","","",""
"01007099999","2021-10-27T02:00:00","78.9166666","11.9333333","7.7","NY ALESUND, SV","FM-12","4","","13","20","","","+0.05","7","72","","30.05","30.02","","18","148","17","13","","","","","","","","","","","","","","","","","","","","","","","","","","","","","","","","","","","","","","","","","","","","","","","","","","","","","","","","","","","","","","","","","","","","","","","","","","","","","","","","","","","","","","","","","","","SYN004BUFR","","","","","","","","","",""
"01007099999","2021-10-27T03:00:00","78.9166666","11.9333333","7.7","NY ALESUND, SV","FM-12","4","","15","23","","","+0.05","7","73","","30.03","30.00","","21","134","25","12","","","","","","","","","","","","","","","","","","","","","","","","","","","","","","","","","","","","","","","","","","","","","","","","","","","","","","","","","","","","","","","","","","","","","","","","","","","","","","","","","","","","","","","","","","","SYN004BUFR","","","","","","","","","",""
"01007099999","2021-10-27T05:00:00","78.9166666","11.9333333","7.7","NY ALESUND, SV","FM-12","4","","13","24","","","+0.06","7","64","","30.00","29.97","","21","145","21","5","","","","","","","","","","","","","","","","","","","","","","","","","","","","","","","","","","","","","","","","","","","","","","","","","","","","","","","","","","","","","","","","","","","","","","","","","","","","","","","","","","","","","","","","","","","SYN004BUFR","","","","","","","","","",""
"01007099999","2021-10-27T06:00:00","78.9166666","11.9333333","7.7","NY ALESUND, SV","FM-12","4","","14","23","","","+0.04","6","69","","29.99","29.96","","20","134","21","16","","","","","","","","","","","","","","","","","","","","","","","","","","","","","","","","","","","","","","","","","","","","","","","","","","","","","","","","","","","","","","","","","","","","","","","","","","","","","","","","","","","","","","","","","","","SYN004BUFR","","","","","","","","","",""
"01007099999","2021-10-27T07:00:00","78.9166666","11.9333333","7.7","NY ALESUND, SV","FM-12","4","","15","23","","","+0.03","6","70","SCT:03 49","29.99","29.96","31.07","21","119","27","17","","","","","","","","","","","","","","","","","","","","","","","","","","","","","","","","","","","","","","","","","","","","","","","","","","","","","","","","","","","","","","","","","","","","","","","","","","","","","","","","","","","","","","","","","","","SYN004BUFR","","","","","","","","","",""
"01007099999","2021-10-27T08:00:00","78.9166666","11.9333333","7.7","NY ALESUND, SV","FM-12","4","","14","23","","","+0.01","7","69","","29.99","29.96","","20","112","24","16","","","","","","","","","","","","","","","","","","","","","","","","","","","","","","","","","","","","","","","","","","","","","","","","","","","","","","","","","","","","","","","","","","","","","","","","","","","","","","","","","","","","","","","","","","","SYN004BUFR","","","","","","","","","",""
"01007099999","2021-10-27T09:00:00","78.9166666","11.9333333","7.7","NY ALESUND, SV","FM-12","4","","13","22","","","+0.01","8","69","","29.98","29.96","","19","125","23","17","","","","","","","","","","","","","","","","","","","","","","","","","","","","","","","","","","","","","","","","","","","","","","","","","","","","","","","","","","","","","","","","","","","","","","","","","","","","","","","","","","","","","","","","","","","SYN004BUFR","","","","","","","","","",""
"01007099999","2021-10-27T10:00:00","78.9166666","11.9333333","7.7","NY ALESUND, SV","FM-12","4","","14","22","","","+0.01","7","70","","29.98","29.95","","20","130","22","18","","","","","","","","","","","","","","","","","","","","","","","","","","","","","","","","","","","","","","","","","","","","","","","","","","","","","","","","","","","","","","","","","","","","","","","","","","","","","","","","","","","","","","","","","","","SYN004BUFR","","","","","","","","","",""
"01007099999","2021-10-27T11:00:00","78.9166666","11.9333333","7.7","NY ALESUND, SV","FM-12","4","","16","24","","","+0.03","8","71","","29.96","29.93","","22","107","28","24","","","","","","","","","","","","","","","","","","","","","","","","","","","","","","","","","","","","","","","","","","","","","","","","","","","","","","","","","","","","","","","","","","","","","","","","","","","","","","","","","","","","","","","","","","","SYN004BUFR","","","","","","","","","",""
"01007099999","2021-10-27T13:00:00","78.9166666","11.9333333","7.7","NY ALESUND, SV","FM-12","4","","11","22","","","+0.05","7","63","FEW:02 49","29.93","29.91","46.60","19","135","18","6","","","","","","","","","","","","","","","","","","","","","","","","","","","","","","","","","","","","","","","","","","","","","","","","","","","","","","","","","","","","","","","","","","","","","","","","","","","","","","","","","","","","","","","","","","","SYN004BUFR","","","","","","","","","",""
"01007099999","2021-10-27T15:00:00","78.9166666","11.9333333","7.7","NY ALESUND, SV","FM-12","4","","18","27","","","+0.04","6","70","","29.91","29.88","","24","112","29","22","","","","","","","","","","","","","","","","","","","","","","","","","","","","","","","","","","","","","","","","","","","","","","","","","","","","","","","","","","","","","","","","","","","","","","","","","","","","","","","","","","","","","","","","","","","SYN004BUFR","","","","","","","","","",""
"01007099999","2021-10-27T17:00:00","78.9166666","11.9333333","7.7","NY ALESUND, SV","FM-12","4","","16","24","","","+0.03","7","71","","29.89","29.86","","22","126","27","19","","","","","","","","","","","","","","","","","","","","","","","","","","","","","","","","","","","","","","","","","","","","","","","","","","","","","","","","","","","","","","","","","","","","","","","","","","","","","","","","","","","","","","","","","","","SYN004BUFR","","","","","","","","","",""
"01007099999","2021-10-27T18:00:00","78.9166666","11.9333333","7.7","NY ALESUND, SV","FM-12","4","","18","27","","","+0.04","7","71","","29.88","29.85","","24","118","27","17","","","","","","","","","","","","","","","","","","","","","","","","","","","","","","","","","","","","","","","","","","","","","","","","","","","","","","","","","","","","","","","","","","","","","","","","","","","","","","","","","","","","","","","","","","","SYN004BUFR","","","","","","","","","",""
"01007099999","2021-10-27T22:00:00","78.9166666","11.9333333","7.7","NY ALESUND, SV","FM-12","4","","17","28","","","+0.01","7","63","","29.86","29.83","","25","124","20","11","","","","","","","","","","","","","","","","","","","","","","","","","","","","","","","","","","","","","","","","","","","","","","","","","","","","","","","","","","","","","","","","","","","","","","","","","","","","","","","","","","","","","","","","","","","SYN004BUFR","","","","","","","","","",""
"01007099999","2021-10-27T23:00:00","78.9166666","11.9333333","7.7","NY ALESUND, SV","FM-12","4","","18","27","","","+0.01","7","69","","29.86","29.83","","24","117","23","18","","","","","","","","","","","","","","","","","","","","","","","","","","","","","","","","","","","","","","","","","","","","","","","","","","","","","","","","","","","","","","","","","","","","","","","","","","","","","","","","","","","","","","","","","","","SYN004BUFR","","","","","","","","","",""
"01007099999","2021-10-28T02:00:00","78.9166666","11.9333333","7.7","NY ALESUND, SV","FM-12","4","","17","26","","","+0.02","8","70","","29.84","29.81","","23","125","28","18","","","","","","","","","","","","","","","","","","","","","","","","","","","","","","","","","","","","","","","","","","","","","","","","","","","","","","","","","","","","","","","","","","","","","","","","","","","","","","","","","","","","","","","","","","","SYN004BUFR","","","","","","","","","",""
"01007099999","2021-10-28T03:00:00","78.9166666","11.9333333","7.7","NY ALESUND, SV","FM-12","4","","17","26","","","+0.04","7","69","","29.82","29.79","","23","127","26","13","","","","","","","","","","","","","","","","","","","","","","","","","","","","","","","","","","","","","","","","","","","","","","","","","","","","","","","","","","","","","","","","","","","","","","","","","","","","","","","","","","","","","","","","","","","SYN004BUFR","","","","","","","","","",""
"01007099999","2021-10-28T04:00:00","78.9166666","11.9333333","7.7","NY ALESUND, SV","FM-12","4","","18","28","","","+0.02","7","65","","29.82","29.79","","25","115","23","17","","","","","","","","","","","","","","","","","","","","","","","","","","","","","","","","","","","","","","","","","","","","","","","","","","","","","","","","","","","","","","","","","","","","","","","","","","","","","","","","","","","","","","","","","","","SYN004BUFR","","","","","","","","","",""
"01007099999","2021-10-28T05:00:00","78.9166666","11.9333333","7.7","NY ALESUND, SV","FM-12","4","","15","24","","","+0.03","6","67","","29.81","29.78","","21","128","28","16","","","","","","","","","","","","","","","","","","","","","","","","","","","","","","","","","","","","","","","","","","","","","","","","","","","","","","","","","","","","","","","","","","","","","","","","","","","","","","","","","","","","","","","","","","","SYN004BUFR","","","","","","","","","",""
"01007099999","2021-10-28T06:00:00","78.9166666","11.9333333","7.7","NY ALESUND, SV","FM-12","4","","14","25","","","+0.02","7","62","","29.80","29.77","","22","127","23","15","","","","","","","","","","","","","","","","","","","","","","","","","","","","","","","","","","","","","","","","","","","","","","","","","","","","","","","","","","","","","","","","","","","","","","","","","","","","","","","","","","","","","","","","","","","SYN004BUFR","","","","","","","","","",""
"01007099999","2021-10-28T09:00:00","78.9166666","11.9333333","7.7","NY ALESUND, SV","FM-12","4","","15","24","","","-0.01","2","66","","29.80","29.78","","21","140","19","12","","","","","","","","","","","","","","","","","","","","","","","","","","","","","","","","","","","","","","","","","","","","","","","","","","","","","","","","","","","","","","","","","","","","","","","","","","","","","","","","","","","","","","","","","","","SYN004BUFR","","","","","","","","","",""
"01007099999","2021-10-28T10:00:00","78.9166666","11.9333333","7.7","NY ALESUND, SV","FM-12","4","","14","24","","","-0.01","2","66","","29.80","29.78","","21","135","19","14","","","","","","","","","","","","","","","","","","","","","","","","","","","","","","","","","","","","","","","","","","","","","","","","","","","","","","","","","","","","","","","","","","","","","","","","","","","","","","","","","","","","","","","","","","","SYN004BUFR","","","","","","","","","",""
"01007099999","2021-10-28T11:00:00","78.9166666","11.9333333","7.7","NY ALESUND, SV","FM-12","4","","18","25","","","+0.01","8","74","","29.80","29.77","","23","130","23","11","","","","","","","","","","","","","","","","","","","","","","","","","","","","","","","","","","","","","","","","","","","","","","","","","","","","","","","","","","","","","","","","","","","","","","","","","","","","","","","","","","","","","","","","","","","SYN004BUFR","","","","","","","","","",""
"01007099999","2021-10-28T16:00:00","78.9166666","11.9333333","7.7","NY ALESUND, SV","FM-12","4","","17","25","","","+0.02","7","71","","29.76","29.73","","23","137","20","12","","","","","","","","","","","","","","","","","","","","","","","","","","","","","","","","","","","","","","","","","","","","","","","","","","","","","","","","","","","","","","","","","","","","","","","","","","","","","","","","","","","","","","","","","","","SYN004BUFR","","","","","","","","","",""
"01007099999","2021-10-28T19:00:00","78.9166666","11.9333333","7.7","NY ALESUND, SV","FM-12","4","","15","24","","","+0.02","7","68","SCT:03 49","29.74","29.71","46.60","21","142","17","12","","","","","","","","","","","","","","","","","","","","","","","","","","","","","","","","","","","","","","","","","","","","","","","","","","","","","","","","","","","","","","","","","","","","","","","","","","","","","","","","","","","","","","","","","","","SYN004BUFR","","","","","","","","","",""
"01007099999","2021-10-28T21:00:00","78.9166666","11.9333333","7.7","NY ALESUND, SV","FM-12","4","","15","25","","","+0.01","7","65","","29.73","29.70","","22","130","20","14","","","","","","","","","","","","","","","","","","","","","","","","","","","","","","","","","","","","","","","","","","","","","","","","","","","","","","","","","","","","","","","","","","","","","","","","","","","","","","","","","","","","","","","","","","","SYN004BUFR","","","","","","","","","",""
"01007099999","2021-10-28T22:00:00","78.9166666","11.9333333","7.7","NY ALESUND, SV","FM-12","4","","14","24","","","+0.01","7","65","","29.72","29.70","","21","148","20","10","","","","","","","","","","","","","","","","","","","","","","","","","","","","","","","","","","","","","","","","","","","","","","","","","","","","","","","","","","","","","","","","","","","","","","","","","","","","","","","","","","","","","","","","","","","SYN004BUFR","","","","","","","","","",""
"01007099999","2021-10-29T01:00:00","78.9166666","11.9333333","7.7","NY ALESUND, SV","FM-12","4","","13","25","","","+0.01","7","61","","29.71","29.68","","21","130","16","10","","","","","","","","","","","","","","","","","","","","","","","","","","","","","","","","","","","","","","","","","","","","","","","","","","","","","","","","","","","","","","","","","","","","","","","","","","","","","","","","","","","","","","","","","","","SYN004BUFR","","","","","","","","","",""
"01007099999","2021-10-29T02:00:00","78.9166666","11.9333333","7.7","NY ALESUND, SV","FM-12","4","","17","25","","","+0.01","7","69","","29.71","29.68","","23","149","13","6","","","","","","","","","","","","","","","","","","","","","","","","","","","","","","","","","","","","","","","","","","","","","","","","","","","","","","","","","","","","","","","","","","","","","","","","","","","","","","","","","","","","","","","","","","","SYN004BUFR","","","","","","","","","",""
"01007099999","2021-10-29T04:00:00","78.9166666","11.9333333","7.7","NY ALESUND, SV","FM-12","4","","14","25","","","+0.01","7","63","","29.70","29.67","","22","146","","4","","","","","","","","","","","","","","","","","","","","","","","","","","","","","","","","","","","","","","","","","","","","","","","","","","","","","","","","","","","","","","","","","","","","","","","","","","","","","","","","","","","","","","","","","","","SYN004BUFR","","","","","","","","","",""
"01007099999","2021-10-29T05:00:00","78.9166666","11.9333333","7.7","NY ALESUND, SV","FM-12","4","","14","25","","","+0.01","7","63","","29.70","29.67","","22","172","13","4","","","","","","","","","","","","","","","","","","","","","","","","","","","","","","","","","","","","","","","","","","","","","","","","","","","","","","","","","","","","","","","","","","","","","","","","","","","","","","","","","","","","","","","","","","","SYN004BUFR","","","","","","","","","",""
"01007099999","2021-10-29T06:00:00","78.9166666","11.9333333","7.7","NY ALESUND, SV","FM-12","4","","15","26","","","+0.01","7","63","","29.70","29.67","","23","223","","3","","","","","","","","","","","","","","","","","","","","","","","","","","","","","","","","","","","","","","","","","","","","","","","","","","","","","","","","","","","","","","","","","","","","","","","","","","","","","","","","","","","","","","","","","","","SYN004BUFR","","","","","","","","","",""
"01007099999","2021-10-29T07:00:00","78.9166666","11.9333333","7.7","NY ALESUND, SV","FM-12","4","","14","24","","","0.00","4","67","FEW:01 49","29.70","29.67","15.53","21","266","13","4","","","","","","","","","","","","","","","","","","","","","","","","","","","","","","","","","","","","","","","","","","","","","","","","","","","","","","","","","","","","","","","","","","","","","","","","","","","","","","","","","","","","","","","","","","","SYN004BUFR","","","","","","","","","",""
"01007099999","2021-10-29T08:00:00","78.9166666","11.9333333","7.7","NY ALESUND, SV","FM-12","4","","16","24","","","-0.01","2","71","","29.71","29.68","","22","105","12","7","","","","","","","","","","","","","","","","","","","","","","","","","","","","","","","","","","","","","","","","","","","","","","","","","","","","","","","","","","","","","","","","","","","","","","","","","","","","","","","","","","","","","","","","","","","SYN004BUFR","","","","","","","","","",""
"01007099999","2021-10-29T09:00:00","78.9166666","11.9333333","7.7","NY ALESUND, SV","FM-12","4","","15","24","","","-0.02","2","71","","29.72","29.69","","21","109","12","5","","","","","","","","","","","","","","","","","","","","","","","","","","","","","","","","","","","","","","","","","","","","","","","","","","","","","","","","","","","","","","","","","","","","","","","","","","","","","","","","","","","","","","","","","","","SYN004BUFR","","","","","","","","","",""
"01007099999","2021-10-29T10:00:00","78.9166666","11.9333333","7.7","NY ALESUND, SV","FM-12","4","","14","23","","","-0.03","2","69","","29.73","29.70","","20","141","","7","","","","","","","","","","","","","","","","","","","","","","","","","","","","","","","","","","","","","","","","","","","","","","","","","","","","","","","","","","","","","","","","","","","","","","","","","","","","","","","","","","","","","","","","","","","SYN004BUFR","","","","","","","","","",""
"01007099999","2021-10-29T11:00:00","78.9166666","11.9333333","7.7","NY ALESUND, SV","FM-12","4","","15","23","","","-0.02","0","70","","29.73","29.70","","21","128","15","8","","","","","","","","","","","","","","","","","","","","","","","","","","","","","","","","","","","","","","","","","","","","","","","","","","","","","","","","","","","","","","","","","","","","","","","","","","","","","","","","","","","","","","","","","","","SYN004BUFR","","","","","","","","","",""
"01007099999","2021-10-29T13:00:00","78.9166666","11.9333333","7.7","NY ALESUND, SV","FM-12","4","","14","22","","","-0.01","2","70","FEW:02 49","29.74","29.71","40.39","20","188","13","4","","","","","","","","","","","","","","","","","","","","","","","","","","","","","","","","","","","","","","","","","","","","","","","","","","","","","","","","","","","","","","","","","","","","","","","","","","","","","","","","","","","","","","","","","","","SYN004BUFR","","","","","","","","","",""
"01007099999","2021-10-29T14:00:00","78.9166666","11.9333333","7.7","NY ALESUND, SV","FM-12","4","","14","23","","","-0.02","2","68","","29.75","29.72","","20","137","15","10","","","","","","","","","","","","","","","","","","","","","","","","","","","","","","","","","","","","","","","","","","","","","","","","","","","","","","","","","","","","","","","","","","","","","","","","","","","","","","","","","","","","","","","","","","","SYN004BUFR","","","","","","","","","",""
"01007099999","2021-10-29T16:00:00","78.9166666","11.9333333","7.7","NY ALESUND, SV","FM-12","4","","13","21","","","-0.02","2","70","","29.76","29.73","","19","159","15","10","","","","","","","","","","","","","","","","","","","","","","","","","","","","","","","","","","","","","","","","","","","","","","","","","","","","","","","","","","","","","","","","","","","","","","","","","","","","","","","","","","","","","","","","","","","SYN004BUFR","","","","","","","","","",""
"01007099999","2021-10-29T21:00:00","78.9166666","11.9333333","7.7","NY ALESUND, SV","FM-12","4","","14","24","","","-0.02","2","68","","29.80","29.77","","21","139","","6","","","","","","","","","","","","","","","","","","","","","","","","","","","","","","","","","","","","","","","","","","","","","","","","","","","","","","","","","","","","","","","","","","","","","","","","","","","","","","","","","","","","","","","","","","","SYN004BUFR","","","","","","","","","",""
"01007099999","2021-10-29T22:00:00","78.9166666","11.9333333","7.7","NY ALESUND, SV","FM-12","4","","13","23","","","-0.02","2","64","","29.81","29.78","","20","141","13","8","","","","","","","","","","","","","","","","","","","","","","","","","","","","","","","","","","","","","","","","","","","","","","","","","","","","","","","","","","","","","","","","","","","","","","","","","","","","","","","","","","","","","","","","","","","SYN004BUFR","","","","","","","","","",""
"01007099999","2021-10-30T00:00:00","78.9166666","11.9333333","7.7","NY ALESUND, SV","FM-12","4","","13","24","","","-0.02","2","63","","29.83","29.80","","21","152","17","4","","","","","","","","","","","","","","","","","","","","","","","","","","","","","","","","","","","","","","","","","","","","","","","","","","","","","","","","","","","","","","","","","","","","","","","","","","","","","","","","","","","","","","","","","","","SYN004BUFR","","","","","","","","","",""
"01007099999","2021-10-30T01:00:00","78.9166666","11.9333333","7.7","NY ALESUND, SV","FM-12","4","","13","24","","","-0.02","2","61","","29.83","29.80","","21","249","17","4","","","","","","","","","","","","","","","","","","","","","","","","","","","","","","","","","","","","","","","","","","","","","","","","","","","","","","","","","","","","","","","","","","","","","","","","","","","","","","","","","","","","","","","","","","","SYN004BUFR","","","","","","","","","",""
"01007099999","2021-10-30T03:00:00","78.9166666","11.9333333","7.7","NY ALESUND, SV","FM-12","4","","15","25","","","-0.01","2","65","","29.83","29.80","","22","144","19","7","","","","","","","","","","","","","","","","","","","","","","","","","","","","","","","","","","","","","","","","","","","","","","","","","","","","","","","","","","","","","","","","","","","","","","","","","","","","","","","","","","","","","","","","","","","SYN004BUFR","","","","","","","","","",""
"01007099999","2021-10-30T05:00:00","78.9166666","11.9333333","7.7","NY ALESUND, SV","FM-12","4","","16","26","","","-0.00","2","66","","29.83","29.80","","23","119","17","13","","","","","","","","","","","","","","","","","","","","","","","","","","","","","","","","","","","","","","","","","","","","","","","","","","","","","","","","","","","","","","","","","","","","","","","","","","","","","","","","","","","","","","","","","","","SYN004BUFR","","","","","","","","","",""
"01007099999","2021-10-30T06:00:00","78.9166666","11.9333333","7.7","NY ALESUND, SV","FM-12","4","","14","25","","","0.00","4","64","","29.83","29.80","","22","198","19","2","","","","","","","","","","","","","","","","","","","","","","","","","","","","","","","","","","","","","","","","","","","","","","","","","","","","","","","","","","","","","","","","","","","","","","","","","","","","","","","","","","","","","","","","","","","SYN004BUFR","","","","","","","","","",""
"01007099999","2021-10-30T07:00:00","78.9166666","11.9333333","7.7","NY ALESUND, SV","FM-12","4","","14","26","","","-0.01","2","62","BKN:05 49","29.83","29.80","43.50","22","159","19","2","","","","","","","","","","","","","","","","","","","","","","","","","","","","","","","","","","","","","","","","","","","","","","","","","","","","","","","","","","","","","","","","","","","","","","","","","","","","","","","","","","","","","","","","","","","SYN004BUFR","","","","","","","","","",""
"01007099999","2021-10-30T08:00:00","78.9166666","11.9333333","7.7","NY ALESUND, SV","FM-12","4","","15","26","","","-0.01","2","62","","29.84","29.81","","23","131","15","10","","","","","","","","","","","","","","","","","","","","","","","","","","","","","","","","","","","","","","","","","","","","","","","","","","","","","","","","","","","","","","","","","","","","","","","","","","","","","","","","","","","","","","","","","","","SYN004BUFR","","","","","","","","","",""
"01007099999","2021-10-30T14:00:00","78.9166666","11.9333333","7.7","NY ALESUND, SV","FM-12","4","","18","27","","","-0.02","3","71","","29.89","29.86","","24","140","23","14","","","","","","","","","","","","","","","","","","","","","","","","","","","","","","","","","","","","","","","","","","","","","","","","","","","","","","","","","","","","","","","","","","","","","","","","","","","","","","","","","","","","","","","","","","","SYN004BUFR","","","","","","","","","",""
"01007099999","2021-10-30T15:00:00","78.9166666","11.9333333","7.7","NY ALESUND, SV","FM-12","4","","20","27","","","-0.02","2","72","","29.89","29.86","","25","147","25","11","","","","","","","","","","","","","","","","","","","","","","","","","","","","","","","","","","","","","","","","","","","","","","","","","","","","","","","","","","","","","","","","","","","","","","","","","","","","","","","","","","","","","","","","","","","SYN004BUFR","","","","","","","","","",""
"01007099999","2021-10-30T16:00:00","78.9166666","11.9333333","7.7","NY ALESUND, SV","FM-12","4","","24","26","0.02","","-0.02","3","92","","29.90","29.87","","25","271","14","1","","","","","","","","","","","","","","","","","","","","","","","","","","","","","","","","","","","","","","","","","","","","","","","","","","","","","","","","","","","","","","","","","","","","","","","","","","","","","","","","","","","","","","","","","","","SYN004BUFR","","","","","","","","","",""
"01007099999","2021-10-30T19:00:00","78.9166666","11.9333333","7.7","NY ALESUND, SV","FM-12","4","","25","27","0.00","","-0.02","2","93","VV:09","29.92","29.89","3.11","26","286","25","3","","","","","","","","","","","","","","","","","","","","","","","","","","","","","","","","","","","","","","","","","","","","","","","","","","","","","","","","","","","","","","","","","","","","","","","","","","","","","","","","","","","","","","","","","","","SYN004BUFR","","","","","","","","","",""
"01007099999","2021-10-30T20:00:00","78.9166666","11.9333333","7.7","NY ALESUND, SV","FM-12","4","","24","27","","","-0.02","2","91","","29.93","29.90","","26","276","","3","","","","","","","","","","","","","","","","","","","","","","","","","","","","","","","","","","","","","","","","","","","","","","","","","","","","","","","","","","","","","","","","","","","","","","","","","","","","","","","","","","","","","","","","","","","SYN004BUFR","","","","","","","","","",""
"01007099999","2021-10-30T21:00:00","78.9166666","11.9333333","7.7","NY ALESUND, SV","FM-12","4","","24","26","","","-0.03","2","92","","29.93","29.91","","25","313","","4","","","","","","","","","","","","","","","","","","","","","","","","","","","","","","","","","","","","","","","","","","","","","","","","","","","","","","","","","","","","","","","","","","","","","","","","","","","","","","","","","","","","","","","","","","","SYN004BUFR","","","","","","","","","",""
"01007099999","2021-10-31T00:00:00","78.9166666","11.9333333","7.7","NY ALESUND, SV","FM-12","4","","22","27","","","-0.01","0","81","","29.94","29.91","","25","204","","2","","","","","","","","","","","","","","","","","","","","","","","","","","","","","","","","","","","","","","","","","","","","","","","","","","","","","","","","","","","","","","","","","","","","","","","","","","","","","","","","","","","","","","","","","","","SYN004BUFR","","","","","","","","","",""
"01007099999","2021-10-31T03:00:00","78.9166666","11.9333333","7.7","NY ALESUND, SV","FM-12","4","","25","29","","","+0.03","7","83","","29.91","29.88","","28","133","13","10","","","","","","","","","","","","","","","","","","","","","","","","","","","","","","","","","","","","","","","","","","","","","","","","","","","","","","","","","","","","","","","","","","","","","","","","","","","","","","","","","","","","","","","","","","","SYN004BUFR","","","","","","","","","",""
"01007099999","2021-10-31T06:00:00","78.9166666","11.9333333","7.7","NY ALESUND, SV","FM-12","4","","23","29","","","+0.05","7","80","","29.86","29.83","","27","128","29","20","","","","","","","","","","","","","","","","","","","","","","","","","","","","","","","","","","","","","","","","","","","","","","","","","","","","","","","","","","","","","","","","","","","","","","","","","","","","","","","","","","","","","","","","","","","SYN004BUFR","","","","","","","","","",""
"01007099999","2021-10-31T09:00:00","78.9166666","11.9333333","7.7","NY ALESUND, SV","FM-12","4","","26","31","","","+0.04","5","83","","29.83","29.80","","29","115","26","16","","","","","","","","","","","","","","","","","","","","","","","","","","","","","","","","","","","","","","","","","","","","","","","","","","","","","","","","","","","","","","","","","","","","","","","","","","","","","","","","","","","","","","","","","","","SYN004BUFR","","","","","","","","","",""
"01007099999","2021-10-31T10:00:00","78.9166666","11.9333333","7.7","NY ALESUND, SV","FM-12","4","","25","33","0.00","","+0.03","6","73","","29.82","29.79","","30","126","24","5","","","","","","","","","","","","","","","","","","","","","","","","","","","","","","","","","","","","","","","","","","","","","","","","","","","","","","","","","","","","","","","","","","","","","","","","","","","","","","","","","","","","","","","","","","","SYN004BUFR","","","","","","","","","",""
"01007099999","2021-10-31T11:00:00","78.9166666","11.9333333","7.7","NY ALESUND, SV","FM-12","4","","25","35","0.00","","+0.03","7","67","","29.81","29.78","","31","152","32","18","","","","","","","","","","","","","","","","","","","","","","","","","","","","","","","","","","","","","","","","","","","","","","","","","","","","","","","","","","","","","","","","","","","","","","","","","","","","","","","","","","","","","","","","","","","SYN004BUFR","","","","","","","","","",""
"01007099999","2021-10-31T12:00:00","78.9166666","11.9333333","7.7","NY ALESUND, SV","FM-12","4","","27","33","0.00","","+0.02","6","79","","29.80","29.78","","31","158","28","13","","","","","","","","","","","","","","","","","","","","","","","","","","","","","","","","","","","","","","","","","","","","","","","","","","","","","","","","","","","","","","","","","","","","","","","","","","","","","","","","","","","","","","","","","","","SYN004BUFR","","","","","","","","","",""
"01007099999","2021-10-31T13:00:00","78.9166666","11.9333333","7.7","NY ALESUND, SV","FM-12","4","","28","32","0.00","","+0.01","6","87","OVC:08 3","29.80","29.78","1.24","31","116","26","10","","","","","","","","","","","","","","","","","","","","","","","","","","","","","","","","","","","","","","","","","","","","","","","","","","","","","","","","","","","","","","","","","","","","","","","","","","","","","","","","","","","","","","","","","","","SYN004BUFR","","","","","","","","","",""
"01007099999","2021-10-31T16:00:00","78.9166666","11.9333333","7.7","NY ALESUND, SV","FM-12","4","","28","32","0.00","","+0.03","8","84","","29.78","29.75","","31","108","22","16","","","","","","","","","","","","","","","","","","","","","","","","","","","","","","","","","","","","","","","","","","","","","","","","","","","","","","","","","","","","","","","","","","","","","","","","","","","","","","","","","","","","","","","","","","","SYN004BUFR","","","","","","","","","",""
"01007099999","2021-10-31T18:00:00","78.9166666","11.9333333","7.7","NY ALESUND, SV","FM-12","4","","27","32","0.00","","+0.03","6","82","","29.76","29.73","","30","114","22","12","","","","","","","","","","","","","","","","","","","","","","","","","","","","","","","","","","","","","","","","","","","","","","","","","","","","","","","","","","","","","","","","","","","","","","","","","","","","","","","","","","","","","","","","","","","SYN004BUFR","","","","","","","","","",""
"01007099999","2021-10-31T20:00:00","78.9166666","11.9333333","7.7","NY ALESUND, SV","FM-12","4","","24","34","","","+0.03","8","67","","29.73","29.70","","30","117","22","11","","","","","","","","","","","","","","","","","","","","","","","","","","","","","","","","","","","","","","","","","","","","","","","","","","","","","","","","","","","","","","","","","","","","","","","","","","","","","","","","","","","","","","","","","","","SYN004BUFR","","","","","","","","","",""
"01007099999","2021-10-31T22:00:00","78.9166666","11.9333333","7.7","NY ALESUND, SV","FM-12","4","","26","32","","","+0.04","6","78","","29.72","29.69","","30","112","27","20","","","","","","","","","","","","","","","","","","","","","","","","","","","","","","","","","","","","","","","","","","","","","","","","","","","","","","","","","","","","","","","","","","","","","","","","","","","","","","","","","","","","","","","","","","","SYN004BUFR","","","","","","","","","",""
"01007099999","2021-10-31T23:00:00","78.9166666","11.9333333","7.7","NY ALESUND, SV","FM-12","4","","27","32","","","+0.03","7","80","","29.71","29.68","","30","111","31","22","","","","","","","","","","","","","","","","","","","","","","","","","","","","","","","","","","","","","","","","","","","","","","","","","","","","","","","","","","","","","","","","","","","","","","","","","","","","","","","","","","","","","","","","","","","SYN004BUFR","","","","","","","","","",""
"01007099999","2021-11-01T00:00:00","78.9166666","11.9333333","7.7","NY ALESUND, SV","FM-12","4","","27","33","","","+0.04","8","78","","29.69","29.66","","31","113","32","22","","","","","","","","","","","","","","","","","","","","","","","","","","","","","","","","","","","","","","","","","","","","","","","","","","","","","","","","","","","","","","","","","","","","","","","","","","","","","","","","","","","","","","","","","","","SYN004BUFR","","","","","","","","","",""
"01007099999","2021-11-01T01:00:00","78.9166666","11.9333333","7.7","NY ALESUND, SV","FM-12","4","","27","33","","","+0.05","7","78","","29.66","29.63","","31","114","27","20","","","","","","","","","","","","","","","","","","","","","","","","","","","","","","","","","","","","","","","","","","","","","","","","","","","","","","","","","","","","","","","","","","","","","","","","","","","","","","","","","","","","","","","","","","","SYN004BUFR","","","","","","","","","",""
"01007099999","2021-11-01T02:00:00","78.9166666","11.9333333","7.7","NY ALESUND, SV","FM-12","4","","27","34","","","+0.06","7","76","","29.64","29.61","","31","110","27","17","","","","","","","","","","","","","","","","","","","","","","","","","","","","","","","","","","","","","","","","","","","","","","","","","","","","","","","","","","","","","","","","","","","","","","","","","","","","","","","","","","","","","","","","","","","SYN004BUFR","","","","","","","","","",""
"01007099999","2021-11-01T08:00:00","78.9166666","11.9333333","7.7","NY ALESUND, SV","FM-12","4","","27","34","","","+0.04","7","74","","29.54","29.51","","31","135","26","13","","","","","","","","","","","","","","","","","","","","","","","","","","","","","","","","","","","","","","","","","","","","","","","","","","","","","","","","","","","","","","","","","","","","","","","","","","","","","","","","","","","","","","","","","","","SYN004BUFR","","","","","","","","","",""
"01007099999","2021-11-01T13:00:00","78.9166666","11.9333333","7.7","NY ALESUND, SV","FM-12","4","","28","31","0.02","","+0.04","7","91","OVC:08 2","29.49","29.46","1.24","30","141","12","6","","","","","","","","","","","","","","","","","","","","","","","","","","","","","","","","","","","","","","","","","","","","","","","","","","","","","","","","","","","","","","","","","","","","","","","","","","","","","","","","","","","","","","","","","","","SYN004BUFR","","","","","","","","","",""
"01007099999","2021-11-01T14:00:00","78.9166666","11.9333333","7.7","NY ALESUND, SV","FM-12","4","","28","30","0.00","","+0.04","8","92","","29.47","29.44","","29","274","","4","","","","","","","","","","","","","","","","","","","","","","","","","","","","","","","","","","","","","","","","","","","","","","","","","","","","","","","","","","","","","","","","","","","","","","","","","","","","","","","","","","","","","","","","","","","SYN004BUFR","","","","","","","","","",""
"01007099999","2021-11-01T16:00:00","78.9166666","11.9333333","7.7","NY ALESUND, SV","FM-12","4","","25","27","0.01","","+0.03","6","92","","29.46","29.43","","26","315","23","19","","","","","","","","","","","","","","","","","","","","","","","","","","","","","","","","","","","","","","","","","","","","","","","","","","","","","","","","","","","","","","","","","","","","","","","","","","","","","","","","","","","","","","","","","","","SYN004BUFR","","","","","","","","","",""
"01007099999","2021-11-01T18:00:00","78.9166666","11.9333333","7.7","NY ALESUND, SV","FM-12","4","","20","23","0.01","","-0.01","3","89","","29.47","29.44","","22","306","32","22","","","","","","","","","","","","","","","","","","","","","","","","","","","","","","","","","","","","","","","","","","","","","","","","","","","","","","","","","","","","","","","","","","","","","","","","","","","","","","","","","","","","","","","","","","","SYN004BUFR","","","","","","","","","",""
"01007099999","2021-11-01T19:00:00","78.9166666","11.9333333","7.7","NY ALESUND, SV","FM-12","4","","19","22","0.01","||BLSN","-0.02","2","88","OVC:08 2","29.48","29.45","0.62","21","308","32","24","","","","","","","","","","","","","","","","","","","","","","","","","","","","","","","","","","","","","","","","","","","","","","","","","","","","","","","","","","","","","","","","","","","","","","","","","","","","","","","","","","","","","","","","","","","SYN004BUFR","","","","","","","","","",""
"01007099999","2021-11-02T03:00:00","78.9166666","11.9333333","7.7","NY ALESUND, SV","FM-12","4","","9","16","","","-0.01","0","75","","29.57","29.54","","14","321","28","18","","","","","","","","","","","","","","","","","","","","","","","","","","","","","","","","","","","","","","","","","","","","","","","","","","","","","","","","","","","","","","","","","","","","","","","","","","","","","","","","","","","","","","","","","","","SYN004BUFR","","","","","","","","","",""
"01007099999","2021-11-02T04:00:00","78.9166666","11.9333333","7.7","NY ALESUND, SV","FM-12","4","","11","16","","","+0.02","7","80","","29.57","29.54","","15","345","23","12","","","","","","","","","","","","","","","","","","","","","","","","","","","","","","","","","","","","","","","","","","","","","","","","","","","","","","","","","","","","","","","","","","","","","","","","","","","","","","","","","","","","","","","","","","","SYN004BUFR","","","","","","","","","",""
"01007099999","2021-11-02T06:00:00","78.9166666","11.9333333","7.7","NY ALESUND, SV","FM-12","4","","9","15","0.00","","+0.02","7","75","","29.55","29.52","","13","280","23","15","","","","","","","","","","","","","","","","","","","","","","","","","","","","","","","","","","","","","","","","","","","","","","","","","","","","","","","","","","","","","","","","","","","","","","","","","","","","","","","","","","","","","","","","","","","SYN004BUFR","","","","","","","","","",""
"01007099999","2021-11-02T10:00:00","78.9166666","11.9333333","7.7","NY ALESUND, SV","FM-12","4","","8","15","0.00","","+0.02","7","75","","29.53","29.50","","13","292","26","18","","","","","","","","","","","","","","","","","","","","","","","","","","","","","","","","","","","","","","","","","","","","","","","","","","","","","","","","","","","","","","","","","","","","","","","","","","","","","","","","","","","","","","","","","","","SYN004BUFR","","","","","","","","","",""
"01007099999","2021-11-02T11:00:00","78.9166666","11.9333333","7.7","NY ALESUND, SV","FM-12","4","","10","15","0.01","","+0.02","8","82","","29.52","29.49","","14","288","22","10","","","","","","","","","","","","","","","","","","","","","","","","","","","","","","","","","","","","","","","","","","","","","","","","","","","","","","","","","","","","","","","","","","","","","","","","","","","","","","","","","","","","","","","","","","","SYN004BUFR","","","","","","","","","",""
"01007099999","2021-11-02T12:00:00","78.9166666","11.9333333","7.7","NY ALESUND, SV","FM-12","4","","9","15","0.00","","+0.04","8","76","","29.49","29.47","","13","295","26","10","","","","","","","","","","","","","","","","","","","","","","","","","","","","","","","","","","","","","","","","","","","","","","","","","","","","","","","","","","","","","","","","","","","","","","","","","","","","","","","","","","","","","","","","","","","SYN004BUFR","","","","","","","","","",""
"01007099999","2021-11-02T13:00:00","78.9166666","11.9333333","7.7","NY ALESUND, SV","FM-12","4","","9","16","0.00","","+0.07","8","73","VV:09","29.47","29.44","0.50","14","282","30","19","","","","","","","","","","","","","","","","","","","","","","","","","","","","","","","","","","","","","","","","","","","","","","","","","","","","","","","","","","","","","","","","","","","","","","","","","","","","","","","","","","","","","","","","","","","SYN004BUFR","","","","","","","","","",""
"01007099999","2021-11-02T14:00:00","78.9166666","11.9333333","7.7","NY ALESUND, SV","FM-12","4","","11","16","0.01","","+0.08","7","80","","29.44","29.41","","15","277","34","20","","","","","","","","","","","","","","","","","","","","","","","","","","","","","","","","","","","","","","","","","","","","","","","","","","","","","","","","","","","","","","","","","","","","","","","","","","","","","","","","","","","","","","","","","","","SYN004BUFR","","","","","","","","","",""
"01007099999","2021-11-02T17:00:00","78.9166666","11.9333333","7.7","NY ALESUND, SV","FM-12","4","","12","16","0.00","","+0.10","7","84","","29.34","29.31","","15","261","46","29","","","","","","","","","","","","","","","","","","","","","","","","","","","","","","","","","","","","","","","","","","","","","","","","","","","","","","","","","","","","","","","","","","","","","","","","","","","","","","","","","","","","","","","","","","","SYN004BUFR","","","","","","","","","",""
"01007099999","2021-11-03T02:00:00","78.9166666","11.9333333","7.7","NY ALESUND, SV","FM-12","4","","12","17","","","-0.06","3","82","","29.27","29.24","","16","294","46","28","","","","","","","","","","","","","","","","","","","","","","","","","","","","","","","","","","","","","","","","","","","","","","","","","","","","","","","","","","","","","","","","","","","","","","","","","","","","","","","","","","","","","","","","","","","SYN004BUFR","","","","","","","","","",""
"01007099999","2021-11-03T04:00:00","78.9166666","11.9333333","7.7","NY ALESUND, SV","FM-12","4","","12","17","","","-0.08","2","80","","29.33","29.30","","16","290","45","26","","","","","","","","","","","","","","","","","","","","","","","","","","","","","","","","","","","","","","","","","","","","","","","","","","","","","","","","","","","","","","","","","","","","","","","","","","","","","","","","","","","","","","","","","","","SYN004BUFR","","","","","","","","","",""
"01007099999","2021-11-03T07:00:00","78.9166666","11.9333333","7.7","NY ALESUND, SV","FM-12","4","","14","17","0.00","||BLSN","-0.06","2","87","VV:09","29.39","29.36","0.12","16","295","44","25","","","","","","","","","","","","","","","","","","","","","","","","","","","","","","","","","","","","","","","","","","","","","","","","","","","","","","","","","","","","","","","","","","","","","","","","","","","","","","","","","","","","","","","","","","","SYN004BUFR","","","","","","","","","",""
"01007099999","2021-11-03T10:00:00","78.9166666","11.9333333","7.7","NY ALESUND, SV","FM-12","4","","14","17","","","-0.05","2","88","","29.44","29.41","","16","297","41","23","","","","","","","","","","","","","","","","","","","","","","","","","","","","","","","","","","","","","","","","","","","","","","","","","","","","","","","","","","","","","","","","","","","","","","","","","","","","","","","","","","","","","","","","","","","SYN004BUFR","","","","","","","","","",""
"01007099999","2021-11-03T13:00:00","78.9166666","11.9333333","7.7","NY ALESUND, SV","FM-12","4","","10","17","","||BLSN","-0.04","2","75","VV:09","29.47","29.44","0.12","15","292","37","23","","","","","","","","","","","","","","","","","","","","","","","","","","","","","","","","","","","","","","","","","","","","","","","","","","","","","","","","","","","","","","","","","","","","","","","","","","","","","","","","","","","","","","","","","","","SYN004BUFR","","","","","","","","","",""
"01007099999","2021-11-03T20:00:00","78.9166666","11.9333333","7.7","NY ALESUND, SV","FM-12","4","","13","17","0.00","","+0.00","7","85","","29.48","29.45","","16","299","33","23","","","","","","","","","","","","","","","","","","","","","","","","","","","","","","","","","","","","","","","","","","","","","","","","","","","","","","","","","","","","","","","","","","","","","","","","","","","","","","","","","","","","","","","","","","","SYN004BUFR","","","","","","","","","",""
"01007099999","2021-11-03T22:00:00","78.9166666","11.9333333","7.7","NY ALESUND, SV","FM-12","4","","17","20","","","+0.01","8","88","","29.47","29.44","","19","321","38","25","","","","","","","","","","","","","","","","","","","","","","","","","","","","","","","","","","","","","","","","","","","","","","","","","","","","","","","","","","","","","","","","","","","","","","","","","","","","","","","","","","","","","","","","","","","SYN004BUFR","","","","","","","","","",""
"01007099999","2021-11-04T00:00:00","78.9166666","11.9333333","7.7","NY ALESUND, SV","FM-12","4","","13","20","","","-0.04","3","75","","29.51","29.48","","18","318","31","20","","","","","","","","","","","","","","","","","","","","","","","","","","","","","","","","","","","","","","","","","","","","","","","","","","","","","","","","","","","","","","","","","","","","","","","","","","","","","","","","","","","","","","","","","","","SYN004BUFR","","","","","","","","","",""
"01007099999","2021-11-04T03:00:00","78.9166666","11.9333333","7.7","NY ALESUND, SV","FM-12","4","","11","19","","","-0.08","2","69","","29.59","29.56","","17","334","16","9","","","","","","","","","","","","","","","","","","","","","","","","","","","","","","","","","","","","","","","","","","","","","","","","","","","","","","","","","","","","","","","","","","","","","","","","","","","","","","","","","","","","","","","","","","","SYN004BUFR","","","","","","","","","",""
"01007099999","2021-11-04T04:00:00","78.9166666","11.9333333","7.7","NY ALESUND, SV","FM-12","4","","10","20","","","-0.07","3","65","","29.61","29.58","","17","324","17","11","","","","","","","","","","","","","","","","","","","","","","","","","","","","","","","","","","","","","","","","","","","","","","","","","","","","","","","","","","","","","","","","","","","","","","","","","","","","","","","","","","","","","","","","","","","SYN004BUFR","","","","","","","","","",""
"01007099999","2021-11-04T07:00:00","78.9166666","11.9333333","7.7","NY ALESUND, SV","FM-12","4","","12","21","","","-0.07","2","69","SCT:04 33","29.68","29.65","34.18","18","274","13","8","","","","","","","","","","","","","","","","","","","","","","","","","","","","","","","","","","","","","","","","","","","","","","","","","","","","","","","","","","","","","","","","","","","","","","","","","","","","","","","","","","","","","","","","","","","SYN004BUFR","","","","","","","","","",""
"01007099999","2021-11-04T08:00:00","78.9166666","11.9333333","7.7","NY ALESUND, SV","FM-12","4","","12","21","","","-0.06","2","70","","29.70","29.67","","18","272","","6","","","","","","","","","","","","","","","","","","","","","","","","","","","","","","","","","","","","","","","","","","","","","","","","","","","","","","","","","","","","","","","","","","","","","","","","","","","","","","","","","","","","","","","","","","","SYN004BUFR","","","","","","","","","",""
"01007099999","2021-11-04T15:00:00","78.9166666","11.9333333","7.7","NY ALESUND, SV","FM-12","4","","8","17","","","-0.02","2","67","","29.79","29.76","","15","127","","4","","","","","","","","","","","","","","","","","","","","","","","","","","","","","","","","","","","","","","","","","","","","","","","","","","","","","","","","","","","","","","","","","","","","","","","","","","","","","","","","","","","","","","","","","","","SYN004BUFR","","","","","","","","","",""
"01007099999","2021-11-04T16:00:00","78.9166666","11.9333333","7.7","NY ALESUND, SV","FM-12","4","","9","18","","","-0.02","2","69","","29.79","29.76","","16","141","","7","","","","","","","","","","","","","","","","","","","","","","","","","","","","","","","","","","","","","","","","","","","","","","","","","","","","","","","","","","","","","","","","","","","","","","","","","","","","","","","","","","","","","","","","","","","SYN004BUFR","","","","","","","","","",""
"01007099999","2021-11-04T17:00:00","78.9166666","11.9333333","7.7","NY ALESUND, SV","FM-12","4","","8","18","","","-0.01","2","65","","29.80","29.77","","15","134","","6","","","","","","","","","","","","","","","","","","","","","","","","","","","","","","","","","","","","","","","","","","","","","","","","","","","","","","","","","","","","","","","","","","","","","","","","","","","","","","","","","","","","","","","","","","","SYN004BUFR","","","","","","","","","",""
"01007099999","2021-11-04T18:00:00","78.9166666","11.9333333","7.7","NY ALESUND, SV","FM-12","4","","8","18","","","-0.01","2","65","","29.80","29.77","","15","138","","5","","","","","","","","","","","","","","","","","","","","","","","","","","","","","","","","","","","","","","","","","","","","","","","","","","","","","","","","","","","","","","","","","","","","","","","","","","","","","","","","","","","","","","","","","","","SYN004BUFR","","","","","","","","","",""
"01007099999","2021-11-04T21:00:00","78.9166666","11.9333333","7.7","NY ALESUND, SV","FM-12","4","","8","18","","","-0.00","2","64","","29.80","29.77","","15","145","","3","","","","","","","","","","","","","","","","","","","","","","","","","","","","","","","","","","","","","","","","","","","","","","","","","","","","","","","","","","","","","","","","","","","","","","","","","","","","","","","","","","","","","","","","","","","SYN004BUFR","","","","","","","","","",""
"01007099999","2021-11-04T22:00:00","78.9166666","11.9333333","7.7","NY ALESUND, SV","FM-12","4","","8","17","","","-0.01","2","66","","29.80","29.78","","15","141","","6","","","","","","","","","","","","","","","","","","","","","","","","","","","","","","","","","","","","","","","","","","","","","","","","","","","","","","","","","","","","","","","","","","","","","","","","","","","","","","","","","","","","","","","","","","","SYN004BUFR","","","","","","","","","",""
"01007099999","2021-11-05T03:00:00","78.9166666","11.9333333","7.7","NY ALESUND, SV","FM-12","4","","9","17","","","+0.00","7","70","","29.80","29.78","","15","134","","2","","","","","","","","","","","","","","","","","","","","","","","","","","","","","","","","","","","","","","","","","","","","","","","","","","","","","","","","","","","","","","","","","","","","","","","","","","","","","","","","","","","","","","","","","","","SYN004BUFR","","","","","","","","","",""
"01007099999","2021-11-05T08:00:00","78.9166666","11.9333333","7.7","NY ALESUND, SV","FM-12","4","","5","16","","","-0.02","2","62","","29.83","29.80","","13","137","17","11","","","","","","","","","","","","","","","","","","","","","","","","","","","","","","","","","","","","","","","","","","","","","","","","","","","","","","","","","","","","","","","","","","","","","","","","","","","","","","","","","","","","","","","","","","","SYN004BUFR","","","","","","","","","",""
"01007099999","2021-11-05T10:00:00","78.9166666","11.9333333","7.7","NY ALESUND, SV","FM-12","4","","6","15","","","-0.03","2","69","","29.84","29.81","","13","130","17","14","","","","","","","","","","","","","","","","","","","","","","","","","","","","","","","","","","","","","","","","","","","","","","","","","","","","","","","","","","","","","","","","","","","","","","","","","","","","","","","","","","","","","","","","","","","SYN004BUFR","","","","","","","","","",""
"01007099999","2021-11-05T11:00:00","78.9166666","11.9333333","7.7","NY ALESUND, SV","FM-12","4","","3","15","","","-0.01","0","59","","29.83","29.80","","12","248","17","4","","","","","","","","","","","","","","","","","","","","","","","","","","","","","","","","","","","","","","","","","","","","","","","","","","","","","","","","","","","","","","","","","","","","","","","","","","","","","","","","","","","","","","","","","","","SYN004BUFR","","","","","","","","","",""
"01007099999","2021-11-05T12:00:00","78.9166666","11.9333333","7.7","NY ALESUND, SV","FM-12","4","","6","16","","","-0.01","2","64","","29.84","29.81","","14","142","13","10","","","","","","","","","","","","","","","","","","","","","","","","","","","","","","","","","","","","","","","","","","","","","","","","","","","","","","","","","","","","","","","","","","","","","","","","","","","","","","","","","","","","","","","","","","","SYN004BUFR","","","","","","","","","",""
"01007099999","2021-11-05T13:00:00","78.9166666","11.9333333","7.7","NY ALESUND, SV","FM-12","4","","5","15","","","-0.01","3","65","","29.85","29.82","46.60","13","136","13","8","","","","","","","","","","","","","","","","","","","","","","","","","","","","","","","","","","","","","","","","","","","","","","","","","","","","","","","","","","","","","","","","","","","","","","","","","","","","","","","","","","","","","","","","","","","SYN004BUFR","","","","","","","","","",""
"01007099999","2021-11-05T14:00:00","78.9166666","11.9333333","7.7","NY ALESUND, SV","FM-12","4","","5","15","","","-0.01","2","65","","29.84","29.81","","13","134","14","10","","","","","","","","","","","","","","","","","","","","","","","","","","","","","","","","","","","","","","","","","","","","","","","","","","","","","","","","","","","","","","","","","","","","","","","","","","","","","","","","","","","","","","","","","","","SYN004BUFR","","","","","","","","","",""
"01007099999","2021-11-05T15:00:00","78.9166666","11.9333333","7.7","NY ALESUND, SV","FM-12","4","","3","13","","","+0.01","8","64","","29.83","29.80","","11","177","","4","","","","","","","","","","","","","","","","","","","","","","","","","","","","","","","","","","","","","","","","","","","","","","","","","","","","","","","","","","","","","","","","","","","","","","","","","","","","","","","","","","","","","","","","","","","SYN004BUFR","","","","","","","","","",""
"01007099999","2021-11-05T16:00:00","78.9166666","11.9333333","7.7","NY ALESUND, SV","FM-12","4","","3","15","","","+0.02","7","60","","29.83","29.80","","12","249","","4","","","","","","","","","","","","","","","","","","","","","","","","","","","","","","","","","","","","","","","","","","","","","","","","","","","","","","","","","","","","","","","","","","","","","","","","","","","","","","","","","","","","","","","","","","","SYN004BUFR","","","","","","","","","",""
"01007099999","2021-11-05T18:00:00","78.9166666","11.9333333","7.7","NY ALESUND, SV","FM-12","4","","2","12","","","+0.01","8","62","","29.83","29.80","","10","251","","7","","","","","","","","","","","","","","","","","","","","","","","","","","","","","","","","","","","","","","","","","","","","","","","","","","","","","","","","","","","","","","","","","","","","","","","","","","","","","","","","","","","","","","","","","","","SYN004BUFR","","","","","","","","","",""
"01007099999","2021-11-05T19:00:00","78.9166666","11.9333333","7.7","NY ALESUND, SV","FM-12","4","","5","15","","","+0.01","8","63","","29.83","29.80","46.60","13","264","14","5","","","","","","","","","","","","","","","","","","","","","","","","","","","","","","","","","","","","","","","","","","","","","","","","","","","","","","","","","","","","","","","","","","","","","","","","","","","","","","","","","","","","","","","","","","","SYN004BUFR","","","","","","","","","",""
"01007099999","2021-11-05T21:00:00","78.9166666","11.9333333","7.7","NY ALESUND, SV","FM-12","4","","7","16","","","+0.00","7","65","","29.83","29.80","","14","321","12","6","","","","","","","","","","","","","","","","","","","","","","","","","","","","","","","","","","","","","","","","","","","","","","","","","","","","","","","","","","","","","","","","","","","","","","","","","","","","","","","","","","","","","","","","","","","SYN004BUFR","","","","","","","","","",""
"01007099999","2021-11-05T22:00:00","78.9166666","11.9333333","7.7","NY ALESUND, SV","FM-12","4","","8","17","","","0.00","4","70","","29.82","29.79","","15","063","12","5","","","","","","","","","","","","","","","","","","","","","","","","","","","","","","","","","","","","","","","","","","","","","","","","","","","","","","","","","","","","","","","","","","","","","","","","","","","","","","","","","","","","","","","","","","","SYN004BUFR","","","","","","","","","",""
"01007099999","2021-11-06T04:00:00","78.9166666","11.9333333","7.7","NY ALESUND, SV","FM-12","4","","14","22","","","+0.04","7","70","","29.75","29.72","","20","321","23","16","","","","","","","","","","","","","","","","","","","","","","","","","","","","","","","","","","","","","","","","","","","","","","","","","","","","","","","","","","","","","","","","","","","","","","","","","","","","","","","","","","","","","","","","","","","SYN004BUFR","","","","","","","","","",""
"01007099999","2021-11-06T05:00:00","78.9166666","11.9333333","7.7","NY ALESUND, SV","FM-12","4","","14","22","","","+0.04","7","71","","29.74","29.71","","20","308","25","18","","","","","","","","","","","","","","","","","","","","","","","","","","","","","","","","","","","","","","","","","","","","","","","","","","","","","","","","","","","","","","","","","","","","","","","","","","","","","","","","","","","","","","","","","","","SYN004BUFR","","","","","","","","","",""
"01007099999","2021-11-06T09:00:00","78.9166666","11.9333333","7.7","NY ALESUND, SV","FM-12","4","","18","22","","","+0.03","7","85","","29.70","29.67","","21","306","26","19","","","","","","","","","","","","","","","","","","","","","","","","","","","","","","","","","","","","","","","","","","","","","","","","","","","","","","","","","","","","","","","","","","","","","","","","","","","","","","","","","","","","","","","","","","","SYN004BUFR","","","","","","","","","",""
"01007099999","2021-11-06T10:00:00","78.9166666","11.9333333","7.7","NY ALESUND, SV","FM-12","4","","19","22","0.00","","+0.02","6","89","","29.70","29.67","","21","312","26","19","","","","","","","","","","","","","","","","","","","","","","","","","","","","","","","","","","","","","","","","","","","","","","","","","","","","","","","","","","","","","","","","","","","","","","","","","","","","","","","","","","","","","","","","","","","SYN004BUFR","","","","","","","","","",""
"01007099999","2021-11-06T18:00:00","78.9166666","11.9333333","7.7","NY ALESUND, SV","FM-12","4","","6","17","","","-0.03","2","61","","29.76","29.73","","14","126","","5","","","","","","","","","","","","","","","","","","","","","","","","","","","","","","","","","","","","","","","","","","","","","","","","","","","","","","","","","","","","","","","","","","","","","","","","","","","","","","","","","","","","","","","","","","","SYN004BUFR","","","","","","","","","",""
"01007099999","2021-11-06T20:00:00","78.9166666","11.9333333","7.7","NY ALESUND, SV","FM-12","4","","0","14","","","-0.04","2","55","","29.79","29.76","","11","155","","3","","","","","","","","","","","","","","","","","","","","","","","","","","","","","","","","","","","","","","","","","","","","","","","","","","","","","","","","","","","","","","","","","","","","","","","","","","","","","","","","","","","","","","","","","","","SYN004BUFR","","","","","","","","","",""
"01007099999","2021-11-07T01:00:00","78.9166666","11.9333333","7.7","NY ALESUND, SV","FM-12","4","","2","13","","","-0.02","2","61","","29.82","29.79","","11","302","","2","","","","","","","","","","","","","","","","","","","","","","","","","","","","","","","","","","","","","","","","","","","","","","","","","","","","","","","","","","","","","","","","","","","","","","","","","","","","","","","","","","","","","","","","","","","SYN004BUFR","","","","","","","","","",""
"01007099999","2021-11-07T04:00:00","78.9166666","11.9333333","7.7","NY ALESUND, SV","FM-12","4","","2","12","","","-0.01","2","64","","29.83","29.80","","10","179","","2","","","","","","","","","","","","","","","","","","","","","","","","","","","","","","","","","","","","","","","","","","","","","","","","","","","","","","","","","","","","","","","","","","","","","","","","","","","","","","","","","","","","","","","","","","","SYN004BUFR","","","","","","","","","",""
"01007099999","2021-11-07T05:00:00","78.9166666","11.9333333","7.7","NY ALESUND, SV","FM-12","4","","2","12","","","-0.01","2","62","","29.83","29.80","","10","148","","4","","","","","","","","","","","","","","","","","","","","","","","","","","","","","","","","","","","","","","","","","","","","","","","","","","","","","","","","","","","","","","","","","","","","","","","","","","","","","","","","","","","","","","","","","","","SYN004BUFR","","","","","","","","","",""
"01007099999","2021-11-07T08:00:00","78.9166666","11.9333333","7.7","NY ALESUND, SV","FM-12","4","","2","13","","","-0.02","2","61","","29.85","29.82","","11","025","14","8","","","","","","","","","","","","","","","","","","","","","","","","","","","","","","","","","","","","","","","","","","","","","","","","","","","","","","","","","","","","","","","","","","","","","","","","","","","","","","","","","","","","","","","","","","","SYN004BUFR","","","","","","","","","",""
"01007099999","2021-11-07T09:00:00","78.9166666","11.9333333","7.7","NY ALESUND, SV","FM-12","4","","1","11","","","-0.03","2","64","","29.86","29.83","","9","092","13","3","","","","","","","","","","","","","","","","","","","","","","","","","","","","","","","","","","","","","","","","","","","","","","","","","","","","","","","","","","","","","","","","","","","","","","","","","","","","","","","","","","","","","","","","","","","SYN004BUFR","","","","","","","","","",""
"01007099999","2021-11-07T10:00:00","78.9166666","11.9333333","7.7","NY ALESUND, SV","FM-12","4","","2","13","","","-0.02","2","62","","29.87","29.84","","11","002","14","9","","","","","","","","","","","","","","","","","","","","","","","","","","","","","","","","","","","","","","","","","","","","","","","","","","","","","","","","","","","","","","","","","","","","","","","","","","","","","","","","","","","","","","","","","","","SYN004BUFR","","","","","","","","","",""
"01007099999","2021-11-07T11:00:00","78.9166666","11.9333333","7.7","NY ALESUND, SV","FM-12","4","","1","13","","","-0.03","3","59","","29.88","29.85","","10","020","17","5","","","","","","","","","","","","","","","","","","","","","","","","","","","","","","","","","","","","","","","","","","","","","","","","","","","","","","","","","","","","","","","","","","","","","","","","","","","","","","","","","","","","","","","","","","","SYN004BUFR","","","","","","","","","",""
"01007099999","2021-11-07T12:00:00","78.9166666","11.9333333","7.7","NY ALESUND, SV","FM-12","4","","1","11","","","-0.04","3","62","","29.90","29.87","","9","125","11","5","","","","","","","","","","","","","","","","","","","","","","","","","","","","","","","","","","","","","","","","","","","","","","","","","","","","","","","","","","","","","","","","","","","","","","","","","","","","","","","","","","","","","","","","","","","SYN004BUFR","","","","","","","","","",""
"01007099999","2021-11-07T15:00:00","78.9166666","11.9333333","7.7","NY ALESUND, SV","FM-12","4","","0","12","","","-0.04","3","57","","29.93","29.91","","10","018","13","3","","","","","","","","","","","","","","","","","","","","","","","","","","","","","","","","","","","","","","","","","","","","","","","","","","","","","","","","","","","","","","","","","","","","","","","","","","","","","","","","","","","","","","","","","","","SYN004BUFR","","","","","","","","","",""
"01007099999","2021-11-07T20:00:00","78.9166666","11.9333333","7.7","NY ALESUND, SV","FM-12","4","","5","14","","","-0.03","1","66","","29.98","29.95","","12","042","12","7","","","","","","","","","","","","","","","","","","","","","","","","","","","","","","","","","","","","","","","","","","","","","","","","","","","","","","","","","","","","","","","","","","","","","","","","","","","","","","","","","","","","","","","","","","","SYN004BUFR","","","","","","","","","",""
"01007099999","2021-11-08T00:00:00","78.9166666","11.9333333","7.7","NY ALESUND, SV","FM-12","4","","6","13","","","-0.02","2","75","","30.00","29.97","","11","135","","2","","","","","","","","","","","","","","","","","","","","","","","","","","","","","","","","","","","","","","","","","","","","","","","","","","","","","","","","","","","","","","","","","","","","","","","","","","","","","","","","","","","","","","","","","","","SYN004BUFR","","","","","","","","","",""
"01007099999","2021-11-08T01:00:00","78.9166666","11.9333333","7.7","NY ALESUND, SV","FM-12","4","","6","13","","","-0.01","2","73","","30.00","29.97","","11","158","12","4","","","","","","","","","","","","","","","","","","","","","","","","","","","","","","","","","","","","","","","","","","","","","","","","","","","","","","","","","","","","","","","","","","","","","","","","","","","","","","","","","","","","","","","","","","","SYN004BUFR","","","","","","","","","",""
"01007099999","2021-11-08T03:00:00","78.9166666","11.9333333","7.7","NY ALESUND, SV","FM-12","4","","3","12","","","-0.01","2","69","","30.01","29.98","","10","139","","8","","","","","","","","","","","","","","","","","","","","","","","","","","","","","","","","","","","","","","","","","","","","","","","","","","","","","","","","","","","","","","","","","","","","","","","","","","","","","","","","","","","","","","","","","","","SYN004BUFR","","","","","","","","","",""
"01007099999","2021-11-08T04:00:00","78.9166666","11.9333333","7.7","NY ALESUND, SV","FM-12","4","","4","12","","","-0.01","0","69","","30.01","29.98","","10","143","","6","","","","","","","","","","","","","","","","","","","","","","","","","","","","","","","","","","","","","","","","","","","","","","","","","","","","","","","","","","","","","","","","","","","","","","","","","","","","","","","","","","","","","","","","","","","SYN004BUFR","","","","","","","","","",""
"01007099999","2021-11-08T06:00:00","78.9166666","11.9333333","7.7","NY ALESUND, SV","FM-12","4","","3","12","","","0.00","4","66","","30.01","29.98","","10","138","","7","","","","","","","","","","","","","","","","","","","","","","","","","","","","","","","","","","","","","","","","","","","","","","","","","","","","","","","","","","","","","","","","","","","","","","","","","","","","","","","","","","","","","","","","","","","SYN004BUFR","","","","","","","","","",""
"01007099999","2021-11-08T07:00:00","78.9166666","11.9333333","7.7","NY ALESUND, SV","FM-12","4","","2","11","","","+0.00","7","67","OVC:08 20","30.01","29.98","31.07","9","154","12","7","","","","","","","","","","","","","","","","","","","","","","","","","","","","","","","","","","","","","","","","","","","","","","","","","","","","","","","","","","","","","","","","","","","","","","","","","","","","","","","","","","","","","","","","","","","SYN004BUFR","","","","","","","","","",""
"01007099999","2021-11-08T15:00:00","78.9166666","11.9333333","7.7","NY ALESUND, SV","FM-12","4","","4","11","","","+0.00","7","73","","30.02","29.99","","9","136","","6","","","","","","","","","","","","","","","","","","","","","","","","","","","","","","","","","","","","","","","","","","","","","","","","","","","","","","","","","","","","","","","","","","","","","","","","","","","","","","","","","","","","","","","","","","","SYN004BUFR","","","","","","","","","",""
"01007099999","2021-11-08T16:00:00","78.9166666","11.9333333","7.7","NY ALESUND, SV","FM-12","4","","4","11","","","+0.01","7","74","","30.02","29.99","","9","148","","7","","","","","","","","","","","","","","","","","","","","","","","","","","","","","","","","","","","","","","","","","","","","","","","","","","","","","","","","","","","","","","","","","","","","","","","","","","","","","","","","","","","","","","","","","","","SYN004BUFR","","","","","","","","","",""
"01007099999","2021-11-09T03:00:00","78.9166666","11.9333333","7.7","NY ALESUND, SV","FM-12","4","","7","15","","","+0.07","8","70","","29.85","29.82","","13","146","12","8","","","","","","","","","","","","","","","","","","","","","","","","","","","","","","","","","","","","","","","","","","","","","","","","","","","","","","","","","","","","","","","","","","","","","","","","","","","","","","","","","","","","","","","","","","","SYN004BUFR","","","","","","","","","",""
"01007099999","2021-11-09T07:00:00","78.9166666","11.9333333","7.7","NY ALESUND, SV","FM-12","4","","17","21","","||DRSN","+0.15","8","85","0","29.68","29.65","6.21","20","103","23","18","","","","","","","","","","","","","","","","","","","","","","","","","","","","","","","","","","","","","","","","","","","","","","","","","","","","","","","","","","","","","","","","","","","","","","","","","","","","","","","","","","","","","","","","","","","SYN004BUFR","","","","","","","","","",""
"01007099999","2021-11-09T11:00:00","78.9166666","11.9333333","7.7","NY ALESUND, SV","FM-12","4","","26","28","0.02","","+0.08","7","94","","29.57","29.54","","27","107","23","13","","","","","","","","","","","","","","","","","","","","","","","","","","","","","","","","","","","","","","","","","","","","","","","","","","","","","","","","","","","","","","","","","","","","","","","","","","","","","","","","","","","","","","","","","","","SYN004BUFR","","","","","","","","","",""
"01007099999","2021-11-09T14:00:00","78.9166666","11.9333333","7.7","NY ALESUND, SV","FM-12","4","","29","32","0.09","","+0.06","6","88","","29.50","29.47","","31","233","30","19","","","","","","","","","","","","","","","","","","","","","","","","","","","","","","","","","","","","","","","","","","","","","","","","","","","","","","","","","","","","","","","","","","","","","","","","","","","","","","","","","","","","","","","","","","","SYN004BUFR","","","","","","","","","",""
"01007099999","2021-11-09T15:00:00","78.9166666","11.9333333","7.7","NY ALESUND, SV","FM-12","4","","29","32","0.09","","+0.06","6","86","","29.49","29.47","","31","224","32","18","","","","","","","","","","","","","","","","","","","","","","","","","","","","","","","","","","","","","","","","","","","","","","","","","","","","","","","","","","","","","","","","","","","","","","","","","","","","","","","","","","","","","","","","","","","SYN004BUFR","","","","","","","","","",""
"01007099999","2021-11-09T16:00:00","78.9166666","11.9333333","7.7","NY ALESUND, SV","FM-12","4","","27","32","0.02","","+0.04","7","82","","29.48","29.45","","30","241","41","26","","","","","","","","","","","","","","","","","","","","","","","","","","","","","","","","","","","","","","","","","","","","","","","","","","","","","","","","","","","","","","","","","","","","","","","","","","","","","","","","","","","","","","","","","","","SYN004BUFR","","","","","","","","","",""
"01007099999","2021-11-09T17:00:00","78.9166666","11.9333333","7.7","NY ALESUND, SV","FM-12","4","","29","32","0.03","","+0.03","5","90","","29.47","29.44","","31","240","37","22","","","","","","","","","","","","","","","","","","","","","","","","","","","","","","","","","","","","","","","","","","","","","","","","","","","","","","","","","","","","","","","","","","","","","","","","","","","","","","","","","","","","","","","","","","","SYN004BUFR","","","","","","","","","",""
"01007099999","2021-11-10T02:00:00","78.9166666","11.9333333","7.7","NY ALESUND, SV","FM-12","4","","29","30","0.10","","+0.03","7","96","","29.40","29.37","","30","323","","6","","","","","","","","","","","","","","","","","","","","","","","","","","","","","","","","","","","","","","","","","","","","","","","","","","","","","","","","","","","","","","","","","","","","","","","","","","","","","","","","","","","","","","","","","","","SYN004BUFR","","","","","","","","","",""
"01007099999","2021-11-10T04:00:00","78.9166666","11.9333333","7.7","NY ALESUND, SV","FM-12","4","","28","29","0.06","","+0.01","5","96","","29.40","29.37","","29","284","","5","","","","","","","","","","","","","","","","","","","","","","","","","","","","","","","","","","","","","","","","","","","","","","","","","","","","","","","","","","","","","","","","","","","","","","","","","","","","","","","","","","","","","","","","","","","SYN004BUFR","","","","","","","","","",""
"01007099999","2021-11-10T05:00:00","78.9166666","11.9333333","7.7","NY ALESUND, SV","FM-12","4","","27","28","0.02","","-0.01","2","96","","29.40","29.37","","28","224","","2","","","","","","","","","","","","","","","","","","","","","","","","","","","","","","","","","","","","","","","","","","","","","","","","","","","","","","","","","","","","","","","","","","","","","","","","","","","","","","","","","","","","","","","","","","","SYN004BUFR","","","","","","","","","",""
"01007099999","2021-11-10T07:00:00","78.9166666","11.9333333","7.7","NY ALESUND, SV","FM-12","4","","25","26","0.01","","-0.01","2","95","0","29.41","29.39","4.35","26","133","13","8","","","","","","","","","","","","","","","","","","","","","","","","","","","","","","","","","","","","","","","","","","","","","","","","","","","","","","","","","","","","","","","","","","","","","","","","","","","","","","","","","","","","","","","","","","","SYN004BUFR","","","","","","","","","",""
"01007099999","2021-11-10T09:00:00","78.9166666","11.9333333","7.7","NY ALESUND, SV","FM-12","4","","23","25","0.01","","-0.02","2","93","","29.43","29.40","","24","140","11","7","","","","","","","","","","","","","","","","","","","","","","","","","","","","","","","","","","","","","","","","","","","","","","","","","","","","","","","","","","","","","","","","","","","","","","","","","","","","","","","","","","","","","","","","","","","SYN004BUFR","","","","","","","","","",""
"01007099999","2021-11-10T14:00:00","78.9166666","11.9333333","7.7","NY ALESUND, SV","FM-12","4","","17","23","","","-0.02","2","77","","29.48","29.45","","21","125","21","17","","","","","","","","","","","","","","","","","","","","","","","","","","","","","","","","","","","","","","","","","","","","","","","","","","","","","","","","","","","","","","","","","","","","","","","","","","","","","","","","","","","","","","","","","","","SYN004BUFR","","","","","","","","","",""
"01007099999","2021-11-10T18:00:00","78.9166666","11.9333333","7.7","NY ALESUND, SV","FM-12","4","","13","20","0.00","","-0.04","2","75","","29.52","29.49","","18","126","26","19","","","","","","","","","","","","","","","","","","","","","","","","","","","","","","","","","","","","","","","","","","","","","","","","","","","","","","","","","","","","","","","","","","","","","","","","","","","","","","","","","","","","","","","","","","","SYN004BUFR","","","","","","","","","",""
"01007099999","2021-11-10T19:00:00","78.9166666","11.9333333","7.7","NY ALESUND, SV","FM-12","4","","11","19","","||DRSN","-0.04","2","72","OVC:08 33","29.54","29.51","31.07","17","132","26","19","","","","","","","","","","","","","","","","","","","","","","","","","","","","","","","","","","","","","","","","","","","","","","","","","","","","","","","","","","","","","","","","","","","","","","","","","","","","","","","","","","","","","","","","","","","SYN004BUFR","","","","","","","","","",""
"01007099999","2021-11-10T22:00:00","78.9166666","11.9333333","7.7","NY ALESUND, SV","FM-12","4","","8","17","","","-0.06","2","68","","29.59","29.56","","15","130","30","20","","","","","","","","","","","","","","","","","","","","","","","","","","","","","","","","","","","","","","","","","","","","","","","","","","","","","","","","","","","","","","","","","","","","","","","","","","","","","","","","","","","","","","","","","","","SYN004BUFR","","","","","","","","","",""
"01007099999","2021-11-11T00:00:00","78.9166666","11.9333333","7.7","NY ALESUND, SV","FM-12","4","","5","15","","","-0.04","2","63","","29.62","29.59","","13","138","31","22","","","","","","","","","","","","","","","","","","","","","","","","","","","","","","","","","","","","","","","","","","","","","","","","","","","","","","","","","","","","","","","","","","","","","","","","","","","","","","","","","","","","","","","","","","","SYN004BUFR","","","","","","","","","",""
"01007099999","2021-11-11T11:00:00","78.9166666","11.9333333","7.7","NY ALESUND, SV","FM-12","4","","-2","9","","","-0.04","2","58","","29.78","29.75","","7","141","18","13","","","","","","","","","","","","","","","","","","","","","","","","","","","","","","","","","","","","","","","","","","","","","","","","","","","","","","","","","","","","","","","","","","","","","","","","","","","","","","","","","","","","","","","","","","","SYN004BUFR","","","","","","","","","",""
"01007099999","2021-11-11T16:00:00","78.9166666","11.9333333","7.7","NY ALESUND, SV","FM-12","4","","-6","7","","","-0.03","2","54","","29.83","29.80","","5","165","11","4","","","","","","","","","","","","","","","","","","","","","","","","","","","","","","","","","","","","","","","","","","","","","","","","","","","","","","","","","","","","","","","","","","","","","","","","","","","","","","","","","","","","","","","","","","","SYN004BUFR","","","","","","","","","",""
"01007099999","2021-11-11T18:00:00","78.9166666","11.9333333","7.7","NY ALESUND, SV","FM-12","4","","-7","6","","","-0.03","2","55","","29.84","29.81","","4","151","","4","","","","","","","","","","","","","","","","","","","","","","","","","","","","","","","","","","","","","","","","","","","","","","","","","","","","","","","","","","","","","","","","","","","","","","","","","","","","","","","","","","","","","","","","","","","SYN004BUFR","","","","","","","","","",""
"01007099999","2021-11-11T21:00:00","78.9166666","11.9333333","7.7","NY ALESUND, SV","FM-12","4","","-7","4","","","-0.03","2","59","","29.87","29.84","","2","260","","4","","","","","","","","","","","","","","","","","","","","","","","","","","","","","","","","","","","","","","","","","","","","","","","","","","","","","","","","","","","","","","","","","","","","","","","","","","","","","","","","","","","","","","","","","","","SYN004BUFR","","","","","","","","","",""
"01007099999","2021-11-11T23:00:00","78.9166666","11.9333333","7.7","NY ALESUND, SV","FM-12","4","","-5","4","","","-0.03","3","67","","29.90","29.87","","3","187","","1","","","","","","","","","","","","","","","","","","","","","","","","","","","","","","","","","","","","","","","","","","","","","","","","","","","","","","","","","","","","","","","","","","","","","","","","","","","","","","","","","","","","","","","","","","","SYN004BUFR","","","","","","","","","",""
"01007099999","2021-11-12T00:00:00","78.9166666","11.9333333","7.7","NY ALESUND, SV","FM-12","4","","-3","5","","","-0.03","2","69","","29.91","29.88","","4","224","","2","","","","","","","","","","","","","","","","","","","","","","","","","","","","","","","","","","","","","","","","","","","","","","","","","","","","","","","","","","","","","","","","","","","","","","","","","","","","","","","","","","","","","","","","","","","SYN004BUFR","","","","","","","","","",""
"01007099999","2021-11-12T06:00:00","78.9166666","11.9333333","7.7","NY ALESUND, SV","FM-12","4","","-4","5","","","-0.01","2","67","","29.93","29.90","","3","154","","2","","","","","","","","","","","","","","","","","","","","","","","","","","","","","","","","","","","","","","","","","","","","","","","","","","","","","","","","","","","","","","","","","","","","","","","","","","","","","","","","","","","","","","","","","","","SYN004BUFR","","","","","","","","","",""
"01007099999","2021-11-12T08:00:00","78.9166666","11.9333333","7.7","NY ALESUND, SV","FM-12","4","","-3","4","","","-0.02","3","72","","29.94","29.91","","3","243","","5","","","","","","","","","","","","","","","","","","","","","","","","","","","","","","","","","","","","","","","","","","","","","","","","","","","","","","","","","","","","","","","","","","","","","","","","","","","","","","","","","","","","","","","","","","","SYN004BUFR","","","","","","","","","",""
"01007099999","2021-11-12T12:00:00","78.9166666","11.9333333","7.7","NY ALESUND, SV","FM-12","4","","-3","4","","","-0.02","2","70","","29.98","29.95","","3","135","","3","","","","","","","","","","","","","","","","","","","","","","","","","","","","","","","","","","","","","","","","","","","","","","","","","","","","","","","","","","","","","","","","","","","","","","","","","","","","","","","","","","","","","","","","","","","SYN004BUFR","","","","","","","","","",""
"01007099999","2021-11-12T17:00:00","78.9166666","11.9333333","7.7","NY ALESUND, SV","FM-12","4","","-6","4","","","-0.04","3","62","","30.04","30.01","","2","195","","4","","","","","","","","","","","","","","","","","","","","","","","","","","","","","","","","","","","","","","","","","","","","","","","","","","","","","","","","","","","","","","","","","","","","","","","","","","","","","","","","","","","","","","","","","","","SYN004BUFR","","","","","","","","","",""
"01007099999","2021-11-12T20:00:00","78.9166666","11.9333333","7.7","NY ALESUND, SV","FM-12","4","","-7","5","","","-0.04","2","59","","30.09","30.06","","3","229","","4","","","","","","","","","","","","","","","","","","","","","","","","","","","","","","","","","","","","","","","","","","","","","","","","","","","","","","","","","","","","","","","","","","","","","","","","","","","","","","","","","","","","","","","","","","","SYN004BUFR","","","","","","","","","",""
"01007099999","2021-11-12T21:00:00","78.9166666","11.9333333","7.7","NY ALESUND, SV","FM-12","4","","-9","3","","","-0.05","2","57","","30.10","30.07","","1","146","","9","","","","","","","","","","","","","","","","","","","","","","","","","","","","","","","","","","","","","","","","","","","","","","","","","","","","","","","","","","","","","","","","","","","","","","","","","","","","","","","","","","","","","","","","","","","SYN004BUFR","","","","","","","","","",""
"01007099999","2021-11-12T23:00:00","78.9166666","11.9333333","7.7","NY ALESUND, SV","FM-12","4","","-7","5","","","-0.04","2","57","","30.13","30.10","","3","151","","5","","","","","","","","","","","","","","","","","","","","","","","","","","","","","","","","","","","","","","","","","","","","","","","","","","","","","","","","","","","","","","","","","","","","","","","","","","","","","","","","","","","","","","","","","","","SYN004BUFR","","","","","","","","","",""
"01007099999","2021-11-13T02:00:00","78.9166666","11.9333333","7.7","NY ALESUND, SV","FM-12","4","","-6","7","","","-0.03","2","56","","30.16","30.13","","5","151","","4","","","","","","","","","","","","","","","","","","","","","","","","","","","","","","","","","","","","","","","","","","","","","","","","","","","","","","","","","","","","","","","","","","","","","","","","","","","","","","","","","","","","","","","","","","","SYN004BUFR","","","","","","","","","",""
"01007099999","2021-11-13T05:00:00","78.9166666","11.9333333","7.7","NY ALESUND, SV","FM-12","4","","-4","7","","","-0.03","2","60","","30.19","30.16","","5","239","","4","","","","","","","","","","","","","","","","","","","","","","","","","","","","","","","","","","","","","","","","","","","","","","","","","","","","","","","","","","","","","","","","","","","","","","","","","","","","","","","","","","","","","","","","","","","SYN004BUFR","","","","","","","","","",""
"01007099999","2021-11-13T06:00:00","78.9166666","11.9333333","7.7","NY ALESUND, SV","FM-12","4","","-4","6","","","-0.02","0","63","","30.19","30.16","","4","141","","3","","","","","","","","","","","","","","","","","","","","","","","","","","","","","","","","","","","","","","","","","","","","","","","","","","","","","","","","","","","","","","","","","","","","","","","","","","","","","","","","","","","","","","","","","","","SYN004BUFR","","","","","","","","","",""
"01007099999","2021-11-13T09:00:00","78.9166666","11.9333333","7.7","NY ALESUND, SV","FM-12","4","","-4","6","","","-0.02","2","64","","30.21","30.18","","4","360","","0","","","","","","","","","","","","","","","","","","","","","","","","","","","","","","","","","","","","","","","","","","","","","","","","","","","","","","","","","","","","","","","","","","","","","","","","","","","","","","","","","","","","","","","","","","","SYN004BUFR","","","","","","","","","",""
"01007099999","2021-11-13T10:00:00","78.9166666","11.9333333","7.7","NY ALESUND, SV","FM-12","4","","-2","6","","","-0.01","0","68","","30.21","30.18","","5","306","","1","","","","","","","","","","","","","","","","","","","","","","","","","","","","","","","","","","","","","","","","","","","","","","","","","","","","","","","","","","","","","","","","","","","","","","","","","","","","","","","","","","","","","","","","","","","SYN004BUFR","","","","","","","","","",""
"01007099999","2021-11-13T14:00:00","78.9166666","11.9333333","7.7","NY ALESUND, SV","FM-12","4","","0","10","","","-0.01","2","64","","30.22","30.19","","8","351","18","9","","","","","","","","","","","","","","","","","","","","","","","","","","","","","","","","","","","","","","","","","","","","","","","","","","","","","","","","","","","","","","","","","","","","","","","","","","","","","","","","","","","","","","","","","","","SYN004BUFR","","","","","","","","","",""
"01007099999","2021-11-13T18:00:00","78.9166666","11.9333333","7.7","NY ALESUND, SV","FM-12","4","","-1","9","","","-0.02","2","61","","30.25","30.22","","7","328","20","12","","","","","","","","","","","","","","","","","","","","","","","","","","","","","","","","","","","","","","","","","","","","","","","","","","","","","","","","","","","","","","","","","","","","","","","","","","","","","","","","","","","","","","","","","","","SYN004BUFR","","","","","","","","","",""
"01007099999","2021-11-13T22:00:00","78.9166666","11.9333333","7.7","NY ALESUND, SV","FM-12","4","","-3","7","","","-0.01","1","61","","30.28","30.25","","5","245","","4","","","","","","","","","","","","","","","","","","","","","","","","","","","","","","","","","","","","","","","","","","","","","","","","","","","","","","","","","","","","","","","","","","","","","","","","","","","","","","","","","","","","","","","","","","","SYN004BUFR","","","","","","","","","",""
"01007099999","2021-11-13T23:00:00","78.9166666","11.9333333","7.7","NY ALESUND, SV","FM-12","4","","4","9","","","-0.01","2","77","","30.29","30.26","","8","239","","7","","","","","","","","","","","","","","","","","","","","","","","","","","","","","","","","","","","","","","","","","","","","","","","","","","","","","","","","","","","","","","","","","","","","","","","","","","","","","","","","","","","","","","","","","","","SYN004BUFR","","","","","","","","","",""
"01007099999","2021-11-14T00:00:00","78.9166666","11.9333333","7.7","NY ALESUND, SV","FM-12","4","","6","11","0.01","","-0.01","0","80","","30.28","30.25","","10","256","","6","","","","","","","","","","","","","","","","","","","","","","","","","","","","","","","","","","","","","","","","","","","","","","","","","","","","","","","","","","","","","","","","","","","","","","","","","","","","","","","","","","","","","","","","","","","SYN004BUFR","","","","","","","","","",""
"01007099999","2021-11-14T03:00:00","78.9166666","11.9333333","7.7","NY ALESUND, SV","FM-12","4","","10","14","","","-0.01","2","83","","30.29","30.27","","13","307","32","21","","","","","","","","","","","","","","","","","","","","","","","","","","","","","","","","","","","","","","","","","","","","","","","","","","","","","","","","","","","","","","","","","","","","","","","","","","","","","","","","","","","","","","","","","","","SYN004BUFR","","","","","","","","","",""
"01007099999","2021-11-14T06:00:00","78.9166666","11.9333333","7.7","NY ALESUND, SV","FM-12","4","","8","14","","","-0.02","3","76","","30.31","30.28","","13","300","23","15","","","","","","","","","","","","","","","","","","","","","","","","","","","","","","","","","","","","","","","","","","","","","","","","","","","","","","","","","","","","","","","","","","","","","","","","","","","","","","","","","","","","","","","","","","","SYN004BUFR","","","","","","","","","",""
"01007099999","2021-11-14T08:00:00","78.9166666","11.9333333","7.7","NY ALESUND, SV","FM-12","4","","5","15","","","-0.01","1","66","","30.31","30.28","","13","294","25","16","","","","","","","","","","","","","","","","","","","","","","","","","","","","","","","","","","","","","","","","","","","","","","","","","","","","","","","","","","","","","","","","","","","","","","","","","","","","","","","","","","","","","","","","","","","SYN004BUFR","","","","","","","","","",""
"01007099999","2021-11-14T09:00:00","78.9166666","11.9333333","7.7","NY ALESUND, SV","FM-12","4","","6","14","","","0.00","4","70","","30.31","30.28","","12","296","22","13","","","","","","","","","","","","","","","","","","","","","","","","","","","","","","","","","","","","","","","","","","","","","","","","","","","","","","","","","","","","","","","","","","","","","","","","","","","","","","","","","","","","","","","","","","","SYN004BUFR","","","","","","","","","",""
"01007099999","2021-11-14T10:00:00","78.9166666","11.9333333","7.7","NY ALESUND, SV","FM-12","4","","4","15","","","-0.01","3","63","","30.33","30.30","","13","281","22","14","","","","","","","","","","","","","","","","","","","","","","","","","","","","","","","","","","","","","","","","","","","","","","","","","","","","","","","","","","","","","","","","","","","","","","","","","","","","","","","","","","","","","","","","","","","SYN004BUFR","","","","","","","","","",""
"01007099999","2021-11-14T11:00:00","78.9166666","11.9333333","7.7","NY ALESUND, SV","FM-12","4","","6","15","","","-0.02","3","69","","30.34","30.31","","13","296","19","13","","","","","","","","","","","","","","","","","","","","","","","","","","","","","","","","","","","","","","","","","","","","","","","","","","","","","","","","","","","","","","","","","","","","","","","","","","","","","","","","","","","","","","","","","","","SYN004BUFR","","","","","","","","","",""
"01007099999","2021-11-14T14:00:00","78.9166666","11.9333333","7.7","NY ALESUND, SV","FM-12","4","","8","15","0.00","","+0.04","8","74","","30.30","30.27","","13","246","","4","","","","","","","","","","","","","","","","","","","","","","","","","","","","","","","","","","","","","","","","","","","","","","","","","","","","","","","","","","","","","","","","","","","","","","","","","","","","","","","","","","","","","","","","","","","SYN004BUFR","","","","","","","","","",""
"01007099999","2021-11-14T17:00:00","78.9166666","11.9333333","7.7","NY ALESUND, SV","FM-12","4","","8","15","","","+0.03","8","75","","30.28","30.25","","13","235","","6","","","","","","","","","","","","","","","","","","","","","","","","","","","","","","","","","","","","","","","","","","","","","","","","","","","","","","","","","","","","","","","","","","","","","","","","","","","","","","","","","","","","","","","","","","","SYN004BUFR","","","","","","","","","",""
"01007099999","2021-11-14T18:00:00","78.9166666","11.9333333","7.7","NY ALESUND, SV","FM-12","4","","7","15","","","+0.06","8","72","","30.24","30.22","","13","146","","9","","","","","","","","","","","","","","","","","","","","","","","","","","","","","","","","","","","","","","","","","","","","","","","","","","","","","","","","","","","","","","","","","","","","","","","","","","","","","","","","","","","","","","","","","","","SYN004BUFR","","","","","","","","","",""
"01007099999","2021-11-15T00:00:00","78.9166666","11.9333333","7.7","NY ALESUND, SV","FM-12","4","","3","12","","","+0.10","8","66","","30.09","30.06","","10","137","14","9","","","","","","","","","","","","","","","","","","","","","","","","","","","","","","","","","","","","","","","","","","","","","","","","","","","","","","","","","","","","","","","","","","","","","","","","","","","","","","","","","","","","","","","","","","","SYN004BUFR","","","","","","","","","",""
"01007099999","2021-11-15T01:00:00","78.9166666","11.9333333","7.7","NY ALESUND, SV","FM-12","4","","2","14","","","+0.10","8","60","","30.06","30.03","","11","135","19","11","","","","","","","","","","","","","","","","","","","","","","","","","","","","","","","","","","","","","","","","","","","","","","","","","","","","","","","","","","","","","","","","","","","","","","","","","","","","","","","","","","","","","","","","","","","SYN004BUFR","","","","","","","","","",""
"01007099999","2021-11-15T02:00:00","78.9166666","11.9333333","7.7","NY ALESUND, SV","FM-12","4","","4","15","","","+0.12","8","60","","30.01","29.98","","12","133","22","8","","","","","","","","","","","","","","","","","","","","","","","","","","","","","","","","","","","","","","","","","","","","","","","","","","","","","","","","","","","","","","","","","","","","","","","","","","","","","","","","","","","","","","","","","","","SYN004BUFR","","","","","","","","","",""
"01007099999","2021-11-15T04:00:00","78.9166666","11.9333333","7.7","NY ALESUND, SV","FM-12","4","","2","15","","","+0.13","6","56","","29.93","29.90","","12","264","","5","","","","","","","","","","","","","","","","","","","","","","","","","","","","","","","","","","","","","","","","","","","","","","","","","","","","","","","","","","","","","","","","","","","","","","","","","","","","","","","","","","","","","","","","","","","SYN004BUFR","","","","","","","","","",""
"01007099999","2021-11-15T09:00:00","78.9166666","11.9333333","7.7","NY ALESUND, SV","FM-12","4","","12","18","","","+0.05","6","75","","29.83","29.80","","16","116","38","28","","","","","","","","","","","","","","","","","","","","","","","","","","","","","","","","","","","","","","","","","","","","","","","","","","","","","","","","","","","","","","","","","","","","","","","","","","","","","","","","","","","","","","","","","","","SYN004BUFR","","","","","","","","","",""
"01007099999","2021-11-15T10:00:00","78.9166666","11.9333333","7.7","NY ALESUND, SV","FM-12","4","","12","19","","","+0.05","6","75","","29.81","29.78","","17","108","41","32","","","","","","","","","","","","","","","","","","","","","","","","","","","","","","","","","","","","","","","","","","","","","","","","","","","","","","","","","","","","","","","","","","","","","","","","","","","","","","","","","","","","","","","","","","","SYN004BUFR","","","","","","","","","",""
"01007099999","2021-11-15T16:00:00","78.9166666","11.9333333","7.7","NY ALESUND, SV","FM-12","4","","13","20","","","+0.01","7","71","","29.75","29.72","","18","106","44","33","","","","","","","","","","","","","","","","","","","","","","","","","","","","","","","","","","","","","","","","","","","","","","","","","","","","","","","","","","","","","","","","","","","","","","","","","","","","","","","","","","","","","","","","","","","SYN004BUFR","","","","","","","","","",""
"01007099999","2021-11-15T17:00:00","78.9166666","11.9333333","7.7","NY ALESUND, SV","FM-12","4","","12","20","","","+0.00","5","71","","29.76","29.73","","18","107","44","31","","","","","","","","","","","","","","","","","","","","","","","","","","","","","","","","","","","","","","","","","","","","","","","","","","","","","","","","","","","","","","","","","","","","","","","","","","","","","","","","","","","","","","","","","","","SYN004BUFR","","","","","","","","","",""
"01007099999","2021-11-15T20:00:00","78.9166666","11.9333333","7.7","NY ALESUND, SV","FM-12","4","","11","18","","","+0.01","5","73","","29.75","29.72","","16","121","40","32","","","","","","","","","","","","","","","","","","","","","","","","","","","","","","","","","","","","","","","","","","","","","","","","","","","","","","","","","","","","","","","","","","","","","","","","","","","","","","","","","","","","","","","","","","","SYN004BUFR","","","","","","","","","",""
"01007099999","2021-11-15T23:00:00","78.9166666","11.9333333","7.7","NY ALESUND, SV","FM-12","4","","7","18","","","-0.02","2","62","","29.77","29.74","","15","194","29","6","","","","","","","","","","","","","","","","","","","","","","","","","","","","","","","","","","","","","","","","","","","","","","","","","","","","","","","","","","","","","","","","","","","","","","","","","","","","","","","","","","","","","","","","","","","SYN004BUFR","","","","","","","","","",""
"01007099999","2021-11-16T02:00:00","78.9166666","11.9333333","7.7","NY ALESUND, SV","FM-12","4","","10","19","","","-0.02","2","67","","29.79","29.76","","17","125","31","19","","","","","","","","","","","","","","","","","","","","","","","","","","","","","","","","","","","","","","","","","","","","","","","","","","","","","","","","","","","","","","","","","","","","","","","","","","","","","","","","","","","","","","","","","","","SYN004BUFR","","","","","","","","","",""
"01007099999","2021-11-16T06:00:00","78.9166666","11.9333333","7.7","NY ALESUND, SV","FM-12","4","","14","22","","","-0.03","2","71","","29.83","29.80","","20","114","35","27","","","","","","","","","","","","","","","","","","","","","","","","","","","","","","","","","","","","","","","","","","","","","","","","","","","","","","","","","","","","","","","","","","","","","","","","","","","","","","","","","","","","","","","","","","","SYN004BUFR","","","","","","","","","",""
"01007099999","2021-11-16T12:00:00","78.9166666","11.9333333","7.7","NY ALESUND, SV","FM-12","4","","10","19","","","-0.03","2","67","","29.87","29.84","","17","124","33","21","","","","","","","","","","","","","","","","","","","","","","","","","","","","","","","","","","","","","","","","","","","","","","","","","","","","","","","","","","","","","","","","","","","","","","","","","","","","","","","","","","","","","","","","","","","SYN004BUFR","","","","","","","","","",""
"01007099999","2021-11-16T13:00:00","78.9166666","11.9333333","7.7","NY ALESUND, SV","FM-12","4","","9","19","","||BLSN","-0.03","1","64","","29.88","29.85","34.18","16","113","35","24","","","","","","","","","","","","","","","","","","","","","","","","","","","","","","","","","","","","","","","","","","","","","","","","","","","","","","","","","","","","","","","","","","","","","","","","","","","","","","","","","","","","","","","","","","","SYN004BUFR","","","","","","","","","",""
"01007099999","2021-11-16T15:00:00","78.9166666","11.9333333","7.7","NY ALESUND, SV","FM-12","4","","7","18","","","-0.01","2","61","","29.88","29.85","","15","121","30","19","","","","","","","","","","","","","","","","","","","","","","","","","","","","","","","","","","","","","","","","","","","","","","","","","","","","","","","","","","","","","","","","","","","","","","","","","","","","","","","","","","","","","","","","","","","SYN004BUFR","","","","","","","","","",""
"01007099999","2021-11-16T22:00:00","78.9166666","11.9333333","7.7","NY ALESUND, SV","FM-12","4","","5","18","","","-0.00","0","56","","29.86","29.83","","15","181","29","6","","","","","","","","","","","","","","","","","","","","","","","","","","","","","","","","","","","","","","","","","","","","","","","","","","","","","","","","","","","","","","","","","","","","","","","","","","","","","","","","","","","","","","","","","","","SYN004BUFR","","","","","","","","","",""
"01007099999","2021-11-16T23:00:00","78.9166666","11.9333333","7.7","NY ALESUND, SV","FM-12","4","","10","22","","","-0.01","3","60","","29.86","29.83","","19","126","31","15","","","","","","","","","","","","","","","","","","","","","","","","","","","","","","","","","","","","","","","","","","","","","","","","","","","","","","","","","","","","","","","","","","","","","","","","","","","","","","","","","","","","","","","","","","","SYN004BUFR","","","","","","","","","",""
"01007099999","2021-11-17T03:00:00","78.9166666","11.9333333","7.7","NY ALESUND, SV","FM-12","4","","16","25","","","+0.03","8","69","","29.84","29.81","","22","104","40","30","","","","","","","","","","","","","","","","","","","","","","","","","","","","","","","","","","","","","","","","","","","","","","","","","","","","","","","","","","","","","","","","","","","","","","","","","","","","","","","","","","","","","","","","","","","SYN004BUFR","","","","","","","","","",""
"01007099999","2021-11-17T06:00:00","78.9166666","11.9333333","7.7","NY ALESUND, SV","FM-12","4","","16","25","","","+0.04","6","70","","29.80","29.77","","22","108","45","36","","","","","","","","","","","","","","","","","","","","","","","","","","","","","","","","","","","","","","","","","","","","","","","","","","","","","","","","","","","","","","","","","","","","","","","","","","","","","","","","","","","","","","","","","","","SYN004BUFR","","","","","","","","","",""
"01007099999","2021-11-17T09:00:00","78.9166666","11.9333333","7.7","NY ALESUND, SV","FM-12","4","","17","25","","","+0.06","6","72","","29.74","29.71","","23","116","49","34","","","","","","","","","","","","","","","","","","","","","","","","","","","","","","","","","","","","","","","","","","","","","","","","","","","","","","","","","","","","","","","","","","","","","","","","","","","","","","","","","","","","","","","","","","","SYN004BUFR","","","","","","","","","",""
"01007099999","2021-11-17T12:00:00","78.9166666","11.9333333","7.7","NY ALESUND, SV","FM-12","4","","18","26","","","+0.00","5","72","","29.74","29.71","","23","113","46","35","","","","","","","","","","","","","","","","","","","","","","","","","","","","","","","","","","","","","","","","","","","","","","","","","","","","","","","","","","","","","","","","","","","","","","","","","","","","","","","","","","","","","","","","","","","SYN004BUFR","","","","","","","","","",""
"01007099999","2021-11-17T13:00:00","78.9166666","11.9333333","7.7","NY ALESUND, SV","FM-12","4","","19","26","","","+0.01","8","75","82","29.73","29.70","40.39","24","120","50","33","","","","","","","","","","","","","","","","","","","","","","","","","","","","","","","","","","","","","","","","","","","","","","","","","","","","","","","","","","","","","","","","","","","","","","","","","","","","","","","","","","","","","","","","","","","SYN004BUFR","","","","","","","","","",""
"01007099999","2021-11-17T18:00:00","78.9166666","11.9333333","7.7","NY ALESUND, SV","FM-12","4","","19","27","","","+0.00","5","73","","29.70","29.67","","24","110","49","40","","","","","","","","","","","","","","","","","","","","","","","","","","","","","","","","","","","","","","","","","","","","","","","","","","","","","","","","","","","","","","","","","","","","","","","","","","","","","","","","","","","","","","","","","","","SYN004BUFR","","","","","","","","","",""
"01007099999","2021-11-17T22:00:00","78.9166666","11.9333333","7.7","NY ALESUND, SV","FM-12","4","","17","27","","","+0.01","8","67","","29.68","29.65","","24","112","50","34","","","","","","","","","","","","","","","","","","","","","","","","","","","","","","","","","","","","","","","","","","","","","","","","","","","","","","","","","","","","","","","","","","","","","","","","","","","","","","","","","","","","","","","","","","","SYN004BUFR","","","","","","","","","",""
"01007099999","2021-11-18T00:00:00","78.9166666","11.9333333","7.7","NY ALESUND, SV","FM-12","4","","17","26","","","+0.02","7","69","","29.67","29.64","","23","110","57","40","","","","","","","","","","","","","","","","","","","","","","","","","","","","","","","","","","","","","","","","","","","","","","","","","","","","","","","","","","","","","","","","","","","","","","","","","","","","","","","","","","","","","","","","","","","SYN004BUFR","","","","","","","","","",""
"01007099999","2021-11-18T03:00:00","78.9166666","11.9333333","7.7","NY ALESUND, SV","FM-12","4","","17","25","","","+0.01","7","71","","29.66","29.63","","23","107","51","40","","","","","","","","","","","","","","","","","","","","","","","","","","","","","","","","","","","","","","","","","","","","","","","","","","","","","","","","","","","","","","","","","","","","","","","","","","","","","","","","","","","","","","","","","","","SYN004BUFR","","","","","","","","","",""
"01007099999","2021-11-18T13:00:00","78.9166666","11.9333333","7.7","NY ALESUND, SV","FM-12","4","","14","23","","","-0.02","2","69","BKN:05 49","29.67","29.64","40.39","20","114","44","33","","","","","","","","","","","","","","","","","","","","","","","","","","","","","","","","","","","","","","","","","","","","","","","","","","","","","","","","","","","","","","","","","","","","","","","","","","","","","","","","","","","","","","","","","","","SYN004BUFR","","","","","","","","","",""
"01007099999","2021-11-18T16:00:00","78.9166666","11.9333333","7.7","NY ALESUND, SV","FM-12","4","","13","23","","","-0.01","0","66","","29.67","29.64","","20","108","48","36","","","","","","","","","","","","","","","","","","","","","","","","","","","","","","","","","","","","","","","","","","","","","","","","","","","","","","","","","","","","","","","","","","","","","","","","","","","","","","","","","","","","","","","","","","","SYN004BUFR","","","","","","","","","",""
"01007099999","2021-11-18T19:00:00","78.9166666","11.9333333","7.7","NY ALESUND, SV","FM-12","4","","12","23","","","-0.01","1","63","FEW:02 66","29.68","29.65","31.07","20","101","46","34","","","","","","","","","","","","","","","","","","","","","","","","","","","","","","","","","","","","","","","","","","","","","","","","","","","","","","","","","","","","","","","","","","","","","","","","","","","","","","","","","","","","","","","","","","","SYN004BUFR","","","","","","","","","",""
"01007099999","2021-11-18T22:00:00","78.9166666","11.9333333","7.7","NY ALESUND, SV","FM-12","4","","11","22","","","-0.03","2","63","","29.71","29.68","","19","105","43","31","","","","","","","","","","","","","","","","","","","","","","","","","","","","","","","","","","","","","","","","","","","","","","","","","","","","","","","","","","","","","","","","","","","","","","","","","","","","","","","","","","","","","","","","","","","SYN004BUFR","","","","","","","","","",""
"01007099999","2021-11-18T23:00:00","78.9166666","11.9333333","7.7","NY ALESUND, SV","FM-12","4","","10","22","","","-0.03","2","61","","29.72","29.69","","19","106","43","32","","","","","","","","","","","","","","","","","","","","","","","","","","","","","","","","","","","","","","","","","","","","","","","","","","","","","","","","","","","","","","","","","","","","","","","","","","","","","","","","","","","","","","","","","","","SYN004BUFR","","","","","","","","","",""
"01007099999","2021-11-19T01:00:00","78.9166666","11.9333333","7.7","NY ALESUND, SV","FM-12","4","","11","21","","","-0.02","0","66","","29.73","29.70","","18","097","38","27","","","","","","","","","","","","","","","","","","","","","","","","","","","","","","","","","","","","","","","","","","","","","","","","","","","","","","","","","","","","","","","","","","","","","","","","","","","","","","","","","","","","","","","","","","","SYN004BUFR","","","","","","","","","",""
"01007099999","2021-11-19T03:00:00","78.9166666","11.9333333","7.7","NY ALESUND, SV","FM-12","4","","10","20","","","-0.01","3","63","","29.75","29.72","","17","101","36","25","","","","","","","","","","","","","","","","","","","","","","","","","","","","","","","","","","","","","","","","","","","","","","","","","","","","","","","","","","","","","","","","","","","","","","","","","","","","","","","","","","","","","","","","","","","SYN004BUFR","","","","","","","","","",""
"01007099999","2021-11-19T12:00:00","78.9166666","11.9333333","7.7","NY ALESUND, SV","FM-12","4","","8","17","","","-0.03","2","66","","29.82","29.79","","15","109","24","15","","","","","","","","","","","","","","","","","","","","","","","","","","","","","","","","","","","","","","","","","","","","","","","","","","","","","","","","","","","","","","","","","","","","","","","","","","","","","","","","","","","","","","","","","","","SYN004BUFR","","","","","","","","","",""
"01007099999","2021-11-19T17:00:00","78.9166666","11.9333333","7.7","NY ALESUND, SV","FM-12","4","","0","11","","","-0.01","2","61","","29.85","29.82","","9","289","17","3","","","","","","","","","","","","","","","","","","","","","","","","","","","","","","","","","","","","","","","","","","","","","","","","","","","","","","","","","","","","","","","","","","","","","","","","","","","","","","","","","","","","","","","","","","","SYN004BUFR","","","","","","","","","",""
"01007099999","2021-11-19T19:00:00","78.9166666","11.9333333","7.7","NY ALESUND, SV","FM-12","4","","0","14","","","-0.04","3","55","","29.88","29.85","46.60","11","130","20","15","","","","","","","","","","","","","","","","","","","","","","","","","","","","","","","","","","","","","","","","","","","","","","","","","","","","","","","","","","","","","","","","","","","","","","","","","","","","","","","","","","","","","","","","","","","SYN004BUFR","","","","","","","","","",""
"01007099999","2021-11-19T23:00:00","78.9166666","11.9333333","7.7","NY ALESUND, SV","FM-12","4","","-1","12","","","-0.07","1","54","","29.99","29.96","","9","134","28","15","","","","","","","","","","","","","","","","","","","","","","","","","","","","","","","","","","","","","","","","","","","","","","","","","","","","","","","","","","","","","","","","","","","","","","","","","","","","","","","","","","","","","","","","","","","SYN004BUFR","","","","","","","","","",""
"01007099999","2021-11-20T02:00:00","78.9166666","11.9333333","7.7","NY ALESUND, SV","FM-12","4","","-1","12","","","-0.04","1","55","","30.03","30.00","","9","144","19","13","","","","","","","","","","","","","","","","","","","","","","","","","","","","","","","","","","","","","","","","","","","","","","","","","","","","","","","","","","","","","","","","","","","","","","","","","","","","","","","","","","","","","","","","","","","SYN004BUFR","","","","","","","","","",""
"01007099999","2021-11-20T10:00:00","78.9166666","11.9333333","7.7","NY ALESUND, SV","FM-12","4","","-4","12","","","-0.02","1","49","","30.07","30.04","","9","228","","4","","","","","","","","","","","","","","","","","","","","","","","","","","","","","","","","","","","","","","","","","","","","","","","","","","","","","","","","","","","","","","","","","","","","","","","","","","","","","","","","","","","","","","","","","","","SYN004BUFR","","","","","","","","","",""
"01007099999","2021-11-20T11:00:00","78.9166666","11.9333333","7.7","NY ALESUND, SV","FM-12","4","","-5","8","","","-0.01","0","54","","30.07","30.04","","6","179","","6","","","","","","","","","","","","","","","","","","","","","","","","","","","","","","","","","","","","","","","","","","","","","","","","","","","","","","","","","","","","","","","","","","","","","","","","","","","","","","","","","","","","","","","","","","","SYN004BUFR","","","","","","","","","",""
"01007099999","2021-11-20T20:00:00","78.9166666","11.9333333","7.7","NY ALESUND, SV","FM-12","4","","0","11","","","+0.02","7","61","","29.99","29.96","","9","154","13","5","","","","","","","","","","","","","","","","","","","","","","","","","","","","","","","","","","","","","","","","","","","","","","","","","","","","","","","","","","","","","","","","","","","","","","","","","","","","","","","","","","","","","","","","","","","SYN004BUFR","","","","","","","","","",""
"01007099999","2021-11-20T21:00:00","78.9166666","11.9333333","7.7","NY ALESUND, SV","FM-12","4","","1","11","","","+0.02","7","64","","29.98","29.96","","9","258","","4","","","","","","","","","","","","","","","","","","","","","","","","","","","","","","","","","","","","","","","","","","","","","","","","","","","","","","","","","","","","","","","","","","","","","","","","","","","","","","","","","","","","","","","","","","","SYN004BUFR","","","","","","","","","",""
"01007099999","2021-11-20T22:00:00","78.9166666","11.9333333","7.7","NY ALESUND, SV","FM-12","4","","2","15","","","+0.02","7","58","","29.98","29.95","","12","029","13","8","","","","","","","","","","","","","","","","","","","","","","","","","","","","","","","","","","","","","","","","","","","","","","","","","","","","","","","","","","","","","","","","","","","","","","","","","","","","","","","","","","","","","","","","","","","SYN004BUFR","","","","","","","","","",""
"01007099999","2021-11-20T23:00:00","78.9166666","11.9333333","7.7","NY ALESUND, SV","FM-12","4","","-1","15","","","+0.03","7","49","","29.96","29.93","","12","019","16","9","","","","","","","","","","","","","","","","","","","","","","","","","","","","","","","","","","","","","","","","","","","","","","","","","","","","","","","","","","","","","","","","","","","","","","","","","","","","","","","","","","","","","","","","","","","SYN004BUFR","","","","","","","","","",""
"01007099999","2021-11-21T08:00:00","78.9166666","11.9333333","7.7","NY ALESUND, SV","FM-12","4","","-3","6","","","+0.02","7","66","","29.87","29.84","","4","142","","7","","","","","","","","","","","","","","","","","","","","","","","","","","","","","","","","","","","","","","","","","","","","","","","","","","","","","","","","","","","","","","","","","","","","","","","","","","","","","","","","","","","","","","","","","","","SYN004BUFR","","","","","","","","","",""
"01007099999","2021-11-21T09:00:00","78.9166666","11.9333333","7.7","NY ALESUND, SV","FM-12","4","","-2","6","","","+0.02","7","68","","29.87","29.84","","5","285","","1","","","","","","","","","","","","","","","","","","","","","","","","","","","","","","","","","","","","","","","","","","","","","","","","","","","","","","","","","","","","","","","","","","","","","","","","","","","","","","","","","","","","","","","","","","","SYN004BUFR","","","","","","","","","",""
"01007099999","2021-11-21T10:00:00","78.9166666","11.9333333","7.7","NY ALESUND, SV","FM-12","4","","-3","6","","","+0.02","7","67","","29.86","29.83","","4","155","","3","","","","","","","","","","","","","","","","","","","","","","","","","","","","","","","","","","","","","","","","","","","","","","","","","","","","","","","","","","","","","","","","","","","","","","","","","","","","","","","","","","","","","","","","","","","SYN004BUFR","","","","","","","","","",""
"01007099999","2021-11-21T14:00:00","78.9166666","11.9333333","7.7","NY ALESUND, SV","FM-12","4","","-2","6","","","+0.01","7","70","","29.84","29.81","","5","154","","2","","","","","","","","","","","","","","","","","","","","","","","","","","","","","","","","","","","","","","","","","","","","","","","","","","","","","","","","","","","","","","","","","","","","","","","","","","","","","","","","","","","","","","","","","","","SYN004BUFR","","","","","","","","","",""
"01007099999","2021-11-21T16:00:00","78.9166666","11.9333333","7.7","NY ALESUND, SV","FM-12","4","","-2","6","","","+0.02","8","69","","29.83","29.80","","5","143","","2","","","","","","","","","","","","","","","","","","","","","","","","","","","","","","","","","","","","","","","","","","","","","","","","","","","","","","","","","","","","","","","","","","","","","","","","","","","","","","","","","","","","","","","","","","","SYN004BUFR","","","","","","","","","",""
"01007099999","2021-11-21T20:00:00","78.9166666","11.9333333","7.7","NY ALESUND, SV","FM-12","4","","-5","6","","","+0.01","6","63","","29.80","29.77","","4","136","","5","","","","","","","","","","","","","","","","","","","","","","","","","","","","","","","","","","","","","","","","","","","","","","","","","","","","","","","","","","","","","","","","","","","","","","","","","","","","","","","","","","","","","","","","","","","SYN004BUFR","","","","","","","","","",""
"01007099999","2021-11-22T00:00:00","78.9166666","11.9333333","7.7","NY ALESUND, SV","FM-12","4","","-2","6","","","+0.01","7","68","","29.79","29.76","","5","241","","2","","","","","","","","","","","","","","","","","","","","","","","","","","","","","","","","","","","","","","","","","","","","","","","","","","","","","","","","","","","","","","","","","","","","","","","","","","","","","","","","","","","","","","","","","","","SYN004BUFR","","","","","","","","","",""
"01007099999","2021-11-22T01:00:00","78.9166666","11.9333333","7.7","NY ALESUND, SV","FM-12","4","","-4","6","","","+0.01","7","61","","29.79","29.76","","4","219","","2","","","","","","","","","","","","","","","","","","","","","","","","","","","","","","","","","","","","","","","","","","","","","","","","","","","","","","","","","","","","","","","","","","","","","","","","","","","","","","","","","","","","","","","","","","","SYN004BUFR","","","","","","","","","",""
"01007099999","2021-11-22T02:00:00","78.9166666","11.9333333","7.7","NY ALESUND, SV","FM-12","4","","-6","4","","","+0.01","7","64","","29.79","29.76","","2","187","","3","","","","","","","","","","","","","","","","","","","","","","","","","","","","","","","","","","","","","","","","","","","","","","","","","","","","","","","","","","","","","","","","","","","","","","","","","","","","","","","","","","","","","","","","","","","SYN004BUFR","","","","","","","","","",""
"01007099999","2021-11-22T04:00:00","78.9166666","11.9333333","7.7","NY ALESUND, SV","FM-12","4","","-2","8","","","-0.01","3","64","","29.80","29.77","","6","168","","4","","","","","","","","","","","","","","","","","","","","","","","","","","","","","","","","","","","","","","","","","","","","","","","","","","","","","","","","","","","","","","","","","","","","","","","","","","","","","","","","","","","","","","","","","","","SYN004BUFR","","","","","","","","","",""
"01007099999","2021-11-22T06:00:00","78.9166666","11.9333333","7.7","NY ALESUND, SV","FM-12","4","","-1","9","","","-0.02","2","62","","29.81","29.78","","7","140","","6","","","","","","","","","","","","","","","","","","","","","","","","","","","","","","","","","","","","","","","","","","","","","","","","","","","","","","","","","","","","","","","","","","","","","","","","","","","","","","","","","","","","","","","","","","","SYN004BUFR","","","","","","","","","",""
"01007099999","2021-11-22T08:00:00","78.9166666","11.9333333","7.7","NY ALESUND, SV","FM-12","4","","0","9","","","-0.03","2","65","","29.84","29.81","","7","220","15","5","","","","","","","","","","","","","","","","","","","","","","","","","","","","","","","","","","","","","","","","","","","","","","","","","","","","","","","","","","","","","","","","","","","","","","","","","","","","","","","","","","","","","","","","","","","SYN004BUFR","","","","","","","","","",""
"01007099999","2021-11-22T12:00:00","78.9166666","11.9333333","7.7","NY ALESUND, SV","FM-12","4","","-1","7","","","-0.03","2","67","","29.88","29.85","","6","145","14","10","","","","","","","","","","","","","","","","","","","","","","","","","","","","","","","","","","","","","","","","","","","","","","","","","","","","","","","","","","","","","","","","","","","","","","","","","","","","","","","","","","","","","","","","","","","SYN004BUFR","","","","","","","","","",""
"01007099999","2021-11-22T14:00:00","78.9166666","11.9333333","7.7","NY ALESUND, SV","FM-12","4","","-4","7","","","-0.03","2","59","","29.90","29.87","","5","143","15","11","","","","","","","","","","","","","","","","","","","","","","","","","","","","","","","","","","","","","","","","","","","","","","","","","","","","","","","","","","","","","","","","","","","","","","","","","","","","","","","","","","","","","","","","","","","SYN004BUFR","","","","","","","","","",""
"01007099999","2021-11-22T23:00:00","78.9166666","11.9333333","7.7","NY ALESUND, SV","FM-12","4","","-5","9","","","-0.03","1","50","","29.97","29.94","","7","146","11","7","","","","","","","","","","","","","","","","","","","","","","","","","","","","","","","","","","","","","","","","","","","","","","","","","","","","","","","","","","","","","","","","","","","","","","","","","","","","","","","","","","","","","","","","","","","SYN004BUFR","","","","","","","","","",""
"01007099999","2021-11-23T00:00:00","78.9166666","11.9333333","7.7","NY ALESUND, SV","FM-12","4","","-5","9","","","-0.02","2","52","","29.98","29.95","","7","132","","2","","","","","","","","","","","","","","","","","","","","","","","","","","","","","","","","","","","","","","","","","","","","","","","","","","","","","","","","","","","","","","","","","","","","","","","","","","","","","","","","","","","","","","","","","","","SYN004BUFR","","","","","","","","","",""
"01007099999","2021-11-23T01:00:00","78.9166666","11.9333333","7.7","NY ALESUND, SV","FM-12","4","","-9","2","","","-0.02","2","59","","29.98","29.95","","0","283","12","2","","","","","","","","","","","","","","","","","","","","","","","","","","","","","","","","","","","","","","","","","","","","","","","","","","","","","","","","","","","","","","","","","","","","","","","","","","","","","","","","","","","","","","","","","","","SYN004BUFR","","","","","","","","","",""
"01007099999","2021-11-23T04:00:00","78.9166666","11.9333333","7.7","NY ALESUND, SV","FM-12","4","","-5","8","","","-0.01","2","55","","29.99","29.96","","6","094","","1","","","","","","","","","","","","","","","","","","","","","","","","","","","","","","","","","","","","","","","","","","","","","","","","","","","","","","","","","","","","","","","","","","","","","","","","","","","","","","","","","","","","","","","","","","","SYN004BUFR","","","","","","","","","",""
"01007099999","2021-11-23T06:00:00","78.9166666","11.9333333","7.7","NY ALESUND, SV","FM-12","4","","-7","9","","","0.00","4","49","","29.99","29.96","","6","124","","3","","","","","","","","","","","","","","","","","","","","","","","","","","","","","","","","","","","","","","","","","","","","","","","","","","","","","","","","","","","","","","","","","","","","","","","","","","","","","","","","","","","","","","","","","","","SYN004BUFR","","","","","","","","","",""
"01007099999","2021-11-23T08:00:00","78.9166666","11.9333333","7.7","NY ALESUND, SV","FM-12","4","","-8","6","","","-0.01","3","53","","30.00","29.97","","4","237","","4","","","","","","","","","","","","","","","","","","","","","","","","","","","","","","","","","","","","","","","","","","","","","","","","","","","","","","","","","","","","","","","","","","","","","","","","","","","","","","","","","","","","","","","","","","","SYN004BUFR","","","","","","","","","",""
"01007099999","2021-11-23T10:00:00","78.9166666","11.9333333","7.7","NY ALESUND, SV","FM-12","4","","-7","8","","","-0.02","0","48","","30.01","29.98","","6","248","","5","","","","","","","","","","","","","","","","","","","","","","","","","","","","","","","","","","","","","","","","","","","","","","","","","","","","","","","","","","","","","","","","","","","","","","","","","","","","","","","","","","","","","","","","","","","SYN004BUFR","","","","","","","","","",""
"01007099999","2021-11-23T11:00:00","78.9166666","11.9333333","7.7","NY ALESUND, SV","FM-12","4","","-4","9","","","-0.01","1","53","","30.02","29.99","","7","251","","7","","","","","","","","","","","","","","","","","","","","","","","","","","","","","","","","","","","","","","","","","","","","","","","","","","","","","","","","","","","","","","","","","","","","","","","","","","","","","","","","","","","","","","","","","","","SYN004BUFR","","","","","","","","","",""
"01007099999","2021-11-23T14:00:00","78.9166666","11.9333333","7.7","NY ALESUND, SV","FM-12","4","","-2","11","","","-0.01","2","56","","30.03","30.00","","8","145","","7","","","","","","","","","","","","","","","","","","","","","","","","","","","","","","","","","","","","","","","","","","","","","","","","","","","","","","","","","","","","","","","","","","","","","","","","","","","","","","","","","","","","","","","","","","","SYN004BUFR","","","","","","","","","",""
"01007099999","2021-11-23T23:00:00","78.9166666","11.9333333","7.7","NY ALESUND, SV","FM-12","4","","-2","9","","","-0.03","2","60","","30.09","30.06","","7","259","","2","","","","","","","","","","","","","","","","","","","","","","","","","","","","","","","","","","","","","","","","","","","","","","","","","","","","","","","","","","","","","","","","","","","","","","","","","","","","","","","","","","","","","","","","","","","SYN004BUFR","","","","","","","","","",""
"01007099999","2021-11-24T00:00:00","78.9166666","11.9333333","7.7","NY ALESUND, SV","FM-12","4","","-1","11","","","-0.02","2","58","","30.09","30.06","","9","224","","2","","","","","","","","","","","","","","","","","","","","","","","","","","","","","","","","","","","","","","","","","","","","","","","","","","","","","","","","","","","","","","","","","","","","","","","","","","","","","","","","","","","","","","","","","","","SYN004BUFR","","","","","","","","","",""
"01007099999","2021-11-24T04:00:00","78.9166666","11.9333333","7.7","NY ALESUND, SV","FM-12","4","","-2","9","","","-0.01","2","61","","30.11","30.08","","7","133","","7","","","","","","","","","","","","","","","","","","","","","","","","","","","","","","","","","","","","","","","","","","","","","","","","","","","","","","","","","","","","","","","","","","","","","","","","","","","","","","","","","","","","","","","","","","","SYN004BUFR","","","","","","","","","",""
"01007099999","2021-11-24T05:00:00","78.9166666","11.9333333","7.7","NY ALESUND, SV","FM-12","4","","-2","9","","","-0.01","2","59","","30.11","30.08","","7","147","12","2","","","","","","","","","","","","","","","","","","","","","","","","","","","","","","","","","","","","","","","","","","","","","","","","","","","","","","","","","","","","","","","","","","","","","","","","","","","","","","","","","","","","","","","","","","","SYN004BUFR","","","","","","","","","",""
"01007099999","2021-11-24T10:00:00","78.9166666","11.9333333","7.7","NY ALESUND, SV","FM-12","4","","-6","8","","","-0.04","2","54","","30.16","30.13","","6","136","19","15","","","","","","","","","","","","","","","","","","","","","","","","","","","","","","","","","","","","","","","","","","","","","","","","","","","","","","","","","","","","","","","","","","","","","","","","","","","","","","","","","","","","","","","","","","","SYN004BUFR","","","","","","","","","",""
"01007099999","2021-11-24T11:00:00","78.9166666","11.9333333","7.7","NY ALESUND, SV","FM-12","4","","-8","9","","","-0.01","0","46","","30.15","30.12","","6","138","21","15","","","","","","","","","","","","","","","","","","","","","","","","","","","","","","","","","","","","","","","","","","","","","","","","","","","","","","","","","","","","","","","","","","","","","","","","","","","","","","","","","","","","","","","","","","","SYN004BUFR","","","","","","","","","",""
"01007099999","2021-11-24T14:00:00","78.9166666","11.9333333","7.7","NY ALESUND, SV","FM-12","4","","-11","8","","","+0.04","8","41","","30.11","30.09","","5","138","13","8","","","","","","","","","","","","","","","","","","","","","","","","","","","","","","","","","","","","","","","","","","","","","","","","","","","","","","","","","","","","","","","","","","","","","","","","","","","","","","","","","","","","","","","","","","","SYN004BUFR","","","","","","","","","",""
"01007099999","2021-11-25T00:00:00","78.9166666","11.9333333","7.7","NY ALESUND, SV","FM-12","4","","-5","9","","","+0.04","7","55","","29.97","29.94","","7","247","","2","","","","","","","","","","","","","","","","","","","","","","","","","","","","","","","","","","","","","","","","","","","","","","","","","","","","","","","","","","","","","","","","","","","","","","","","","","","","","","","","","","","","","","","","","","","SYN004BUFR","","","","","","","","","",""
"01007099999","2021-11-25T01:00:00","78.9166666","11.9333333","7.7","NY ALESUND, SV","FM-12","4","","-4","8","","","+0.04","8","58","","29.95","29.92","","6","043","","0","","","","","","","","","","","","","","","","","","","","","","","","","","","","","","","","","","","","","","","","","","","","","","","","","","","","","","","","","","","","","","","","","","","","","","","","","","","","","","","","","","","","","","","","","","","SYN004BUFR","","","","","","","","","",""
"01007099999","2021-11-25T06:00:00","78.9166666","11.9333333","7.7","NY ALESUND, SV","FM-12","4","","-4","6","","","+0.05","6","63","","29.87","29.84","","4","247","","6","","","","","","","","","","","","","","","","","","","","","","","","","","","","","","","","","","","","","","","","","","","","","","","","","","","","","","","","","","","","","","","","","","","","","","","","","","","","","","","","","","","","","","","","","","","SYN004BUFR","","","","","","","","","",""
"01007099999","2021-11-25T09:00:00","78.9166666","11.9333333","7.7","NY ALESUND, SV","FM-12","4","","-2","6","","","+0.04","6","68","","29.83","29.80","","5","268","","4","","","","","","","","","","","","","","","","","","","","","","","","","","","","","","","","","","","","","","","","","","","","","","","","","","","","","","","","","","","","","","","","","","","","","","","","","","","","","","","","","","","","","","","","","","","SYN004BUFR","","","","","","","","","",""
"01007099999","2021-11-25T12:00:00","78.9166666","11.9333333","7.7","NY ALESUND, SV","FM-12","4","","-1","12","","","+0.04","7","57","","29.78","29.75","","9","328","16","9","","","","","","","","","","","","","","","","","","","","","","","","","","","","","","","","","","","","","","","","","","","","","","","","","","","","","","","","","","","","","","","","","","","","","","","","","","","","","","","","","","","","","","","","","","","SYN004BUFR","","","","","","","","","",""
"01007099999","2021-11-25T22:00:00","78.9166666","11.9333333","7.7","NY ALESUND, SV","FM-12","4","","1","11","","","+0.06","7","64","","29.59","29.56","","9","324","33","26","","","","","","","","","","","","","","","","","","","","","","","","","","","","","","","","","","","","","","","","","","","","","","","","","","","","","","","","","","","","","","","","","","","","","","","","","","","","","","","","","","","","","","","","","","","SYN004BUFR","","","","","","","","","",""
"01007099999","2021-11-26T04:00:00","78.9166666","11.9333333","7.7","NY ALESUND, SV","FM-12","4","","-10","6","","","","","46","","29.58","29.55","","4","005","15","7","","","","","","","","","","","","","","","","","","","","","","","","","","","","","","","","","","","","","","","","","","","","","","","","","","","","","","","","","","","","","","","","","","","","","","","","","","","","","","","","","","","","","","","","","","","SYN004BUFR","","","","","","","","","",""
"01007099999","2021-11-26T06:00:00","78.9166666","11.9333333","7.7","NY ALESUND, SV","FM-12","4","","-9","4","","","+0.00","5","55","","29.58","29.55","","2","287","17","7","","","","","","","","","","","","","","","","","","","","","","","","","","","","","","","","","","","","","","","","","","","","","","","","","","","","","","","","","","","","","","","","","","","","","","","","","","","","","","","","","","","","","","","","","","","SYN004BUFR","","","","","","","","","",""
"01007099999","2021-11-26T09:00:00","78.9166666","11.9333333","7.7","NY ALESUND, SV","FM-12","4","","-5","5","","","+0.01","5","62","","29.57","29.54","","3","148","","6","","","","","","","","","","","","","","","","","","","","","","","","","","","","","","","","","","","","","","","","","","","","","","","","","","","","","","","","","","","","","","","","","","","","","","","","","","","","","","","","","","","","","","","","","","","SYN004BUFR","","","","","","","","","",""
"01007099999","2021-11-26T16:00:00","78.9166666","11.9333333","7.7","NY ALESUND, SV","FM-12","4","","-12","2","","","-0.03","3","52","","29.64","29.61","","0","139","23","16","","","","","","","","","","","","","","","","","","","","","","","","","","","","","","","","","","","","","","","","","","","","","","","","","","","","","","","","","","","","","","","","","","","","","","","","","","","","","","","","","","","","","","","","","","","SYN004BUFR","","","","","","","","","",""
"01007099999","2021-11-26T21:00:00","78.9166666","11.9333333","7.7","NY ALESUND, SV","FM-12","4","","-13","1","","","+0.01","7","52","","29.65","29.62","","-1","290","12","7","","","","","","","","","","","","","","","","","","","","","","","","","","","","","","","","","","","","","","","","","","","","","","","","","","","","","","","","","","","","","","","","","","","","","","","","","","","","","","","","","","","","","","","","","","","SYN004BUFR","","","","","","","","","",""
"01007099999","2021-11-26T23:00:00","78.9166666","11.9333333","7.7","NY ALESUND, SV","FM-12","4","","-12","2","","","-0.00","0","51","","29.64","29.61","","0","156","14","9","","","","","","","","","","","","","","","","","","","","","","","","","","","","","","","","","","","","","","","","","","","","","","","","","","","","","","","","","","","","","","","","","","","","","","","","","","","","","","","","","","","","","","","","","","","SYN004BUFR","","","","","","","","","",""
"01007099999","2021-11-27T00:00:00","78.9166666","11.9333333","7.7","NY ALESUND, SV","FM-12","4","","-13","3","","","+0.01","8","47","","29.64","29.61","","1","164","12","5","","","","","","","","","","","","","","","","","","","","","","","","","","","","","","","","","","","","","","","","","","","","","","","","","","","","","","","","","","","","","","","","","","","","","","","","","","","","","","","","","","","","","","","","","","","SYN004BUFR","","","","","","","","","",""
"01007099999","2021-11-27T03:00:00","78.9166666","11.9333333","7.7","NY ALESUND, SV","FM-12","4","","-8","5","","","+0.06","7","55","","29.58","29.55","","3","234","","4","","","","","","","","","","","","","","","","","","","","","","","","","","","","","","","","","","","","","","","","","","","","","","","","","","","","","","","","","","","","","","","","","","","","","","","","","","","","","","","","","","","","","","","","","","","SYN004BUFR","","","","","","","","","",""
"01007099999","2021-11-27T05:00:00","78.9166666","11.9333333","7.7","NY ALESUND, SV","FM-12","4","","0","7","","","+0.04","6","72","","29.56","29.53","","6","215","","4","","","","","","","","","","","","","","","","","","","","","","","","","","","","","","","","","","","","","","","","","","","","","","","","","","","","","","","","","","","","","","","","","","","","","","","","","","","","","","","","","","","","","","","","","","","SYN004BUFR","","","","","","","","","",""
"01007099999","2021-11-27T06:00:00","78.9166666","11.9333333","7.7","NY ALESUND, SV","FM-12","4","","1","8","","","+0.05","8","71","","29.53","29.50","","7","261","","2","","","","","","","","","","","","","","","","","","","","","","","","","","","","","","","","","","","","","","","","","","","","","","","","","","","","","","","","","","","","","","","","","","","","","","","","","","","","","","","","","","","","","","","","","","","SYN004BUFR","","","","","","","","","",""
"01007099999","2021-11-27T07:00:00","78.9166666","11.9333333","7.7","NY ALESUND, SV","FM-12","4","","-2","8","","","+0.07","8","64","82","29.50","29.47","43.50","6","275","","5","","","","","","","","","","","","","","","","","","","","","","","","","","","","","","","","","","","","","","","","","","","","","","","","","","","","","","","","","","","","","","","","","","","","","","","","","","","","","","","","","","","","","","","","","","","SYN004BUFR","","","","","","","","","",""
"01007099999","2021-11-27T12:00:00","78.9166666","11.9333333","7.7","NY ALESUND, SV","FM-12","4","","8","20","","","-0.11","1","61","","29.59","29.57","","17","114","30","20","","","","","","","","","","","","","","","","","","","","","","","","","","","","","","","","","","","","","","","","","","","","","","","","","","","","","","","","","","","","","","","","","","","","","","","","","","","","","","","","","","","","","","","","","","","SYN004BUFR","","","","","","","","","",""
"01007099999","2021-11-27T14:00:00","78.9166666","11.9333333","7.7","NY ALESUND, SV","FM-12","4","","5","21","","","-0.02","1","49","","29.60","29.57","","17","068","21","9","","","","","","","","","","","","","","","","","","","","","","","","","","","","","","","","","","","","","","","","","","","","","","","","","","","","","","","","","","","","","","","","","","","","","","","","","","","","","","","","","","","","","","","","","","","SYN004BUFR","","","","","","","","","",""
"01007099999","2021-11-28T00:00:00","78.9166666","11.9333333","7.7","NY ALESUND, SV","FM-12","4","","0","14","","","-0.03","2","54","","29.75","29.72","","11","138","25","17","","","","","","","","","","","","","","","","","","","","","","","","","","","","","","","","","","","","","","","","","","","","","","","","","","","","","","","","","","","","","","","","","","","","","","","","","","","","","","","","","","","","","","","","","","","SYN004BUFR","","","","","","","","","",""
"01007099999","2021-11-28T03:00:00","78.9166666","11.9333333","7.7","NY ALESUND, SV","FM-12","4","","3","16","","","-0.01","3","57","","29.76","29.73","","13","113","29","21","","","","","","","","","","","","","","","","","","","","","","","","","","","","","","","","","","","","","","","","","","","","","","","","","","","","","","","","","","","","","","","","","","","","","","","","","","","","","","","","","","","","","","","","","","","SYN004BUFR","","","","","","","","","",""
"01007099999","2021-11-28T06:00:00","78.9166666","11.9333333","7.7","NY ALESUND, SV","FM-12","4","","4","15","","","-0.01","0","60","","29.77","29.74","","12","100","26","18","","","","","","","","","","","","","","","","","","","","","","","","","","","","","","","","","","","","","","","","","","","","","","","","","","","","","","","","","","","","","","","","","","","","","","","","","","","","","","","","","","","","","","","","","","","SYN004BUFR","","","","","","","","","",""
"01007099999","2021-11-28T07:00:00","78.9166666","11.9333333","7.7","NY ALESUND, SV","FM-12","4","","3","15","","","+0.01","7","59","","29.77","29.74","46.60","12","102","26","19","","","","","","","","","","","","","","","","","","","","","","","","","","","","","","","","","","","","","","","","","","","","","","","","","","","","","","","","","","","","","","","","","","","","","","","","","","","","","","","","","","","","","","","","","","","SYN004BUFR","","","","","","","","","",""
"01007099999","2021-11-28T08:00:00","78.9166666","11.9333333","7.7","NY ALESUND, SV","FM-12","4","","4","15","","","+0.00","7","62","","29.77","29.74","","12","093","25","19","","","","","","","","","","","","","","","","","","","","","","","","","","","","","","","","","","","","","","","","","","","","","","","","","","","","","","","","","","","","","","","","","","","","","","","","","","","","","","","","","","","","","","","","","","","SYN004BUFR","","","","","","","","","",""
"01007099999","2021-11-28T09:00:00","78.9166666","11.9333333","7.7","NY ALESUND, SV","FM-12","4","","4","15","","","-0.01","3","60","","29.78","29.75","","12","096","23","15","","","","","","","","","","","","","","","","","","","","","","","","","","","","","","","","","","","","","","","","","","","","","","","","","","","","","","","","","","","","","","","","","","","","","","","","","","","","","","","","","","","","","","","","","","","SYN004BUFR","","","","","","","","","",""
"01007099999","2021-11-28T10:00:00","78.9166666","11.9333333","7.7","NY ALESUND, SV","FM-12","4","","4","16","","","-0.02","2","61","","29.79","29.76","","13","096","23","17","","","","","","","","","","","","","","","","","","","","","","","","","","","","","","","","","","","","","","","","","","","","","","","","","","","","","","","","","","","","","","","","","","","","","","","","","","","","","","","","","","","","","","","","","","","SYN004BUFR","","","","","","","","","",""
"01007099999","2021-11-28T18:00:00","78.9166666","11.9333333","7.7","NY ALESUND, SV","FM-12","4","","4","16","","","-0.01","2","58","","29.80","29.77","","13","093","24","18","","","","","","","","","","","","","","","","","","","","","","","","","","","","","","","","","","","","","","","","","","","","","","","","","","","","","","","","","","","","","","","","","","","","","","","","","","","","","","","","","","","","","","","","","","","SYN004BUFR","","","","","","","","","",""
"01007099999","2021-11-28T20:00:00","78.9166666","11.9333333","7.7","NY ALESUND, SV","FM-12","4","","5","17","","","-0.01","2","58","","29.81","29.78","","14","098","30","23","","","","","","","","","","","","","","","","","","","","","","","","","","","","","","","","","","","","","","","","","","","","","","","","","","","","","","","","","","","","","","","","","","","","","","","","","","","","","","","","","","","","","","","","","","","SYN004BUFR","","","","","","","","","",""
"01007099999","2021-11-28T21:00:00","78.9166666","11.9333333","7.7","NY ALESUND, SV","FM-12","4","","5","17","","","-0.02","2","59","","29.82","29.79","","14","099","32","21","","","","","","","","","","","","","","","","","","","","","","","","","","","","","","","","","","","","","","","","","","","","","","","","","","","","","","","","","","","","","","","","","","","","","","","","","","","","","","","","","","","","","","","","","","","SYN004BUFR","","","","","","","","","",""
"01007099999","2021-11-29T00:00:00","78.9166666","11.9333333","7.7","NY ALESUND, SV","FM-12","4","","8","18","","","-0.01","2","67","","29.82","29.79","","15","101","27","17","","","","","","","","","","","","","","","","","","","","","","","","","","","","","","","","","","","","","","","","","","","","","","","","","","","","","","","","","","","","","","","","","","","","","","","","","","","","","","","","","","","","","","","","","","","SYN004BUFR","","","","","","","","","",""
"01007099999","2021-11-29T01:00:00","78.9166666","11.9333333","7.7","NY ALESUND, SV","FM-12","4","","7","19","","","0.00","4","59","","29.83","29.80","","16","108","33","23","","","","","","","","","","","","","","","","","","","","","","","","","","","","","","","","","","","","","","","","","","","","","","","","","","","","","","","","","","","","","","","","","","","","","","","","","","","","","","","","","","","","","","","","","","","SYN004BUFR","","","","","","","","","",""
"01007099999","2021-11-29T05:00:00","78.9166666","11.9333333","7.7","NY ALESUND, SV","FM-12","4","","7","19","","","-0.01","3","60","","29.83","29.80","","16","131","29","11","","","","","","","","","","","","","","","","","","","","","","","","","","","","","","","","","","","","","","","","","","","","","","","","","","","","","","","","","","","","","","","","","","","","","","","","","","","","","","","","","","","","","","","","","","","SYN004BUFR","","","","","","","","","",""
"01007099999","2021-11-29T06:00:00","78.9166666","11.9333333","7.7","NY ALESUND, SV","FM-12","4","","6","18","","","-0.02","2","59","","29.84","29.81","","15","157","24","6","","","","","","","","","","","","","","","","","","","","","","","","","","","","","","","","","","","","","","","","","","","","","","","","","","","","","","","","","","","","","","","","","","","","","","","","","","","","","","","","","","","","","","","","","","","SYN004BUFR","","","","","","","","","",""
"01007099999","2021-11-29T14:00:00","78.9166666","11.9333333","7.7","NY ALESUND, SV","FM-12","4","","6","17","","","+0.01","7","60","","29.85","29.82","","14","167","","6","","","","","","","","","","","","","","","","","","","","","","","","","","","","","","","","","","","","","","","","","","","","","","","","","","","","","","","","","","","","","","","","","","","","","","","","","","","","","","","","","","","","","","","","","","","SYN004BUFR","","","","","","","","","",""
"01007099999","2021-11-29T19:00:00","78.9166666","11.9333333","7.7","NY ALESUND, SV","FM-12","4","","6","18","","","+0.01","7","59","FEW:02 49","29.84","29.81","46.60","15","149","13","9","","","","","","","","","","","","","","","","","","","","","","","","","","","","","","","","","","","","","","","","","","","","","","","","","","","","","","","","","","","","","","","","","","","","","","","","","","","","","","","","","","","","","","","","","","","SYN004BUFR","","","","","","","","","",""
"01007099999","2021-11-29T20:00:00","78.9166666","11.9333333","7.7","NY ALESUND, SV","FM-12","4","","6","18","","","+0.01","7","60","","29.84","29.81","","15","157","13","8","","","","","","","","","","","","","","","","","","","","","","","","","","","","","","","","","","","","","","","","","","","","","","","","","","","","","","","","","","","","","","","","","","","","","","","","","","","","","","","","","","","","","","","","","","","SYN004BUFR","","","","","","","","","",""
"01007099999","2021-11-29T21:00:00","78.9166666","11.9333333","7.7","NY ALESUND, SV","FM-12","4","","6","18","","","0.00","4","58","","29.84","29.81","","15","142","","4","","","","","","","","","","","","","","","","","","","","","","","","","","","","","","","","","","","","","","","","","","","","","","","","","","","","","","","","","","","","","","","","","","","","","","","","","","","","","","","","","","","","","","","","","","","SYN004BUFR","","","","","","","","","",""
"01007099999","2021-11-29T23:00:00","78.9166666","11.9333333","7.7","NY ALESUND, SV","FM-12","4","","4","17","","","+0.01","7","56","","29.82","29.79","","14","136","13","8","","","","","","","","","","","","","","","","","","","","","","","","","","","","","","","","","","","","","","","","","","","","","","","","","","","","","","","","","","","","","","","","","","","","","","","","","","","","","","","","","","","","","","","","","","","SYN004BUFR","","","","","","","","","",""
"01007099999","2021-11-30T02:00:00","78.9166666","11.9333333","7.7","NY ALESUND, SV","FM-12","4","","4","18","","","+0.01","7","54","","29.81","29.78","","15","152","13","9","","","","","","","","","","","","","","","","","","","","","","","","","","","","","","","","","","","","","","","","","","","","","","","","","","","","","","","","","","","","","","","","","","","","","","","","","","","","","","","","","","","","","","","","","","","SYN004BUFR","","","","","","","","","",""
"01007099999","2021-11-30T03:00:00","78.9166666","11.9333333","7.7","NY ALESUND, SV","FM-12","4","","5","19","","","+0.01","7","55","","29.80","29.77","","16","220","13","4","","","","","","","","","","","","","","","","","","","","","","","","","","","","","","","","","","","","","","","","","","","","","","","","","","","","","","","","","","","","","","","","","","","","","","","","","","","","","","","","","","","","","","","","","","","SYN004BUFR","","","","","","","","","",""
"01007099999","2021-11-30T05:00:00","78.9166666","11.9333333","7.7","NY ALESUND, SV","FM-12","4","","4","15","","","+0.01","7","63","","29.79","29.76","","12","081","","2","","","","","","","","","","","","","","","","","","","","","","","","","","","","","","","","","","","","","","","","","","","","","","","","","","","","","","","","","","","","","","","","","","","","","","","","","","","","","","","","","","","","","","","","","","","SYN004BUFR","","","","","","","","","",""
"01007099999","2021-11-30T13:00:00","78.9166666","11.9333333","7.7","NY ALESUND, SV","FM-12","4","","2","12","","","","","62","","29.80","29.77","24.85","10","132","13","9","","","","","","","","","","","","","","","","","","","","","","","","","","","","","","","","","","","","","","","","","","","","","","","","","","","","","","","","","","","","","","","","","","","","","","","","","","","","","","","","","","","","","","","","","","","SYN004BUFR","","","","","","","","","",""
"01007099999","2021-11-30T14:00:00","78.9166666","11.9333333","7.7","NY ALESUND, SV","FM-12","4","","3","15","","","+0.01","7","59","","29.80","29.77","","12","247","13","2","","","","","","","","","","","","","","","","","","","","","","","","","","","","","","","","","","","","","","","","","","","","","","","","","","","","","","","","","","","","","","","","","","","","","","","","","","","","","","","","","","","","","","","","","","","SYN004BUFR","","","","","","","","","",""
"01007099999","2021-11-30T15:00:00","78.9166666","11.9333333","7.7","NY ALESUND, SV","FM-12","4","","2","13","","","","","62","","29.80","29.77","","11","142","","1","","","","","","","","","","","","","","","","","","","","","","","","","","","","","","","","","","","","","","","","","","","","","","","","","","","","","","","","","","","","","","","","","","","","","","","","","","","","","","","","","","","","","","","","","","","SYN004BUFR","","","","","","","","","",""
"01007099999","2021-11-30T19:00:00","78.9166666","11.9333333","7.7","NY ALESUND, SV","FM-12","4","","0","11","","","-0.03","2","60","","29.83","29.80","24.85","9","241","13","3","","","","","","","","","","","","","","","","","","","","","","","","","","","","","","","","","","","","","","","","","","","","","","","","","","","","","","","","","","","","","","","","","","","","","","","","","","","","","","","","","","","","","","","","","","","SYN004BUFR","","","","","","","","","",""
"01007099999","2021-11-30T21:00:00","78.9166666","11.9333333","7.7","NY ALESUND, SV","FM-12","4","","-1","12","","","-0.03","2","56","","29.85","29.82","","9","125","","2","","","","","","","","","","","","","","","","","","","","","","","","","","","","","","","","","","","","","","","","","","","","","","","","","","","","","","","","","","","","","","","","","","","","","","","","","","","","","","","","","","","","","","","","","","","SYN004BUFR","","","","","","","","","",""
"01007099999","2021-11-30T23:00:00","78.9166666","11.9333333","7.7","NY ALESUND, SV","FM-12","4","","0","13","","","-0.04","2","55","","29.87","29.84","","10","135","","4","","","","","","","","","","","","","","","","","","","","","","","","","","","","","","","","","","","","","","","","","","","","","","","","","","","","","","","","","","","","","","","","","","","","","","","","","","","","","","","","","","","","","","","","","","","SYN004BUFR","","","","","","","","","",""
"01007099999","2021-12-01T02:00:00","78.9166666","11.9333333","7.7","NY ALESUND, SV","FM-12","4","","0","13","","","-0.04","2","55","","29.91","29.88","","10","149","","4","","","","","","","","","","","","","","","","","","","","","","","","","","","","","","","","","","","","","","","","","","","","","","","","","","","","","","","","","","","","","","","","","","","","","","","","","","","","","","","","","","","","","","","","","","","SYN004BUFR","","","","","","","","","",""
"01007099999","2021-12-01T08:00:00","78.9166666","11.9333333","7.7","NY ALESUND, SV","FM-12","4","","3","12","","","-0.04","2","67","","30.00","29.97","","10","144","","3","","","","","","","","","","","","","","","","","","","","","","","","","","","","","","","","","","","","","","","","","","","","","","","","","","","","","","","","","","","","","","","","","","","","","","","","","","","","","","","","","","","","","","","","","","","SYN004BUFR","","","","","","","","","",""
"01007099999","2021-12-01T10:00:00","78.9166666","11.9333333","7.7","NY ALESUND, SV","FM-12","4","","0","10","","","-0.04","2","63","","30.03","30.00","","8","146","12","6","","","","","","","","","","","","","","","","","","","","","","","","","","","","","","","","","","","","","","","","","","","","","","","","","","","","","","","","","","","","","","","","","","","","","","","","","","","","","","","","","","","","","","","","","","","SYN004BUFR","","","","","","","","","",""
"01007099999","2021-12-01T11:00:00","78.9166666","11.9333333","7.7","NY ALESUND, SV","FM-12","4","","0","12","","","-0.04","1","59","","30.04","30.01","","10","132","11","8","","","","","","","","","","","","","","","","","","","","","","","","","","","","","","","","","","","","","","","","","","","","","","","","","","","","","","","","","","","","","","","","","","","","","","","","","","","","","","","","","","","","","","","","","","","SYN004BUFR","","","","","","","","","",""
"01007099999","2021-12-01T13:00:00","78.9166666","11.9333333","7.7","NY ALESUND, SV","FM-12","4","","2","13","","","-0.02","2","62","BKN:07 20","30.05","30.02","34.18","11","154","13","3","","","","","","","","","","","","","","","","","","","","","","","","","","","","","","","","","","","","","","","","","","","","","","","","","","","","","","","","","","","","","","","","","","","","","","","","","","","","","","","","","","","","","","","","","","","SYN004BUFR","","","","","","","","","",""
"01007099999","2021-12-01T17:00:00","78.9166666","11.9333333","7.7","NY ALESUND, SV","FM-12","4","","8","15","","","+0.01","7","77","","30.04","30.01","","13","138","13","10","","","","","","","","","","","","","","","","","","","","","","","","","","","","","","","","","","","","","","","","","","","","","","","","","","","","","","","","","","","","","","","","","","","","","","","","","","","","","","","","","","","","","","","","","","","SYN004BUFR","","","","","","","","","",""
"01007099999","2021-12-01T18:00:00","78.9166666","11.9333333","7.7","NY ALESUND, SV","FM-12","4","","8","15","","","+0.01","7","75","","30.03","30.01","","13","148","14","5","","","","","","","","","","","","","","","","","","","","","","","","","","","","","","","","","","","","","","","","","","","","","","","","","","","","","","","","","","","","","","","","","","","","","","","","","","","","","","","","","","","","","","","","","","","SYN004BUFR","","","","","","","","","",""
"01007099999","2021-12-01T20:00:00","78.9166666","11.9333333","7.7","NY ALESUND, SV","FM-12","4","","11","18","","","+0.03","7","76","","30.01","29.98","","16","136","13","6","","","","","","","","","","","","","","","","","","","","","","","","","","","","","","","","","","","","","","","","","","","","","","","","","","","","","","","","","","","","","","","","","","","","","","","","","","","","","","","","","","","","","","","","","","","SYN004BUFR","","","","","","","","","",""
"01007099999","2021-12-02T00:00:00","78.9166666","11.9333333","7.7","NY ALESUND, SV","FM-12","4","","16","24","","","+0.05","7","71","","29.95","29.92","","22","142","16","6","","","","","","","","","","","","","","","","","","","","","","","","","","","","","","","","","","","","","","","","","","","","","","","","","","","","","","","","","","","","","","","","","","","","","","","","","","","","","","","","","","","","","","","","","","","SYN004BUFR","","","","","","","","","",""
"01007099999","2021-12-02T01:00:00","78.9166666","11.9333333","7.7","NY ALESUND, SV","FM-12","4","","16","23","","","+0.05","7","74","","29.93","29.90","","21","128","26","9","","","","","","","","","","","","","","","","","","","","","","","","","","","","","","","","","","","","","","","","","","","","","","","","","","","","","","","","","","","","","","","","","","","","","","","","","","","","","","","","","","","","","","","","","","","SYN004BUFR","","","","","","","","","",""
"01007099999","2021-12-02T02:00:00","78.9166666","11.9333333","7.7","NY ALESUND, SV","FM-12","4","","15","23","","","+0.04","6","72","","29.92","29.89","","21","113","28","17","","","","","","","","","","","","","","","","","","","","","","","","","","","","","","","","","","","","","","","","","","","","","","","","","","","","","","","","","","","","","","","","","","","","","","","","","","","","","","","","","","","","","","","","","","","SYN004BUFR","","","","","","","","","",""
"01007099999","2021-12-02T05:00:00","78.9166666","11.9333333","7.7","NY ALESUND, SV","FM-12","4","","20","23","0.02","","+0.08","6","90","","29.84","29.81","","22","129","18","11","","","","","","","","","","","","","","","","","","","","","","","","","","","","","","","","","","","","","","","","","","","","","","","","","","","","","","","","","","","","","","","","","","","","","","","","","","","","","","","","","","","","","","","","","","","SYN004BUFR","","","","","","","","","",""
"01007099999","2021-12-02T09:00:00","78.9166666","11.9333333","7.7","NY ALESUND, SV","FM-12","4","","22","27","0.02","","+0.04","6","82","","29.78","29.75","","25","240","20","11","","","","","","","","","","","","","","","","","","","","","","","","","","","","","","","","","","","","","","","","","","","","","","","","","","","","","","","","","","","","","","","","","","","","","","","","","","","","","","","","","","","","","","","","","","","SYN004BUFR","","","","","","","","","",""
"01007099999","2021-12-02T10:00:00","78.9166666","11.9333333","7.7","NY ALESUND, SV","FM-12","4","","23","26","0.06","","+0.04","6","90","","29.77","29.74","","25","262","19","8","","","","","","","","","","","","","","","","","","","","","","","","","","","","","","","","","","","","","","","","","","","","","","","","","","","","","","","","","","","","","","","","","","","","","","","","","","","","","","","","","","","","","","","","","","","SYN004BUFR","","","","","","","","","",""
"01007099999","2021-12-02T14:00:00","78.9166666","11.9333333","7.7","NY ALESUND, SV","FM-12","4","","17","29","","","+0.04","6","61","","29.71","29.68","","25","221","35","11","","","","","","","","","","","","","","","","","","","","","","","","","","","","","","","","","","","","","","","","","","","","","","","","","","","","","","","","","","","","","","","","","","","","","","","","","","","","","","","","","","","","","","","","","","","SYN004BUFR","","","","","","","","","",""
"01007099999","2021-12-02T15:00:00","78.9166666","11.9333333","7.7","NY ALESUND, SV","FM-12","4","","19","29","0.00","","+0.02","7","64","","29.70","29.67","","26","230","25","12","","","","","","","","","","","","","","","","","","","","","","","","","","","","","","","","","","","","","","","","","","","","","","","","","","","","","","","","","","","","","","","","","","","","","","","","","","","","","","","","","","","","","","","","","","","SYN004BUFR","","","","","","","","","",""
"01007099999","2021-12-02T18:00:00","78.9166666","11.9333333","7.7","NY ALESUND, SV","FM-12","4","","22","29","0.01","","+0.04","7","77","","29.66","29.63","","27","198","18","7","","","","","","","","","","","","","","","","","","","","","","","","","","","","","","","","","","","","","","","","","","","","","","","","","","","","","","","","","","","","","","","","","","","","","","","","","","","","","","","","","","","","","","","","","","","SYN004BUFR","","","","","","","","","",""
"01007099999","2021-12-02T20:00:00","78.9166666","11.9333333","7.7","NY ALESUND, SV","FM-12","4","","24","27","0.01","","+0.05","7","88","","29.63","29.60","","26","124","30","11","","","","","","","","","","","","","","","","","","","","","","","","","","","","","","","","","","","","","","","","","","","","","","","","","","","","","","","","","","","","","","","","","","","","","","","","","","","","","","","","","","","","","","","","","","","SYN004BUFR","","","","","","","","","",""
"01007099999","2021-12-02T21:00:00","78.9166666","11.9333333","7.7","NY ALESUND, SV","FM-12","4","","24","27","0.01","","+0.04","7","90","","29.62","29.59","","26","119","20","16","","","","","","","","","","","","","","","","","","","","","","","","","","","","","","","","","","","","","","","","","","","","","","","","","","","","","","","","","","","","","","","","","","","","","","","","","","","","","","","","","","","","","","","","","","","SYN004BUFR","","","","","","","","","",""
"01007099999","2021-12-02T22:00:00","78.9166666","11.9333333","7.7","NY ALESUND, SV","FM-12","4","","25","29","0.00","","+0.04","7","86","","29.60","29.57","","28","145","29","15","","","","","","","","","","","","","","","","","","","","","","","","","","","","","","","","","","","","","","","","","","","","","","","","","","","","","","","","","","","","","","","","","","","","","","","","","","","","","","","","","","","","","","","","","","","SYN004BUFR","","","","","","","","","",""
"01007099999","2021-12-02T23:00:00","78.9166666","11.9333333","7.7","NY ALESUND, SV","FM-12","4","","27","28","0.07","","+0.03","6","95","","29.60","29.57","","28","125","29","12","","","","","","","","","","","","","","","","","","","","","","","","","","","","","","","","","","","","","","","","","","","","","","","","","","","","","","","","","","","","","","","","","","","","","","","","","","","","","","","","","","","","","","","","","","","SYN004BUFR","","","","","","","","","",""
"01007099999","2021-12-03T06:00:00","78.9166666","11.9333333","7.7","NY ALESUND, SV","FM-12","4","","25","33","0.00","","+0.02","7","73","","29.54","29.51","","30","171","23","7","","","","","","","","","","","","","","","","","","","","","","","","","","","","","","","","","","","","","","","","","","","","","","","","","","","","","","","","","","","","","","","","","","","","","","","","","","","","","","","","","","","","","","","","","","","SYN004BUFR","","","","","","","","","",""
"01007099999","2021-12-03T07:00:00","78.9166666","11.9333333","7.7","NY ALESUND, SV","FM-12","4","","27","33","0.02","||SHSN","+0.03","7","78","","29.53","29.50","1.24","31","078","23","4","","","","","","","","","","","","","","","","","","","","","","","","","","","","","","","","","","","","","","","","","","","","","","","","","","","","","","","","","","","","","","","","","","","","","","","","","","","","","","","","","","","","","","","","","","","SYN004BUFR","","","","","","","","","",""
"01007099999","2021-12-03T09:00:00","78.9166666","11.9333333","7.7","NY ALESUND, SV","FM-12","4","","26","35","0.01","","+0.01","5","70","","29.54","29.51","","32","212","28","9","","","","","","","","","","","","","","","","","","","","","","","","","","","","","","","","","","","","","","","","","","","","","","","","","","","","","","","","","","","","","","","","","","","","","","","","","","","","","","","","","","","","","","","","","","","SYN004BUFR","","","","","","","","","",""
"01007099999","2021-12-03T11:00:00","78.9166666","11.9333333","7.7","NY ALESUND, SV","FM-12","4","","27","35","0.00","","-0.01","2","72","","29.55","29.52","","32","209","27","11","","","","","","","","","","","","","","","","","","","","","","","","","","","","","","","","","","","","","","","","","","","","","","","","","","","","","","","","","","","","","","","","","","","","","","","","","","","","","","","","","","","","","","","","","","","SYN004BUFR","","","","","","","","","",""
"01007099999","2021-12-03T12:00:00","78.9166666","11.9333333","7.7","NY ALESUND, SV","FM-12","4","","27","36","0.01","","-0.01","0","72","","29.54","29.51","","33","205","28","8","","","","","","","","","","","","","","","","","","","","","","","","","","","","","","","","","","","","","","","","","","","","","","","","","","","","","","","","","","","","","","","","","","","","","","","","","","","","","","","","","","","","","","","","","","","SYN004BUFR","","","","","","","","","",""
"01007099999","2021-12-04T01:00:00","78.9166666","11.9333333","7.7","NY ALESUND, SV","FM-12","4","","28","36","0.00","","+0.00","5","73","","29.57","29.54","","33","230","41","23","","","","","","","","","","","","","","","","","","","","","","","","","","","","","","","","","","","","","","","","","","","","","","","","","","","","","","","","","","","","","","","","","","","","","","","","","","","","","","","","","","","","","","","","","","","SYN004BUFR","","","","","","","","","",""
"01007099999","2021-12-04T02:00:00","78.9166666","11.9333333","7.7","NY ALESUND, SV","FM-12","4","","26","36","0.01","","+0.01","8","68","","29.56","29.53","","32","229","41","26","","","","","","","","","","","","","","","","","","","","","","","","","","","","","","","","","","","","","","","","","","","","","","","","","","","","","","","","","","","","","","","","","","","","","","","","","","","","","","","","","","","","","","","","","","","SYN004BUFR","","","","","","","","","",""
"01007099999","2021-12-04T07:00:00","78.9166666","11.9333333","7.7","NY ALESUND, SV","FM-12","4","","25","27","0.01","||DRSN","-0.02","3","92","VV:09","29.57","29.54","1.24","26","322","24","18","","","","","","","","","","","","","","","","","","","","","","","","","","","","","","","","","","","","","","","","","","","","","","","","","","","","","","","","","","","","","","","","","","","","","","","","","","","","","","","","","","","","","","","","","","","SYN004BUFR","","","","","","","","","",""
"01007099999","2021-12-04T10:00:00","78.9166666","11.9333333","7.7","NY ALESUND, SV","FM-12","4","","18","21","","","-0.06","1","88","","29.63","29.60","","20","314","27","20","","","","","","","","","","","","","","","","","","","","","","","","","","","","","","","","","","","","","","","","","","","","","","","","","","","","","","","","","","","","","","","","","","","","","","","","","","","","","","","","","","","","","","","","","","","SYN004BUFR","","","","","","","","","",""
"01007099999","2021-12-04T12:00:00","78.9166666","11.9333333","7.7","NY ALESUND, SV","FM-12","4","","15","19","","","-0.04","2","86","","29.65","29.62","","18","307","23","14","","","","","","","","","","","","","","","","","","","","","","","","","","","","","","","","","","","","","","","","","","","","","","","","","","","","","","","","","","","","","","","","","","","","","","","","","","","","","","","","","","","","","","","","","","","SYN004BUFR","","","","","","","","","",""
"01007099999","2021-12-04T21:00:00","78.9166666","11.9333333","7.7","NY ALESUND, SV","FM-12","4","","10","16","","","-0.02","2","77","","29.71","29.68","","14","292","23","14","","","","","","","","","","","","","","","","","","","","","","","","","","","","","","","","","","","","","","","","","","","","","","","","","","","","","","","","","","","","","","","","","","","","","","","","","","","","","","","","","","","","","","","","","","","SYN004BUFR","","","","","","","","","",""
"01007099999","2021-12-04T23:00:00","78.9166666","11.9333333","7.7","NY ALESUND, SV","FM-12","4","","10","17","","","-0.00","0","74","","29.70","29.67","","15","264","19","10","","","","","","","","","","","","","","","","","","","","","","","","","","","","","","","","","","","","","","","","","","","","","","","","","","","","","","","","","","","","","","","","","","","","","","","","","","","","","","","","","","","","","","","","","","","SYN004BUFR","","","","","","","","","",""
"01007099999","2021-12-05T00:00:00","78.9166666","11.9333333","7.7","NY ALESUND, SV","FM-12","4","","12","18","0.00","","-0.00","0","79","","29.71","29.68","","16","282","19","13","","","","","","","","","","","","","","","","","","","","","","","","","","","","","","","","","","","","","","","","","","","","","","","","","","","","","","","","","","","","","","","","","","","","","","","","","","","","","","","","","","","","","","","","","","","SYN004BUFR","","","","","","","","","",""
"01007099999","2021-12-05T01:00:00","78.9166666","11.9333333","7.7","NY ALESUND, SV","FM-12","4","","13","17","","","+0.00","5","83","","29.72","29.69","","16","299","22","17","","","","","","","","","","","","","","","","","","","","","","","","","","","","","","","","","","","","","","","","","","","","","","","","","","","","","","","","","","","","","","","","","","","","","","","","","","","","","","","","","","","","","","","","","","","SYN004BUFR","","","","","","","","","",""
"01007099999","2021-12-05T02:00:00","78.9166666","11.9333333","7.7","NY ALESUND, SV","FM-12","4","","12","18","","","-0.02","2","79","","29.72","29.70","","16","308","30","15","","","","","","","","","","","","","","","","","","","","","","","","","","","","","","","","","","","","","","","","","","","","","","","","","","","","","","","","","","","","","","","","","","","","","","","","","","","","","","","","","","","","","","","","","","","SYN004BUFR","","","","","","","","","",""
"01007099999","2021-12-05T06:00:00","78.9166666","11.9333333","7.7","NY ALESUND, SV","FM-12","4","","10","16","","","-0.02","2","76","","29.76","29.73","","14","312","22","16","","","","","","","","","","","","","","","","","","","","","","","","","","","","","","","","","","","","","","","","","","","","","","","","","","","","","","","","","","","","","","","","","","","","","","","","","","","","","","","","","","","","","","","","","","","SYN004BUFR","","","","","","","","","",""
"01007099999","2021-12-05T08:00:00","78.9166666","11.9333333","7.7","NY ALESUND, SV","FM-12","4","","9","15","","","-0.04","3","78","","29.78","29.75","","14","306","18","14","","","","","","","","","","","","","","","","","","","","","","","","","","","","","","","","","","","","","","","","","","","","","","","","","","","","","","","","","","","","","","","","","","","","","","","","","","","","","","","","","","","","","","","","","","","SYN004BUFR","","","","","","","","","",""
"01007099999","2021-12-05T10:00:00","78.9166666","11.9333333","7.7","NY ALESUND, SV","FM-12","4","","5","12","","","-0.05","2","73","","29.82","29.79","","10","281","18","12","","","","","","","","","","","","","","","","","","","","","","","","","","","","","","","","","","","","","","","","","","","","","","","","","","","","","","","","","","","","","","","","","","","","","","","","","","","","","","","","","","","","","","","","","","","SYN004BUFR","","","","","","","","","",""
"01007099999","2021-12-05T11:00:00","78.9166666","11.9333333","7.7","NY ALESUND, SV","FM-12","4","","6","13","","","-0.04","1","76","","29.82","29.79","","11","232","13","5","","","","","","","","","","","","","","","","","","","","","","","","","","","","","","","","","","","","","","","","","","","","","","","","","","","","","","","","","","","","","","","","","","","","","","","","","","","","","","","","","","","","","","","","","","","SYN004BUFR","","","","","","","","","",""
"01007099999","2021-12-05T14:00:00","78.9166666","11.9333333","7.7","NY ALESUND, SV","FM-12","4","","7","13","","","-0.03","1","77","","29.85","29.82","","12","255","15","6","","","","","","","","","","","","","","","","","","","","","","","","","","","","","","","","","","","","","","","","","","","","","","","","","","","","","","","","","","","","","","","","","","","","","","","","","","","","","","","","","","","","","","","","","","","SYN004BUFR","","","","","","","","","",""
"01007099999","2021-12-05T15:00:00","78.9166666","11.9333333","7.7","NY ALESUND, SV","FM-12","4","","5","11","","","-0.03","1","78","","29.85","29.83","","10","125","","5","","","","","","","","","","","","","","","","","","","","","","","","","","","","","","","","","","","","","","","","","","","","","","","","","","","","","","","","","","","","","","","","","","","","","","","","","","","","","","","","","","","","","","","","","","","SYN004BUFR","","","","","","","","","",""
"01007099999","2021-12-05T16:00:00","78.9166666","11.9333333","7.7","NY ALESUND, SV","FM-12","4","","3","9","","","-0.01","2","75","","29.85","29.83","","8","134","","4","","","","","","","","","","","","","","","","","","","","","","","","","","","","","","","","","","","","","","","","","","","","","","","","","","","","","","","","","","","","","","","","","","","","","","","","","","","","","","","","","","","","","","","","","","","SYN004BUFR","","","","","","","","","",""
"01007099999","2021-12-05T18:00:00","78.9166666","11.9333333","7.7","NY ALESUND, SV","FM-12","4","","4","9","","","-0.02","2","80","","29.88","29.85","","8","202","13","2","","","","","","","","","","","","","","","","","","","","","","","","","","","","","","","","","","","","","","","","","","","","","","","","","","","","","","","","","","","","","","","","","","","","","","","","","","","","","","","","","","","","","","","","","","","SYN004BUFR","","","","","","","","","",""
"01007099999","2021-12-05T20:00:00","78.9166666","11.9333333","7.7","NY ALESUND, SV","FM-12","4","","5","11","","","+0.01","8","75","","29.85","29.82","","10","141","15","12","","","","","","","","","","","","","","","","","","","","","","","","","","","","","","","","","","","","","","","","","","","","","","","","","","","","","","","","","","","","","","","","","","","","","","","","","","","","","","","","","","","","","","","","","","","SYN004BUFR","","","","","","","","","",""
"01007099999","2021-12-05T22:00:00","78.9166666","11.9333333","7.7","NY ALESUND, SV","FM-12","4","","8","15","","","+0.03","6","74","","29.84","29.81","","13","148","11","9","","","","","","","","","","","","","","","","","","","","","","","","","","","","","","","","","","","","","","","","","","","","","","","","","","","","","","","","","","","","","","","","","","","","","","","","","","","","","","","","","","","","","","","","","","","SYN004BUFR","","","","","","","","","",""
"01007099999","2021-12-05T23:00:00","78.9166666","11.9333333","7.7","NY ALESUND, SV","FM-12","4","","10","17","","","+0.04","8","74","","29.82","29.79","","15","137","11","6","","","","","","","","","","","","","","","","","","","","","","","","","","","","","","","","","","","","","","","","","","","","","","","","","","","","","","","","","","","","","","","","","","","","","","","","","","","","","","","","","","","","","","","","","","","SYN004BUFR","","","","","","","","","",""
"01007099999","2021-12-06T00:00:00","78.9166666","11.9333333","7.7","NY ALESUND, SV","FM-12","4","","16","19","","","+0.06","8","85","","29.78","29.75","","18","123","25","20","","","","","","","","","","","","","","","","","","","","","","","","","","","","","","","","","","","","","","","","","","","","","","","","","","","","","","","","","","","","","","","","","","","","","","","","","","","","","","","","","","","","","","","","","","","SYN004BUFR","","","","","","","","","",""
"01007099999","2021-12-06T02:00:00","78.9166666","11.9333333","7.7","NY ALESUND, SV","FM-12","4","","16","22","","","+0.09","6","80","","29.72","29.70","","20","115","33","26","","","","","","","","","","","","","","","","","","","","","","","","","","","","","","","","","","","","","","","","","","","","","","","","","","","","","","","","","","","","","","","","","","","","","","","","","","","","","","","","","","","","","","","","","","","SYN004BUFR","","","","","","","","","",""
"01007099999","2021-12-06T08:00:00","78.9166666","11.9333333","7.7","NY ALESUND, SV","FM-12","4","","28","32","0.09","","+0.06","6","84","","29.54","29.51","","30","218","26","9","","","","","","","","","","","","","","","","","","","","","","","","","","","","","","","","","","","","","","","","","","","","","","","","","","","","","","","","","","","","","","","","","","","","","","","","","","","","","","","","","","","","","","","","","","","SYN004BUFR","","","","","","","","","",""
"01007099999","2021-12-06T09:00:00","78.9166666","11.9333333","7.7","NY ALESUND, SV","FM-12","4","","26","33","0.04","","+0.06","8","76","","29.53","29.50","","30","219","36","15","","","","","","","","","","","","","","","","","","","","","","","","","","","","","","","","","","","","","","","","","","","","","","","","","","","","","","","","","","","","","","","","","","","","","","","","","","","","","","","","","","","","","","","","","","","SYN004BUFR","","","","","","","","","",""
"01007099999","2021-12-06T11:00:00","78.9166666","11.9333333","7.7","NY ALESUND, SV","FM-12","4","","26","34","0.02","","+0.01","8","72","","29.53","29.50","","31","223","31","11","","","","","","","","","","","","","","","","","","","","","","","","","","","","","","","","","","","","","","","","","","","","","","","","","","","","","","","","","","","","","","","","","","","","","","","","","","","","","","","","","","","","","","","","","","","SYN004BUFR","","","","","","","","","",""
"01007099999","2021-12-06T12:00:00","78.9166666","11.9333333","7.7","NY ALESUND, SV","FM-12","4","","26","34","0.02","","+0.01","8","73","","29.52","29.49","","31","232","36","21","","","","","","","","","","","","","","","","","","","","","","","","","","","","","","","","","","","","","","","","","","","","","","","","","","","","","","","","","","","","","","","","","","","","","","","","","","","","","","","","","","","","","","","","","","","SYN004BUFR","","","","","","","","","",""
"01007099999","2021-12-06T14:00:00","78.9166666","11.9333333","7.7","NY ALESUND, SV","FM-12","4","","27","34","0.01","","+0.02","7","74","","29.50","29.47","","31","231","40","24","","","","","","","","","","","","","","","","","","","","","","","","","","","","","","","","","","","","","","","","","","","","","","","","","","","","","","","","","","","","","","","","","","","","","","","","","","","","","","","","","","","","","","","","","","","SYN004BUFR","","","","","","","","","",""
"01007099999","2021-12-06T16:00:00","78.9166666","11.9333333","7.7","NY ALESUND, SV","FM-12","4","","26","35","","","+0.00","5","71","","29.50","29.47","","32","233","37","24","","","","","","","","","","","","","","","","","","","","","","","","","","","","","","","","","","","","","","","","","","","","","","","","","","","","","","","","","","","","","","","","","","","","","","","","","","","","","","","","","","","","","","","","","","","SYN004BUFR","","","","","","","","","",""
"01007099999","2021-12-06T20:00:00","78.9166666","11.9333333","7.7","NY ALESUND, SV","FM-12","4","","24","34","","","+0.01","7","67","","29.50","29.47","","30","232","35","21","","","","","","","","","","","","","","","","","","","","","","","","","","","","","","","","","","","","","","","","","","","","","","","","","","","","","","","","","","","","","","","","","","","","","","","","","","","","","","","","","","","","","","","","","","","SYN004BUFR","","","","","","","","","",""
"01007099999","2021-12-06T21:00:00","78.9166666","11.9333333","7.7","NY ALESUND, SV","FM-12","4","","24","35","","","+0.01","7","66","","29.49","29.47","","31","234","31","21","","","","","","","","","","","","","","","","","","","","","","","","","","","","","","","","","","","","","","","","","","","","","","","","","","","","","","","","","","","","","","","","","","","","","","","","","","","","","","","","","","","","","","","","","","","SYN004BUFR","","","","","","","","","",""
"01007099999","2021-12-07T02:00:00","78.9166666","11.9333333","7.7","NY ALESUND, SV","FM-12","4","","24","34","","","+0.01","7","66","","29.50","29.47","","30","237","34","18","","","","","","","","","","","","","","","","","","","","","","","","","","","","","","","","","","","","","","","","","","","","","","","","","","","","","","","","","","","","","","","","","","","","","","","","","","","","","","","","","","","","","","","","","","","SYN004BUFR","","","","","","","","","",""
"01007099999","2021-12-07T03:00:00","78.9166666","11.9333333","7.7","NY ALESUND, SV","FM-12","4","","29","32","","","+0.00","5","86","","29.51","29.48","","31","235","31","20","","","","","","","","","","","","","","","","","","","","","","","","","","","","","","","","","","","","","","","","","","","","","","","","","","","","","","","","","","","","","","","","","","","","","","","","","","","","","","","","","","","","","","","","","","","SYN004BUFR","","","","","","","","","",""
"01007099999","2021-12-07T07:00:00","78.9166666","11.9333333","7.7","NY ALESUND, SV","FM-12","4","","28","32","0.00","","-0.02","3","85","BKN:07 10","29.52","29.49","6.21","30","269","29","12","","","","","","","","","","","","","","","","","","","","","","","","","","","","","","","","","","","","","","","","","","","","","","","","","","","","","","","","","","","","","","","","","","","","","","","","","","","","","","","","","","","","","","","","","","","SYN004BUFR","","","","","","","","","",""
"01007099999","2021-12-07T10:00:00","78.9166666","11.9333333","7.7","NY ALESUND, SV","FM-12","4","","26","32","","","-0.07","2","80","","29.59","29.57","","30","268","21","11","","","","","","","","","","","","","","","","","","","","","","","","","","","","","","","","","","","","","","","","","","","","","","","","","","","","","","","","","","","","","","","","","","","","","","","","","","","","","","","","","","","","","","","","","","","SYN004BUFR","","","","","","","","","",""
"01007099999","2021-12-07T11:00:00","78.9166666","11.9333333","7.7","NY ALESUND, SV","FM-12","4","","26","32","0.00","","-0.08","2","80","","29.62","29.59","","30","277","18","11","","","","","","","","","","","","","","","","","","","","","","","","","","","","","","","","","","","","","","","","","","","","","","","","","","","","","","","","","","","","","","","","","","","","","","","","","","","","","","","","","","","","","","","","","","","SYN004BUFR","","","","","","","","","",""
"01007099999","2021-12-07T12:00:00","78.9166666","11.9333333","7.7","NY ALESUND, SV","FM-12","4","","26","31","","","-0.06","1","81","","29.63","29.60","","29","274","17","11","","","","","","","","","","","","","","","","","","","","","","","","","","","","","","","","","","","","","","","","","","","","","","","","","","","","","","","","","","","","","","","","","","","","","","","","","","","","","","","","","","","","","","","","","","","SYN004BUFR","","","","","","","","","",""
"01007099999","2021-12-07T13:00:00","78.9166666","11.9333333","7.7","NY ALESUND, SV","FM-12","4","","27","30","0.00","","-0.05","1","90","OVC:08 10","29.65","29.62","5.59","29","291","17","7","","","","","","","","","","","","","","","","","","","","","","","","","","","","","","","","","","","","","","","","","","","","","","","","","","","","","","","","","","","","","","","","","","","","","","","","","","","","","","","","","","","","","","","","","","","SYN004BUFR","","","","","","","","","",""
"01007099999","2021-12-07T14:00:00","78.9166666","11.9333333","7.7","NY ALESUND, SV","FM-12","4","","25","30","","","-0.04","2","82","","29.66","29.63","","28","282","14","10","","","","","","","","","","","","","","","","","","","","","","","","","","","","","","","","","","","","","","","","","","","","","","","","","","","","","","","","","","","","","","","","","","","","","","","","","","","","","","","","","","","","","","","","","","","SYN004BUFR","","","","","","","","","",""
"01007099999","2021-12-07T16:00:00","78.9166666","11.9333333","7.7","NY ALESUND, SV","FM-12","4","","25","30","","","-0.06","3","82","","29.70","29.67","","28","279","12","7","","","","","","","","","","","","","","","","","","","","","","","","","","","","","","","","","","","","","","","","","","","","","","","","","","","","","","","","","","","","","","","","","","","","","","","","","","","","","","","","","","","","","","","","","","","SYN004BUFR","","","","","","","","","",""
"01007099999","2021-12-07T21:00:00","78.9166666","11.9333333","7.7","NY ALESUND, SV","FM-12","4","","26","28","","","-0.05","2","93","","29.79","29.76","","27","257","","2","","","","","","","","","","","","","","","","","","","","","","","","","","","","","","","","","","","","","","","","","","","","","","","","","","","","","","","","","","","","","","","","","","","","","","","","","","","","","","","","","","","","","","","","","","","SYN004BUFR","","","","","","","","","",""
"01007099999","2021-12-08T04:00:00","78.9166666","11.9333333","7.7","NY ALESUND, SV","FM-12","4","","23","28","","","-0.03","2","83","","29.86","29.83","","26","236","","1","","","","","","","","","","","","","","","","","","","","","","","","","","","","","","","","","","","","","","","","","","","","","","","","","","","","","","","","","","","","","","","","","","","","","","","","","","","","","","","","","","","","","","","","","","","SYN004BUFR","","","","","","","","","",""
"01007099999","2021-12-08T05:00:00","78.9166666","11.9333333","7.7","NY ALESUND, SV","FM-12","4","","23","28","","","-0.04","2","83","","29.88","29.85","","26","039","","1","","","","","","","","","","","","","","","","","","","","","","","","","","","","","","","","","","","","","","","","","","","","","","","","","","","","","","","","","","","","","","","","","","","","","","","","","","","","","","","","","","","","","","","","","","","SYN004BUFR","","","","","","","","","",""
"01007099999","2021-12-08T06:00:00","78.9166666","11.9333333","7.7","NY ALESUND, SV","FM-12","4","","22","28","","","-0.03","2","78","","29.88","29.85","","26","206","","3","","","","","","","","","","","","","","","","","","","","","","","","","","","","","","","","","","","","","","","","","","","","","","","","","","","","","","","","","","","","","","","","","","","","","","","","","","","","","","","","","","","","","","","","","","","SYN004BUFR","","","","","","","","","",""
"01007099999","2021-12-08T15:00:00","78.9166666","11.9333333","7.7","NY ALESUND, SV","FM-12","4","","18","27","","","0.00","4","71","","29.91","29.88","","24","181","","4","","","","","","","","","","","","","","","","","","","","","","","","","","","","","","","","","","","","","","","","","","","","","","","","","","","","","","","","","","","","","","","","","","","","","","","","","","","","","","","","","","","","","","","","","","","SYN004BUFR","","","","","","","","","",""
"01007099999","2021-12-08T21:00:00","78.9166666","11.9333333","7.7","NY ALESUND, SV","FM-12","4","","20","26","","","+0.01","7","76","","29.88","29.85","","24","135","","8","","","","","","","","","","","","","","","","","","","","","","","","","","","","","","","","","","","","","","","","","","","","","","","","","","","","","","","","","","","","","","","","","","","","","","","","","","","","","","","","","","","","","","","","","","","SYN004BUFR","","","","","","","","","",""
"01007099999","2021-12-08T23:00:00","78.9166666","11.9333333","7.7","NY ALESUND, SV","FM-12","4","","21","27","","","+0.01","7","79","","29.87","29.84","","25","145","","4","","","","","","","","","","","","","","","","","","","","","","","","","","","","","","","","","","","","","","","","","","","","","","","","","","","","","","","","","","","","","","","","","","","","","","","","","","","","","","","","","","","","","","","","","","","SYN004BUFR","","","","","","","","","",""
"01007099999","2021-12-09T06:00:00","78.9166666","11.9333333","7.7","NY ALESUND, SV","FM-12","4","","23","27","","","+0.02","7","83","","29.82","29.79","","26","137","","5","","","","","","","","","","","","","","","","","","","","","","","","","","","","","","","","","","","","","","","","","","","","","","","","","","","","","","","","","","","","","","","","","","","","","","","","","","","","","","","","","","","","","","","","","","","SYN004BUFR","","","","","","","","","",""
"01007099999","2021-12-09T07:00:00","78.9166666","11.9333333","7.7","NY ALESUND, SV","FM-12","4","","22","28","","","+0.02","7","79","SCT:04 33","29.81","29.78","27.96","26","147","","6","","","","","","","","","","","","","","","","","","","","","","","","","","","","","","","","","","","","","","","","","","","","","","","","","","","","","","","","","","","","","","","","","","","","","","","","","","","","","","","","","","","","","","","","","","","SYN004BUFR","","","","","","","","","",""
"01007099999","2021-12-09T08:00:00","78.9166666","11.9333333","7.7","NY ALESUND, SV","FM-12","4","","22","27","","","+0.04","7","79","","29.79","29.76","","25","123","11","5","","","","","","","","","","","","","","","","","","","","","","","","","","","","","","","","","","","","","","","","","","","","","","","","","","","","","","","","","","","","","","","","","","","","","","","","","","","","","","","","","","","","","","","","","","","SYN004BUFR","","","","","","","","","",""
"01007099999","2021-12-09T10:00:00","78.9166666","11.9333333","7.7","NY ALESUND, SV","FM-12","4","","20","28","","","+0.02","6","73","","29.78","29.75","","25","130","","5","","","","","","","","","","","","","","","","","","","","","","","","","","","","","","","","","","","","","","","","","","","","","","","","","","","","","","","","","","","","","","","","","","","","","","","","","","","","","","","","","","","","","","","","","","","SYN004BUFR","","","","","","","","","",""
"01007099999","2021-12-09T11:00:00","78.9166666","11.9333333","7.7","NY ALESUND, SV","FM-12","4","","19","28","","","+0.02","8","69","","29.78","29.75","","25","117","","5","","","","","","","","","","","","","","","","","","","","","","","","","","","","","","","","","","","","","","","","","","","","","","","","","","","","","","","","","","","","","","","","","","","","","","","","","","","","","","","","","","","","","","","","","","","SYN004BUFR","","","","","","","","","",""
"01007099999","2021-12-09T17:00:00","78.9166666","11.9333333","7.7","NY ALESUND, SV","FM-12","4","","16","24","","","+0.00","5","73","","29.76","29.73","","22","126","13","6","","","","","","","","","","","","","","","","","","","","","","","","","","","","","","","","","","","","","","","","","","","","","","","","","","","","","","","","","","","","","","","","","","","","","","","","","","","","","","","","","","","","","","","","","","","SYN004BUFR","","","","","","","","","",""
"01007099999","2021-12-09T18:00:00","78.9166666","11.9333333","7.7","NY ALESUND, SV","FM-12","4","","15","23","","","-0.00","0","72","","29.75","29.72","","21","155","16","6","","","","","","","","","","","","","","","","","","","","","","","","","","","","","","","","","","","","","","","","","","","","","","","","","","","","","","","","","","","","","","","","","","","","","","","","","","","","","","","","","","","","","","","","","","","SYN004BUFR","","","","","","","","","",""
"01007099999","2021-12-09T22:00:00","78.9166666","11.9333333","7.7","NY ALESUND, SV","FM-12","4","","19","25","","","+0.01","7","78","","29.75","29.72","","23","141","13","11","","","","","","","","","","","","","","","","","","","","","","","","","","","","","","","","","","","","","","","","","","","","","","","","","","","","","","","","","","","","","","","","","","","","","","","","","","","","","","","","","","","","","","","","","","","SYN004BUFR","","","","","","","","","",""
"01007099999","2021-12-10T02:00:00","78.9166666","11.9333333","7.7","NY ALESUND, SV","FM-12","4","","21","27","","","+0.01","7","75","","29.74","29.71","","25","154","13","9","","","","","","","","","","","","","","","","","","","","","","","","","","","","","","","","","","","","","","","","","","","","","","","","","","","","","","","","","","","","","","","","","","","","","","","","","","","","","","","","","","","","","","","","","","","SYN004BUFR","","","","","","","","","",""
"01007099999","2021-12-10T05:00:00","78.9166666","11.9333333","7.7","NY ALESUND, SV","FM-12","4","","20","30","","","0.00","4","68","","29.74","29.71","","27","162","11","5","","","","","","","","","","","","","","","","","","","","","","","","","","","","","","","","","","","","","","","","","","","","","","","","","","","","","","","","","","","","","","","","","","","","","","","","","","","","","","","","","","","","","","","","","","","SYN004BUFR","","","","","","","","","",""
"01007099999","2021-12-10T09:00:00","78.9166666","11.9333333","7.7","NY ALESUND, SV","FM-12","4","","22","30","","","-0.01","2","72","","29.76","29.73","","27","152","14","2","","","","","","","","","","","","","","","","","","","","","","","","","","","","","","","","","","","","","","","","","","","","","","","","","","","","","","","","","","","","","","","","","","","","","","","","","","","","","","","","","","","","","","","","","","","SYN004BUFR","","","","","","","","","",""
"01007099999","2021-12-10T10:00:00","78.9166666","11.9333333","7.7","NY ALESUND, SV","FM-12","4","","24","30","","","-0.02","2","80","","29.76","29.73","","28","135","12","9","","","","","","","","","","","","","","","","","","","","","","","","","","","","","","","","","","","","","","","","","","","","","","","","","","","","","","","","","","","","","","","","","","","","","","","","","","","","","","","","","","","","","","","","","","","SYN004BUFR","","","","","","","","","",""
"01007099999","2021-12-10T11:00:00","78.9166666","11.9333333","7.7","NY ALESUND, SV","FM-12","4","","24","29","","","-0.01","0","81","","29.76","29.73","","27","134","13","9","","","","","","","","","","","","","","","","","","","","","","","","","","","","","","","","","","","","","","","","","","","","","","","","","","","","","","","","","","","","","","","","","","","","","","","","","","","","","","","","","","","","","","","","","","","SYN004BUFR","","","","","","","","","",""
"01007099999","2021-12-10T19:00:00","78.9166666","11.9333333","7.7","NY ALESUND, SV","FM-12","4","","29","30","0.04","","+0.00","5","96","VV:09","29.77","29.74","1.06","30","092","13","7","","","","","","","","","","","","","","","","","","","","","","","","","","","","","","","","","","","","","","","","","","","","","","","","","","","","","","","","","","","","","","","","","","","","","","","","","","","","","","","","","","","","","","","","","","","SYN004BUFR","","","","","","","","","",""
"01007099999","2021-12-10T20:00:00","78.9166666","11.9333333","7.7","NY ALESUND, SV","FM-12","4","","29","31","0.04","","-0.01","2","94","","29.77","29.74","","30","091","13","6","","","","","","","","","","","","","","","","","","","","","","","","","","","","","","","","","","","","","","","","","","","","","","","","","","","","","","","","","","","","","","","","","","","","","","","","","","","","","","","","","","","","","","","","","","","SYN004BUFR","","","","","","","","","",""
"01007099999","2021-12-10T22:00:00","78.9166666","11.9333333","7.7","NY ALESUND, SV","FM-12","4","","27","33","0.01","","0.00","4","78","","29.77","29.74","","31","227","19","13","","","","","","","","","","","","","","","","","","","","","","","","","","","","","","","","","","","","","","","","","","","","","","","","","","","","","","","","","","","","","","","","","","","","","","","","","","","","","","","","","","","","","","","","","","","SYN004BUFR","","","","","","","","","",""
"01007099999","2021-12-11T01:00:00","78.9166666","11.9333333","7.7","NY ALESUND, SV","FM-12","4","","28","29","0.10","","-0.01","3","95","","29.78","29.75","","29","335","15","8","","","","","","","","","","","","","","","","","","","","","","","","","","","","","","","","","","","","","","","","","","","","","","","","","","","","","","","","","","","","","","","","","","","","","","","","","","","","","","","","","","","","","","","","","","","SYN004BUFR","","","","","","","","","",""
"01007099999","2021-12-11T06:00:00","78.9166666","11.9333333","7.7","NY ALESUND, SV","FM-12","4","","26","30","","","-0.01","2","83","","29.81","29.78","","29","232","17","10","","","","","","","","","","","","","","","","","","","","","","","","","","","","","","","","","","","","","","","","","","","","","","","","","","","","","","","","","","","","","","","","","","","","","","","","","","","","","","","","","","","","","","","","","","","SYN004BUFR","","","","","","","","","",""
"01007099999","2021-12-11T10:00:00","78.9166666","11.9333333","7.7","NY ALESUND, SV","FM-12","4","","27","28","","","-0.03","2","93","","29.84","29.81","","28","140","","5","","","","","","","","","","","","","","","","","","","","","","","","","","","","","","","","","","","","","","","","","","","","","","","","","","","","","","","","","","","","","","","","","","","","","","","","","","","","","","","","","","","","","","","","","","","SYN004BUFR","","","","","","","","","",""
"01007099999","2021-12-11T13:00:00","78.9166666","11.9333333","7.7","NY ALESUND, SV","FM-12","4","","27","28","0.01","","-0.01","2","95","OVC:08 10","29.85","29.82","10.56","28","148","","4","","","","","","","","","","","","","","","","","","","","","","","","","","","","","","","","","","","","","","","","","","","","","","","","","","","","","","","","","","","","","","","","","","","","","","","","","","","","","","","","","","","","","","","","","","","SYN004BUFR","","","","","","","","","",""
"01007099999","2021-12-11T17:00:00","78.9166666","11.9333333","7.7","NY ALESUND, SV","FM-12","4","","17","27","","","-0.02","3","65","","29.87","29.84","","24","268","17","12","","","","","","","","","","","","","","","","","","","","","","","","","","","","","","","","","","","","","","","","","","","","","","","","","","","","","","","","","","","","","","","","","","","","","","","","","","","","","","","","","","","","","","","","","","","SYN004BUFR","","","","","","","","","",""
"01007099999","2021-12-11T18:00:00","78.9166666","11.9333333","7.7","NY ALESUND, SV","FM-12","4","","16","25","","","-0.04","3","69","","29.89","29.86","","22","249","19","7","","","","","","","","","","","","","","","","","","","","","","","","","","","","","","","","","","","","","","","","","","","","","","","","","","","","","","","","","","","","","","","","","","","","","","","","","","","","","","","","","","","","","","","","","","","SYN004BUFR","","","","","","","","","",""
"01007099999","2021-12-11T21:00:00","78.9166666","11.9333333","7.7","NY ALESUND, SV","FM-12","4","","17","27","","","-0.01","0","63","","29.91","29.88","","24","233","15","10","","","","","","","","","","","","","","","","","","","","","","","","","","","","","","","","","","","","","","","","","","","","","","","","","","","","","","","","","","","","","","","","","","","","","","","","","","","","","","","","","","","","","","","","","","","SYN004BUFR","","","","","","","","","",""
"01007099999","2021-12-11T23:00:00","78.9166666","11.9333333","7.7","NY ALESUND, SV","FM-12","4","","19","28","","","","","68","","29.91","29.88","","25","125","16","4","","","","","","","","","","","","","","","","","","","","","","","","","","","","","","","","","","","","","","","","","","","","","","","","","","","","","","","","","","","","","","","","","","","","","","","","","","","","","","","","","","","","","","","","","","","SYN004BUFR","","","","","","","","","",""
"01007099999","2021-12-12T01:00:00","78.9166666","11.9333333","7.7","NY ALESUND, SV","FM-12","4","","22","27","","","+0.02","8","83","","29.89","29.86","","25","088","12","10","","","","","","","","","","","","","","","","","","","","","","","","","","","","","","","","","","","","","","","","","","","","","","","","","","","","","","","","","","","","","","","","","","","","","","","","","","","","","","","","","","","","","","","","","","","SYN004BUFR","","","","","","","","","",""
"01007099999","2021-12-12T05:00:00","78.9166666","11.9333333","7.7","NY ALESUND, SV","FM-12","4","","28","30","0.02","","+0.04","5","92","","29.84","29.81","","29","059","16","6","","","","","","","","","","","","","","","","","","","","","","","","","","","","","","","","","","","","","","","","","","","","","","","","","","","","","","","","","","","","","","","","","","","","","","","","","","","","","","","","","","","","","","","","","","","SYN004BUFR","","","","","","","","","",""
"01007099999","2021-12-12T06:00:00","78.9166666","11.9333333","7.7","NY ALESUND, SV","FM-12","4","","24","33","0.04","","+0.02","5","70","","29.84","29.81","","30","266","30","12","","","","","","","","","","","","","","","","","","","","","","","","","","","","","","","","","","","","","","","","","","","","","","","","","","","","","","","","","","","","","","","","","","","","","","","","","","","","","","","","","","","","","","","","","","","SYN004BUFR","","","","","","","","","",""
"01007099999","2021-12-12T07:00:00","78.9166666","11.9333333","7.7","NY ALESUND, SV","FM-12","4","","22","33","","||DRSN","+0.01","5","63","SCT:04 20","29.84","29.81","18.64","29","240","39","21","","","","","","","","","","","","","","","","","","","","","","","","","","","","","","","","","","","","","","","","","","","","","","","","","","","","","","","","","","","","","","","","","","","","","","","","","","","","","","","","","","","","","","","","","","","SYN004BUFR","","","","","","","","","",""
"01007099999","2021-12-12T08:00:00","78.9166666","11.9333333","7.7","NY ALESUND, SV","FM-12","4","","23","33","","","+0.00","7","68","","29.84","29.81","","29","243","32","21","","","","","","","","","","","","","","","","","","","","","","","","","","","","","","","","","","","","","","","","","","","","","","","","","","","","","","","","","","","","","","","","","","","","","","","","","","","","","","","","","","","","","","","","","","","SYN004BUFR","","","","","","","","","",""
"01007099999","2021-12-12T09:00:00","78.9166666","11.9333333","7.7","NY ALESUND, SV","FM-12","4","","26","32","","","-0.01","3","78","","29.85","29.82","","30","241","36","15","","","","","","","","","","","","","","","","","","","","","","","","","","","","","","","","","","","","","","","","","","","","","","","","","","","","","","","","","","","","","","","","","","","","","","","","","","","","","","","","","","","","","","","","","","","SYN004BUFR","","","","","","","","","",""
"01007099999","2021-12-12T15:00:00","78.9166666","11.9333333","7.7","NY ALESUND, SV","FM-12","4","","24","30","","","-0.01","2","80","","29.87","29.84","","28","271","25","15","","","","","","","","","","","","","","","","","","","","","","","","","","","","","","","","","","","","","","","","","","","","","","","","","","","","","","","","","","","","","","","","","","","","","","","","","","","","","","","","","","","","","","","","","","","SYN004BUFR","","","","","","","","","",""
"01007099999","2021-12-12T17:00:00","78.9166666","11.9333333","7.7","NY ALESUND, SV","FM-12","4","","26","29","0.00","","-0.01","0","88","","29.87","29.84","","28","283","15","9","","","","","","","","","","","","","","","","","","","","","","","","","","","","","","","","","","","","","","","","","","","","","","","","","","","","","","","","","","","","","","","","","","","","","","","","","","","","","","","","","","","","","","","","","","","SYN004BUFR","","","","","","","","","",""
"01007099999","2021-12-12T22:00:00","78.9166666","11.9333333","7.7","NY ALESUND, SV","FM-12","4","","25","27","","","-0.01","0","93","","29.88","29.85","","26","360","","0","","","","","","","","","","","","","","","","","","","","","","","","","","","","","","","","","","","","","","","","","","","","","","","","","","","","","","","","","","","","","","","","","","","","","","","","","","","","","","","","","","","","","","","","","","","SYN004BUFR","","","","","","","","","",""
"01007099999","2021-12-13T00:00:00","78.9166666","11.9333333","7.7","NY ALESUND, SV","FM-12","4","","26","27","0.00","","-0.01","0","92","","29.89","29.86","","27","133","","7","","","","","","","","","","","","","","","","","","","","","","","","","","","","","","","","","","","","","","","","","","","","","","","","","","","","","","","","","","","","","","","","","","","","","","","","","","","","","","","","","","","","","","","","","","","SYN004BUFR","","","","","","","","","",""
"01007099999","2021-12-13T02:00:00","78.9166666","11.9333333","7.7","NY ALESUND, SV","FM-12","4","","26","27","0.00","","+0.00","7","94","","29.89","29.86","","27","133","","2","","","","","","","","","","","","","","","","","","","","","","","","","","","","","","","","","","","","","","","","","","","","","","","","","","","","","","","","","","","","","","","","","","","","","","","","","","","","","","","","","","","","","","","","","","","SYN004BUFR","","","","","","","","","",""
"01007099999","2021-12-13T03:00:00","78.9166666","11.9333333","7.7","NY ALESUND, SV","FM-12","4","","25","31","","","+0.01","7","78","","29.88","29.85","","29","270","21","6","","","","","","","","","","","","","","","","","","","","","","","","","","","","","","","","","","","","","","","","","","","","","","","","","","","","","","","","","","","","","","","","","","","","","","","","","","","","","","","","","","","","","","","","","","","SYN004BUFR","","","","","","","","","",""
"01007099999","2021-12-13T04:00:00","78.9166666","11.9333333","7.7","NY ALESUND, SV","FM-12","4","","27","30","","","+0.01","7","89","","29.88","29.85","","29","106","","4","","","","","","","","","","","","","","","","","","","","","","","","","","","","","","","","","","","","","","","","","","","","","","","","","","","","","","","","","","","","","","","","","","","","","","","","","","","","","","","","","","","","","","","","","","","SYN004BUFR","","","","","","","","","",""
"01007099999","2021-12-13T05:00:00","78.9166666","11.9333333","7.7","NY ALESUND, SV","FM-12","4","","26","32","","","+0.01","5","79","","29.88","29.85","","30","241","17","10","","","","","","","","","","","","","","","","","","","","","","","","","","","","","","","","","","","","","","","","","","","","","","","","","","","","","","","","","","","","","","","","","","","","","","","","","","","","","","","","","","","","","","","","","","","SYN004BUFR","","","","","","","","","",""
"01007099999","2021-12-13T07:00:00","78.9166666","11.9333333","7.7","NY ALESUND, SV","FM-12","4","","27","31","","","+0.01","7","83","BKN:07 20","29.87","29.84","31.07","30","257","25","11","","","","","","","","","","","","","","","","","","","","","","","","","","","","","","","","","","","","","","","","","","","","","","","","","","","","","","","","","","","","","","","","","","","","","","","","","","","","","","","","","","","","","","","","","","","SYN004BUFR","","","","","","","","","",""
"01007099999","2021-12-13T09:00:00","78.9166666","11.9333333","7.7","NY ALESUND, SV","FM-12","4","","27","32","","","-0.01","3","83","","29.88","29.85","","30","247","20","11","","","","","","","","","","","","","","","","","","","","","","","","","","","","","","","","","","","","","","","","","","","","","","","","","","","","","","","","","","","","","","","","","","","","","","","","","","","","","","","","","","","","","","","","","","","SYN004BUFR","","","","","","","","","",""
"01007099999","2021-12-13T11:00:00","78.9166666","11.9333333","7.7","NY ALESUND, SV","FM-12","4","","26","31","","","-0.03","1","83","","29.89","29.86","","29","283","19","9","","","","","","","","","","","","","","","","","","","","","","","","","","","","","","","","","","","","","","","","","","","","","","","","","","","","","","","","","","","","","","","","","","","","","","","","","","","","","","","","","","","","","","","","","","","SYN004BUFR","","","","","","","","","",""
"01007099999","2021-12-13T13:00:00","78.9166666","11.9333333","7.7","NY ALESUND, SV","FM-12","4","","25","32","","","-0.01","2","76","BKN:07 20","29.90","29.87","31.07","29","234","20","5","","","","","","","","","","","","","","","","","","","","","","","","","","","","","","","","","","","","","","","","","","","","","","","","","","","","","","","","","","","","","","","","","","","","","","","","","","","","","","","","","","","","","","","","","","","SYN004BUFR","","","","","","","","","",""
"01007099999","2021-12-13T18:00:00","78.9166666","11.9333333","7.7","NY ALESUND, SV","FM-12","4","","26","29","","","+0.01","7","87","","29.87","29.84","","28","143","","6","","","","","","","","","","","","","","","","","","","","","","","","","","","","","","","","","","","","","","","","","","","","","","","","","","","","","","","","","","","","","","","","","","","","","","","","","","","","","","","","","","","","","","","","","","","SYN004BUFR","","","","","","","","","",""
"01007099999","2021-12-14T19:00:00","78.9166666","11.9333333","7.7","NY ALESUND, SV","FM-12","4","","16","26","","","+0.05","7","66","SCT:03 20","29.56","29.53","34.18","23","305","26","4","","","","","","","","","","","","","","","","","","","","","","","","","","","","","","","","","","","","","","","","","","","","","","","","","","","","","","","","","","","","","","","","","","","","","","","","","","","","","","","","","","","","","","","","","","","SYN004BUFR","","","","","","","","","",""
"01007099999","2021-12-18T07:00:00","78.9166666","11.9333333","7.7","NY ALESUND, SV","FM-12","4","","21","32","","","-0.03","1","63","BKN:06 20","29.70","29.67","46.60","28","100","16","13","","","","","","","","","","","","","","","","","","","","","","","","","","","","","","","","","","","","","","","","","","","","","","","","","","","","","","","","","","","","","","","","","","","","","","","","","","","","","","","","","","","","","","","","","","","SYN004BUFR","","","","","","","","","",""
"01007099999","2021-12-22T13:00:00","78.9166666","11.9333333","7.7","NY ALESUND, SV","FM-12","4","","-4","10","","","-0.07","1","53","82","30.27","30.24","46.60","7","137","28","18","","","","","","","","","","","","","","","","","","","","","","","","","","","","","","","","","","","","","","","","","","","","","","","","","","","","","","","","","","","","","","","","","","","","","","","","","","","","","","","","","","","","","","","","","","","SYN004BUFR","","","","","","","","","",""
"01007099999","2021-12-23T19:00:00","78.9166666","11.9333333","7.7","NY ALESUND, SV","FM-12","4","","-7","8","","","+0.03","6","48","82","30.33","30.30","24.85","6","272","","5","","","","","","","","","","","","","","","","","","","","","","","","","","","","","","","","","","","","","","","","","","","","","","","","","","","","","","","","","","","","","","","","","","","","","","","","","","","","","","","","","","","","","","","","","","","SYN004BUFR","","","","","","","","","",""
"01007099999","2021-12-24T10:00:00","78.9166666","11.9333333","7.7","NY ALESUND, SV","FM-12","4","","-5","10","","","-0.00","3","50","","30.24","30.22","","7","256","","7","","","","","","","","","","","","","","","","","","","","","","","","","","","","","","","","","","","","","","","","","","","","","","","","","","","","","","","","","","","","","","","","","","","","","","","","","","","","","","","","","","","","","","","","","","","SYN004BUFR","","","","","","","","","",""
